{
"type": "FeatureCollection",
"name": "geo_16_認知症対応型通所介護",
"crs": { "type": "name", "properties": { "name": "urn:ogc:def:crs:OGC:1.3:CRS84" } },
"features": [
{ "type": "Feature", "properties": { "内容": "あさひホーム吉作【認知症対応型通所介護】富山県富山市吉作４２６１－５", "url": "https://www.kaigokensaku.mhlw.go.jp/16/index.php?action_kouhyou_detail_004_kani=true&JigyosyoCd=1690101025-00&ServiceCd=720&Type=search", "url2": "http://asahicare.com" }, "geometry": { "type": "Point", "coordinates": [ 137.162047199999961, 36.7043831 ] } },
{ "type": "Feature", "properties": { "内容": "認知症対応型通所介護バッハ【認知症対応型通所介護】富山市八尾町井田610-1", "url": "https://www.kaigokensaku.mhlw.go.jp/16/index.php?action_kouhyou_detail_004_kani=true&JigyosyoCd=1690100092-00&ServiceCd=720&Type=search", "url2": "http://haginoiin.jp/" }, "geometry": { "type": "Point", "coordinates": [ 137.149133, 36.60139 ] } },
{ "type": "Feature", "properties": { "内容": "デイサービスなごみ【認知症対応型通所介護】富山県富山市飯野１－１", "url": "https://www.kaigokensaku.mhlw.go.jp/16/index.php?action_kouhyou_detail_004_kani=true&JigyosyoCd=1690100209-00&ServiceCd=720&Type=search", "url2": null }, "geometry": { "type": "Point", "coordinates": [ 137.249109200000021, 36.7193498 ] } },
{ "type": "Feature", "properties": { "内容": "サロンふくふく【認知症対応型通所介護】下新町16-11", "url": "https://www.kaigokensaku.mhlw.go.jp/16/index.php?action_kouhyou_detail_004_kani=true&JigyosyoCd=1690100324-00&ServiceCd=720&Type=search", "url2": null }, "geometry": { "type": "Point", "coordinates": [ 137.21445940000001, 36.7132634 ] } },
{ "type": "Feature", "properties": { "内容": "はなまる岩瀬デイサービスセンター【認知症対応型通所介護】富山県富山市西宮１番地１", "url": "https://www.kaigokensaku.mhlw.go.jp/16/index.php?action_kouhyou_detail_004_kani=true&JigyosyoCd=1670101573-00&ServiceCd=720&Type=search", "url2": null }, "geometry": { "type": "Point", "coordinates": [ 137.2270542, 36.7511296 ] } },
{ "type": "Feature", "properties": { "内容": "コスモスの里　中間島【認知症対応型通所介護】富山県富山市中間島2丁目1-10", "url": "https://www.kaigokensaku.mhlw.go.jp/16/index.php?action_kouhyou_detail_004_kani=true&JigyosyoCd=1690101330-00&ServiceCd=720&Type=search", "url2": "http://www.kosumosu-sato.co.jp" }, "geometry": { "type": "Point", "coordinates": [ 137.264994800000011, 36.6907156 ] } },
{ "type": "Feature", "properties": { "内容": "新庄ヒルズプレミアム倶楽部【認知症対応型通所介護】富山県富山市向新庄町四丁目１４番４８", "url": "https://www.kaigokensaku.mhlw.go.jp/16/index.php?action_kouhyou_detail_004_kani=true&JigyosyoCd=1690100365-00&ServiceCd=720&Type=search", "url2": "http://www.shinjyou-hills.jp/" }, "geometry": { "type": "Point", "coordinates": [ 137.266872131877079, 36.703675003418333 ] } },
{ "type": "Feature", "properties": { "内容": "認知症対応型デイサービスくれは陽光苑【認知症対応型通所介護】富山県富山市中老田８４４－１", "url": "https://www.kaigokensaku.mhlw.go.jp/16/index.php?action_kouhyou_detail_004_kani=true&JigyosyoCd=1690100605-00&ServiceCd=720&Type=search", "url2": "http://www.youkou-fukushikai.or.jp/" }, "geometry": { "type": "Point", "coordinates": [ 137.130061500000011, 36.7004662 ] } },
{ "type": "Feature", "properties": { "内容": "認知症デイサービス　日和野【認知症対応型通所介護】富山市下野１７８４－６", "url": "https://www.kaigokensaku.mhlw.go.jp/16/index.php?action_kouhyou_detail_004_kani=true&JigyosyoCd=1690100175-00&ServiceCd=720&Type=search", "url2": "http://www.toyama-hiyori.jp" }, "geometry": { "type": "Point", "coordinates": [ 137.180828600000041, 36.6932903 ] } },
{ "type": "Feature", "properties": { "内容": "デイサービス　ハッピー大久保【認知症対応型通所介護】富山県富山市下大久保３１６８", "url": "https://www.kaigokensaku.mhlw.go.jp/16/index.php?action_kouhyou_detail_004_kani=true&JigyosyoCd=1670103462-00&ServiceCd=720&Type=search", "url2": "http://.toyama-souseikai.or.jp/happy/" }, "geometry": { "type": "Point", "coordinates": [ 137.206049900000039, 36.6104206 ] } },
{ "type": "Feature", "properties": { "内容": "ひなたぼっこ草島ディサービスセンター【認知症対応型通所介護】富山県富山市草島３９９－２", "url": "https://www.kaigokensaku.mhlw.go.jp/16/index.php?action_kouhyou_detail_004_kani=true&JigyosyoCd=1690100621-00&ServiceCd=720&Type=search", "url2": "kaigosoudan@arrow.ocn.ne.jp" }, "geometry": { "type": "Point", "coordinates": [ 137.212353300000018, 36.7489761 ] } },
{ "type": "Feature", "properties": { "内容": "デイサービスセンターひかり苑【認知症対応型通所介護】西田地方町2丁目10番11", "url": "https://www.kaigokensaku.mhlw.go.jp/16/index.php?action_kouhyou_detail_004_kani=true&JigyosyoCd=1690100548-00&ServiceCd=720&Type=search", "url2": "http://www.funankai.jp" }, "geometry": { "type": "Point", "coordinates": [ 137.2054842, 36.682623 ] } },
{ "type": "Feature", "properties": { "内容": "デイサービスしおんの家・愛【認知症対応型通所介護】富山県富山市水橋辻ヶ堂842番地1", "url": "https://www.kaigokensaku.mhlw.go.jp/16/index.php?action_kouhyou_detail_004_kani=true&JigyosyoCd=1670100369-00&ServiceCd=720&Type=search", "url2": "http://www.toyamagata.com/sionnoie" }, "geometry": { "type": "Point", "coordinates": [ 137.295340200000027, 36.75370310000001 ] } },
{ "type": "Feature", "properties": { "内容": "デイサービスかっぱ庵【認知症対応型通所介護】富山県富山市針原中町７４５番地", "url": "https://www.kaigokensaku.mhlw.go.jp/16/index.php?action_kouhyou_detail_004_kani=true&JigyosyoCd=1690100084-00&ServiceCd=720&Type=search", "url2": "www.nigiyaka.net" }, "geometry": { "type": "Point", "coordinates": [ 137.265702, 36.7299463 ] } },
{ "type": "Feature", "properties": { "内容": "アルペンデイサービス【認知症対応型通所介護】富山市小西１７０番地", "url": "https://www.kaigokensaku.mhlw.go.jp/16/index.php?action_kouhyou_detail_004_kani=true&JigyosyoCd=1670100716-00&ServiceCd=720&Type=search", "url2": "http://www.alpen.or.jp" }, "geometry": { "type": "Point", "coordinates": [ 137.257864, 36.7246772 ] } },
{ "type": "Feature", "properties": { "内容": "梨雲苑デイサ－ビスセンタ－【認知症対応型通所介護】富山県富山市吉作1725番地", "url": "https://www.kaigokensaku.mhlw.go.jp/16/index.php?action_kouhyou_detail_004_kani=true&JigyosyoCd=1670100229-00&ServiceCd=720&Type=search", "url2": "http://www.riunen.com" }, "geometry": { "type": "Point", "coordinates": [ 137.153270199999952, 36.7122291 ] } },
{ "type": "Feature", "properties": { "内容": "認知症対応型デイサービスコスモスの里藤ノ木【認知症対応型通所介護】富山市藤木８９３", "url": "https://www.kaigokensaku.mhlw.go.jp/16/index.php?action_kouhyou_detail_004_kani=true&JigyosyoCd=1690100316-00&ServiceCd=720&Type=search", "url2": "http://www.kosumosu-sato.co.jp/" }, "geometry": { "type": "Point", "coordinates": [ 137.267205900000022, 36.689079 ] } },
{ "type": "Feature", "properties": { "内容": "認知症対応型デイサービス笑美寿【認知症対応型通所介護】富山県富山市中島2丁目1-43", "url": "https://www.kaigokensaku.mhlw.go.jp/16/index.php?action_kouhyou_detail_004_kani=true&JigyosyoCd=1690100043-00&ServiceCd=720&Type=search", "url2": "http://care-net.biz/16/cc-ebisu/index.php" }, "geometry": { "type": "Point", "coordinates": [ 137.2203637, 36.7253177 ] } },
{ "type": "Feature", "properties": { "内容": "デイサービス　梨の花【認知症対応型通所介護】富山市吉作300番地16", "url": "https://www.kaigokensaku.mhlw.go.jp/16/index.php?action_kouhyou_detail_004_kani=true&JigyosyoCd=1690100381-00&ServiceCd=720&Type=search", "url2": null }, "geometry": { "type": "Point", "coordinates": [ 137.162980299999958, 36.7107933 ] } },
{ "type": "Feature", "properties": { "内容": "くまの光風苑(認知症対応型通所介護)【認知症対応型通所介護】富山県富山市南金屋111", "url": "https://www.kaigokensaku.mhlw.go.jp/16/index.php?action_kouhyou_detail_004_kani=true&JigyosyoCd=1690101223-00&ServiceCd=720&Type=search", "url2": "https://koufuukai.jp/" }, "geometry": { "type": "Point", "coordinates": [ 137.231399, 36.6341755 ] } },
{ "type": "Feature", "properties": { "内容": "堀川南光風苑【認知症対応型通所介護】富山市本郷町２６２－１４", "url": "https://www.kaigokensaku.mhlw.go.jp/16/index.php?action_kouhyou_detail_004_kani=true&JigyosyoCd=1690100639-00&ServiceCd=720&Type=search", "url2": "https://www.koufuukai.jp/" }, "geometry": { "type": "Point", "coordinates": [ 137.2329042, 36.6630068 ] } },
{ "type": "Feature", "properties": { "内容": "射水万葉会天正寺サポートセンター認知症対応型通所介護【認知症対応型通所介護】富山市天正寺４８４番地１", "url": "https://www.kaigokensaku.mhlw.go.jp/16/index.php?action_kouhyou_detail_004_kani=true&JigyosyoCd=1690100266-00&ServiceCd=720&Type=search", "url2": "http://www.imizu-manyoukai.or.jp/kaigo/support_center_tenshoji/index.html" }, "geometry": { "type": "Point", "coordinates": [ 137.249285200000031, 36.6870483 ] } },
{ "type": "Feature", "properties": { "内容": "認知症デイサービスさふらん【認知症対応型通所介護】富山市水橋辻ヶ堂801番地1", "url": "https://www.kaigokensaku.mhlw.go.jp/16/index.php?action_kouhyou_detail_004_kani=true&JigyosyoCd=1690100696-00&ServiceCd=720&Type=search", "url2": "ｈttp://www.toyamagata.com/sionnoie" }, "geometry": { "type": "Point", "coordinates": [ 137.295971577909881, 36.754879061797801 ] } },
{ "type": "Feature", "properties": { "内容": "富山西デイサービスセンター【認知症対応型通所介護】富山県富山市婦中町下轡田1010", "url": "https://www.kaigokensaku.mhlw.go.jp/16/index.php?action_kouhyou_detail_004_kani=true&JigyosyoCd=1690101603-00&ServiceCd=720&Type=search", "url2": null }, "geometry": { "type": "Point", "coordinates": [ 137.173419, 36.6593479 ] } },
{ "type": "Feature", "properties": { "内容": "認知症デイつばめ野【認知症対応型通所介護】富山県富山市つばめ野2-78", "url": "https://www.kaigokensaku.mhlw.go.jp/16/index.php?action_kouhyou_detail_004_kani=true&JigyosyoCd=1690101595-00&ServiceCd=720&Type=search", "url2": "https://believe-toyama.com" }, "geometry": { "type": "Point", "coordinates": [ 137.1898659, 36.7529675 ] } },
{ "type": "Feature", "properties": { "内容": "はなみずき【認知症対応型通所介護】富山県高岡市中曽根500", "url": "https://www.kaigokensaku.mhlw.go.jp/16/index.php?action_kouhyou_detail_004_kani=true&JigyosyoCd=1690200454-00&ServiceCd=720&Type=search", "url2": "http:/hanamizuki-kenbi.jimdo.com/" }, "geometry": { "type": "Point", "coordinates": [ 137.072566115266426, 36.770460707294362 ] } },
{ "type": "Feature", "properties": { "内容": "デイサービス清水館いこい【認知症対応型通所介護】清水町3丁目3-58", "url": "https://www.kaigokensaku.mhlw.go.jp/16/index.php?action_kouhyou_detail_004_kani=true&JigyosyoCd=1690200306-00&ServiceCd=720&Type=search", "url2": "http//www.daigoen.com" }, "geometry": { "type": "Point", "coordinates": [ 137.003898299999946, 36.7377201 ] } },
{ "type": "Feature", "properties": { "内容": "認知症対応型香野苑デイサービスセンター【認知症対応型通所介護】富山県高岡市上渡161番地", "url": "https://www.kaigokensaku.mhlw.go.jp/16/index.php?action_kouhyou_detail_004_kani=true&JigyosyoCd=1690200074-00&ServiceCd=720&Type=search", "url2": "https://tatenofukushikai-kanoen.com" }, "geometry": { "type": "Point", "coordinates": [ 136.957872700000053, 36.7296946 ] } },
{ "type": "Feature", "properties": { "内容": "にんきデイ中田館【認知症対応型通所介護】高岡市下麻生８９番２だいご中田館", "url": "https://www.kaigokensaku.mhlw.go.jp/16/index.php?action_kouhyou_detail_004_kani=true&JigyosyoCd=1690200645-00&ServiceCd=720&Type=search", "url2": "http://www.daigoen.com/" }, "geometry": { "type": "Point", "coordinates": [ 137.0191542, 36.693376 ] } },
{ "type": "Feature", "properties": { "内容": "ケアホーム二上あいの風【認知症対応型通所介護】富山県高岡市二上町１１４４－１", "url": "https://www.kaigokensaku.mhlw.go.jp/16/index.php?action_kouhyou_detail_004_kani=true&JigyosyoCd=1690200256-00&ServiceCd=720&Type=search", "url2": "http://www.ainokaze.ne.jp" }, "geometry": { "type": "Point", "coordinates": [ 137.005220300000019, 36.7759548 ] } },
{ "type": "Feature", "properties": { "内容": "デイサービスふれあい長寿苑【認知症対応型通所介護】京田７２", "url": "https://www.kaigokensaku.mhlw.go.jp/16/index.php?action_kouhyou_detail_004_kani=true&JigyosyoCd=1690200124-00&ServiceCd=720&Type=search", "url2": "http://kuwayamakai.jp" }, "geometry": { "type": "Point", "coordinates": [ 137.016588800000022, 36.7320767 ] } },
{ "type": "Feature", "properties": { "内容": "デイサービス　アネックス米島【認知症対応型通所介護】富山県高岡市米島329-3", "url": "https://www.kaigokensaku.mhlw.go.jp/16/index.php?action_kouhyou_detail_004_kani=true&JigyosyoCd=1690200538-00&ServiceCd=720&Type=search", "url2": "http://www.meijukai.com" }, "geometry": { "type": "Point", "coordinates": [ 137.039812200000028, 36.7765383 ] } },
{ "type": "Feature", "properties": { "内容": "デイサービスセンターかたかごの郷【認知症対応型通所介護】高岡市伏木古府２丁目６番２号", "url": "https://www.kaigokensaku.mhlw.go.jp/16/index.php?action_kouhyou_detail_004_kani=true&JigyosyoCd=1690200157-00&ServiceCd=720&Type=search", "url2": "htpp:www/webintelligence.co.jp" }, "geometry": { "type": "Point", "coordinates": [ 137.05104110000002, 36.7920536 ] } },
{ "type": "Feature", "properties": { "内容": "藤園苑デイサービスセンターひびき【認知症対応型通所介護】富山県高岡市早川　390-1", "url": "https://www.kaigokensaku.mhlw.go.jp/16/index.php?action_kouhyou_detail_004_kani=true&JigyosyoCd=1690200223-00&ServiceCd=720&Type=search", "url2": "http://www.fujisonoen.or.jp/" }, "geometry": { "type": "Point", "coordinates": [ 136.988288025200632, 36.746649689305755 ] } },
{ "type": "Feature", "properties": { "内容": "認知症対応型通所介護デイサービスセンターといで野はるかぜ【認知症対応型通所介護】富山県　高岡市　戸出３丁目951", "url": "https://www.kaigokensaku.mhlw.go.jp/16/index.php?action_kouhyou_detail_004_kani=true&JigyosyoCd=1690200298-00&ServiceCd=720&Type=search", "url2": "http://harukaze-takaoka.or.jp" }, "geometry": { "type": "Point", "coordinates": [ 136.978051100000016, 36.6831672 ] } },
{ "type": "Feature", "properties": { "内容": "サンケア高岡北【認知症対応型通所介護】富山県高岡市長江464-1", "url": "https://www.kaigokensaku.mhlw.go.jp/16/index.php?action_kouhyou_detail_004_kani=true&JigyosyoCd=1690200611-00&ServiceCd=720&Type=search", "url2": "http://www.suncare-life.com" }, "geometry": { "type": "Point", "coordinates": [ 136.982648299999937, 36.7649198 ] } },
{ "type": "Feature", "properties": { "内容": "認知症対応型デイサービスセンターのむら藤園苑【認知症対応型通所介護】富山県高岡市野村921-1", "url": "https://www.kaigokensaku.mhlw.go.jp/16/index.php?action_kouhyou_detail_004_kani=true&JigyosyoCd=1690200033-00&ServiceCd=720&Type=search", "url2": "http://www.fujisonoen.jp/" }, "geometry": { "type": "Point", "coordinates": [ 137.03611090000004, 36.7507468 ] } },
{ "type": "Feature", "properties": { "内容": "デイサービスセンター如意の里【認知症対応型通所介護】富山県高岡市伏木本町10番8号如意の里", "url": "https://www.kaigokensaku.mhlw.go.jp/16/index.php?action_kouhyou_detail_004_kani=true&JigyosyoCd=1690200504-00&ServiceCd=720&Type=search", "url2": null }, "geometry": { "type": "Point", "coordinates": [ 137.0544099, 36.7996252 ] } },
{ "type": "Feature", "properties": { "内容": "鳳鳴苑デイサービスセンター　えがお【認知症対応型通所介護】富山県高岡市蔵野町3番地", "url": "https://www.kaigokensaku.mhlw.go.jp/16/index.php?action_kouhyou_detail_004_kani=true&JigyosyoCd=1690200207-00&ServiceCd=720&Type=search", "url2": "http://www.fukuhoukai.jp/" }, "geometry": { "type": "Point", "coordinates": [ 136.978160399999979, 36.7229736 ] } },
{ "type": "Feature", "properties": { "内容": "認知症デイサービスひだまり南星【認知症対応型通所介護】高岡市佐野1095番地2", "url": "https://www.kaigokensaku.mhlw.go.jp/16/index.php?action_kouhyou_detail_004_kani=true&JigyosyoCd=1690200322-00&ServiceCd=720&Type=search", "url2": "https://www.hidamari-tmt.com" }, "geometry": { "type": "Point", "coordinates": [ 136.994509826042218, 36.728884860811846 ] } },
{ "type": "Feature", "properties": { "内容": "魚津市東部デイサービスセンター【認知症対応型通所介護】富山県魚津市吉島1095番地2", "url": "https://www.kaigokensaku.mhlw.go.jp/16/index.php?action_kouhyou_detail_004_kani=true&JigyosyoCd=1670400157-00&ServiceCd=720&Type=search", "url2": "www.uoshakyo.net" }, "geometry": { "type": "Point", "coordinates": [ 137.416289, 36.8312812 ] } },
{ "type": "Feature", "properties": { "内容": "ディサービス宮田の家【認知症対応型通所介護】氷見市島尾５４８番地１", "url": "https://www.kaigokensaku.mhlw.go.jp/16/index.php?action_kouhyou_detail_004_kani=true&JigyosyoCd=1690500077-00&ServiceCd=720&Type=search", "url2": "http://www.hyumax.jp/" }, "geometry": { "type": "Point", "coordinates": [ 137.004996804724101, 36.821324744173353 ] } },
{ "type": "Feature", "properties": { "内容": "グループホーム　島尾の家【認知症対応型通所介護】富山県氷見市島尾５９９番地", "url": "https://www.kaigokensaku.mhlw.go.jp/16/index.php?action_kouhyou_detail_004_kani=true&JigyosyoCd=1690500010-00&ServiceCd=720&Type=search", "url2": "https://hyumax.jp" }, "geometry": { "type": "Point", "coordinates": [ 137.008870800000068, 36.824204 ] } },
{ "type": "Feature", "properties": { "内容": "グループホーム堀田の家【認知症対応型通所介護】富山県氷見市堀田４６５-３番地", "url": "https://www.kaigokensaku.mhlw.go.jp/16/index.php?action_kouhyou_detail_004_kani=true&JigyosyoCd=1690500028-00&ServiceCd=720&Type=search", "url2": "hyumax.ico.pz/" }, "geometry": { "type": "Point", "coordinates": [ 136.973846800000047, 36.8135958 ] } },
{ "type": "Feature", "properties": { "内容": "ほたるの里　アルプス　ラ・ガーレ【認知症対応型通所介護】滑川市下梅沢402番地1", "url": "https://www.kaigokensaku.mhlw.go.jp/16/index.php?action_kouhyou_detail_004_kani=true&JigyosyoCd=1690600026-00&ServiceCd=720&Type=search", "url2": null }, "geometry": { "type": "Point", "coordinates": [ 137.335224893254122, 36.746764087541194 ] } },
{ "type": "Feature", "properties": { "内容": "ニチイケアセンター黒部【認知症対応型通所介護】富山県黒部市荻生2897-1", "url": "https://www.kaigokensaku.mhlw.go.jp/16/index.php?action_kouhyou_detail_004_kani=true&JigyosyoCd=1690700172-00&ServiceCd=720&Type=search", "url2": "http://www.nichiigakkan.co.jp" }, "geometry": { "type": "Point", "coordinates": [ 137.461734, 36.8787378 ] } },
{ "type": "Feature", "properties": { "内容": "ホームさくらい通所介護【認知症対応型通所介護】富山県黒部市堀高27-1", "url": "https://www.kaigokensaku.mhlw.go.jp/16/index.php?action_kouhyou_detail_004_kani=true&JigyosyoCd=1690700024-00&ServiceCd=720&Type=search", "url2": "http://www.care-sakurai.com" }, "geometry": { "type": "Point", "coordinates": [ 137.4414471, 36.8809123 ] } },
{ "type": "Feature", "properties": { "内容": "認知症対応型通所介護　わかば【認知症対応型通所介護】富山県黒部市荻生８２１", "url": "https://www.kaigokensaku.mhlw.go.jp/16/index.php?action_kouhyou_detail_004_kani=true&JigyosyoCd=1690700016-00&ServiceCd=720&Type=search", "url2": "http://www4.nsk.ne.jp/ikeda-reha/" }, "geometry": { "type": "Point", "coordinates": [ 137.469502, 36.8878395 ] } },
{ "type": "Feature", "properties": { "内容": "越路さくら認知症対応型デイサービスセンター【認知症対応型通所介護】富山県黒部市荻生7120番2地域密着型特別養護老人ホーム越路さくら", "url": "https://www.kaigokensaku.mhlw.go.jp/16/index.php?action_kouhyou_detail_004_kani=true&JigyosyoCd=1690700073-00&ServiceCd=720&Type=search", "url2": "http://koshijisakura.e-294.net/" }, "geometry": { "type": "Point", "coordinates": [ 137.458645326844817, 36.881017900983217 ] } },
{ "type": "Feature", "properties": { "内容": "砺波市庄東デイサービスセンター【認知症対応型通所介護】富山県砺波市安川２９７番地", "url": "https://www.kaigokensaku.mhlw.go.jp/16/index.php?action_kouhyou_detail_004_kani=true&JigyosyoCd=1670800273-00&ServiceCd=720&Type=search", "url2": "http://yanaze.org/" }, "geometry": { "type": "Point", "coordinates": [ 137.0115621, 36.6275714 ] } },
{ "type": "Feature", "properties": { "内容": "砺波市北部デイサービスセンター【認知症対応型通所介護】富山県砺波市林１２０２番地", "url": "https://www.kaigokensaku.mhlw.go.jp/16/index.php?action_kouhyou_detail_004_kani=true&JigyosyoCd=1690800014-00&ServiceCd=720&Type=search", "url2": null }, "geometry": { "type": "Point", "coordinates": [ 136.9377442, 36.651863 ] } },
{ "type": "Feature", "properties": { "内容": "ケアサポートいろどり【認知症対応型通所介護】浅地５８３番地", "url": "https://www.kaigokensaku.mhlw.go.jp/16/index.php?action_kouhyou_detail_004_kani=true&JigyosyoCd=1690900137-00&ServiceCd=720&Type=search", "url2": "https://care-irodori.sakura.ne.jp/" }, "geometry": { "type": "Point", "coordinates": [ 136.877708699999971, 36.6324115 ] } },
{ "type": "Feature", "properties": { "内容": "はっちょうとんぼデイサービス【認知症対応型通所介護】富山県小矢部市臼谷字岡ノ城６５２０番地", "url": "https://www.kaigokensaku.mhlw.go.jp/16/index.php?action_kouhyou_detail_004_kani=true&JigyosyoCd=1670900263-00&ServiceCd=720&Type=search", "url2": "Ｅ-mail:gh-tonbo@p1.tst.ne.jp" }, "geometry": { "type": "Point", "coordinates": [ 136.820578911114495, 36.623780424217195 ] } },
{ "type": "Feature", "properties": { "内容": "ニチイケアセンター山見【認知症対応型通所介護】富山県南砺市山見330-2", "url": "https://www.kaigokensaku.mhlw.go.jp/16/index.php?action_kouhyou_detail_004_kani=true&JigyosyoCd=1691000176-00&ServiceCd=720&Type=search", "url2": null }, "geometry": { "type": "Point", "coordinates": [ 136.968848900000012, 36.5603756 ] } },
{ "type": "Feature", "properties": { "内容": "やすらぎ荘デイサービスセンター【認知症対応型通所介護】富山県南砺市天池１５７０番地", "url": "https://www.kaigokensaku.mhlw.go.jp/16/index.php?action_kouhyou_detail_004_kani=true&JigyosyoCd=1672100060-00&ServiceCd=720&Type=search", "url2": "http://fukuju.jp/" }, "geometry": { "type": "Point", "coordinates": [ 136.886369, 36.5400488 ] } },
{ "type": "Feature", "properties": { "内容": "ケアホーム橋下条テラス【認知症対応型通所介護】橋下条850番地1", "url": "https://www.kaigokensaku.mhlw.go.jp/16/index.php?action_kouhyou_detail_004_kani=true&JigyosyoCd=1691100018-00&ServiceCd=720&Type=search", "url2": "sunship.sakura.ne.jp" }, "geometry": { "type": "Point", "coordinates": [ 137.083670399999988, 36.7091751 ] } },
{ "type": "Feature", "properties": { "内容": "福祉プラザ七美認知症対応型通所介護【認知症対応型通所介護】富山県射水市七美８７９番地１", "url": "https://www.kaigokensaku.mhlw.go.jp/16/index.php?action_kouhyou_detail_004_kani=true&JigyosyoCd=1691100174-00&ServiceCd=720&Type=search", "url2": "http://www.imizu-manyoukai.or.jp/" }, "geometry": { "type": "Point", "coordinates": [ 137.14075349999996, 36.7522095 ] } },
{ "type": "Feature", "properties": { "内容": "射水万葉苑本町サポートセンター認知症対応型通所介護【認知症対応型通所介護】富山県射水市本町3丁目17番8号", "url": "https://www.kaigokensaku.mhlw.go.jp/16/index.php?action_kouhyou_detail_004_kani=true&JigyosyoCd=1691100034-00&ServiceCd=720&Type=search", "url2": "http://www.imizu-manyoukai.or.jp/" }, "geometry": { "type": "Point", "coordinates": [ 137.080697800000053, 36.7813887 ] } },
{ "type": "Feature", "properties": { "内容": "おうちととなり【認知症対応型通所介護】富山県射水市黒河３２５２番地１", "url": "https://www.kaigokensaku.mhlw.go.jp/16/index.php?action_kouhyou_detail_004_kani=true&JigyosyoCd=1691100208-00&ServiceCd=720&Type=search", "url2": null }, "geometry": { "type": "Point", "coordinates": [ 137.107480600000031, 36.7021931 ] } },
{ "type": "Feature", "properties": { "内容": "グループホーム逢の希【認知症対応型通所介護】富山県中新川郡上市町上経田5-1", "url": "https://www.kaigokensaku.mhlw.go.jp/16/index.php?action_kouhyou_detail_004_kani=true&JigyosyoCd=1691600108-00&ServiceCd=720&Type=search", "url2": "http//macrocom.jp/ainoki/" }, "geometry": { "type": "Point", "coordinates": [ 137.335872267259248, 36.702863085096546 ] } },
{ "type": "Feature", "properties": { "内容": "グループホームかみいち福祉の里共用型デイサービス【認知症対応型通所介護】富山県中新川郡上市町東江上288番地", "url": "https://www.kaigokensaku.mhlw.go.jp/16/index.php?action_kouhyou_detail_004_kani=true&JigyosyoCd=1691600082-00&ServiceCd=720&Type=search", "url2": "http://www.kami1294.com" }, "geometry": { "type": "Point", "coordinates": [ 137.347611599999937, 36.7213692 ] } },
{ "type": "Feature", "properties": { "内容": "グループホームあおぞら【認知症対応型通所介護】富山県中新川郡上市町若杉三丁目522番地", "url": "https://www.kaigokensaku.mhlw.go.jp/16/index.php?action_kouhyou_detail_004_kani=true&JigyosyoCd=1691600033-00&ServiceCd=720&Type=search", "url2": "http://www.gh-aozora.jp" }, "geometry": { "type": "Point", "coordinates": [ 137.349450700000034, 36.707982 ] } },
{ "type": "Feature", "properties": { "内容": "共用型デイサービス春日の郷【認知症対応型通所介護】富山県下新川郡入善町春日４５０－２ケアセンター春日の郷", "url": "https://www.kaigokensaku.mhlw.go.jp/16/index.php?action_kouhyou_detail_004_kani=true&JigyosyoCd=1691700304-00&ServiceCd=720&Type=search", "url2": null }, "geometry": { "type": "Point", "coordinates": [ 137.5263132, 36.953159 ] } },
{ "type": "Feature", "properties": { "内容": "グループホーム雅　春日の郷【認知症対応型通所介護】富山県下新川郡入善町春日450-2", "url": "https://www.kaigokensaku.mhlw.go.jp/16/index.php?action_kouhyou_detail_004_kani=true&JigyosyoCd=1691700379-00&ServiceCd=720&Type=search", "url2": "https://www.miyabi-qol.com/" }, "geometry": { "type": "Point", "coordinates": [ 137.5263426, 36.9530629 ] } },
{ "type": "Feature", "properties": { "内容": "デイサービス華のれん【認知症対応型通所介護】富山県下新川郡入善町入膳4716-5", "url": "https://www.kaigokensaku.mhlw.go.jp/16/index.php?action_kouhyou_detail_004_kani=true&JigyosyoCd=1691700239-00&ServiceCd=720&Type=search", "url2": "http://hananoren-ikkoku.jp" }, "geometry": { "type": "Point", "coordinates": [ 137.505068400000027, 36.9393741 ] } },
{ "type": "Feature", "properties": { "内容": "デイサービスにじいろ【認知症対応型通所介護】富山県下新川郡入善町入膳7776-1", "url": "https://www.kaigokensaku.mhlw.go.jp/16/index.php?action_kouhyou_detail_004_kani=true&JigyosyoCd=1691700296-00&ServiceCd=720&Type=search", "url2": null }, "geometry": { "type": "Point", "coordinates": [ 137.498152299999987, 36.9360034 ] } },
{ "type": "Feature", "properties": { "内容": "デイサービス金さん銀さん【認知症対応型通所介護】入善町東狐６０３", "url": "https://www.kaigokensaku.mhlw.go.jp/16/index.php?action_kouhyou_detail_004_kani=true&JigyosyoCd=1691700023-00&ServiceCd=720&Type=search", "url2": "http://www.at-home.or.jp/" }, "geometry": { "type": "Point", "coordinates": [ 137.458173200000033, 36.9273276 ] } },
{ "type": "Feature", "properties": { "内容": "デイサービスりぼん【認知症対応型通所介護】下新川郡入善町入膳３７７４番地４", "url": "https://www.kaigokensaku.mhlw.go.jp/16/index.php?action_kouhyou_detail_004_kani=true&JigyosyoCd=1691700080-00&ServiceCd=720&Type=search", "url2": "http://www.ribon1.jimdo.com" }, "geometry": { "type": "Point", "coordinates": [ 137.503105099999971, 36.9374353 ] } },
{ "type": "Feature", "properties": { "内容": "富山型共生の里あさひ　デイサービスまめなけ【認知症対応型通所介護】富山県下新川郡朝日町大家庄705番地1", "url": "https://www.kaigokensaku.mhlw.go.jp/16/index.php?action_kouhyou_detail_004_kani=true&JigyosyoCd=1691700072-00&ServiceCd=720&Type=search", "url2": "http://www.niikawaen.jp/" }, "geometry": { "type": "Point", "coordinates": [ 137.5473485, 36.9282058 ] } }
]
}
