{
"type": "FeatureCollection",
"name": "geo_16_4",
"crs": { "type": "name", "properties": { "name": "urn:ogc:def:crs:OGC:1.3:CRS84" } },
"features": [
{ "type": "Feature", "properties": { "ID": 1645161000003, "正式名称": "みずい相談室", "機関区分": 4, "都道府県コード": 16, "市区町村コード": 343, "所在地": "富山県下新川郡朝日町大家庄３７２", "緯度": 36.930051, "経度": 137.556333, "url": "https://www.iryou.teikyouseido.mhlw.go.jp/znk-web/juminkanja/S2430/initialize?prefCd=16&kikanCd=5161000003&kikanKbn=4", "url2": "https://mizuimw-soudan.com/", "内容": "みずい相談室【4:助産院】富山県下新川郡朝日町大家庄３７２" }, "geometry": { "type": "Point", "coordinates": [ 137.556333, 36.930051 ] } },
{ "type": "Feature", "properties": { "ID": 1645161000004, "正式名称": "おりかわ助産院", "機関区分": 4, "都道府県コード": 16, "市区町村コード": 204, "所在地": "富山県魚津市川縁１２８９－６", "緯度": 36.793563, "経度": 137.396436, "url": "https://www.iryou.teikyouseido.mhlw.go.jp/znk-web/juminkanja/S2430/initialize?prefCd=16&kikanCd=5161000004&kikanKbn=4", "url2": null, "内容": "おりかわ助産院【4:助産院】富山県魚津市川縁１２８９－６" }, "geometry": { "type": "Point", "coordinates": [ 137.396436, 36.793563 ] } },
{ "type": "Feature", "properties": { "ID": 1645161000005, "正式名称": "まつしま助産院", "機関区分": 4, "都道府県コード": 16, "市区町村コード": 342, "所在地": "富山県下新川郡入善町福島１０６", "緯度": 36.902859, "経度": 137.495145, "url": "https://www.iryou.teikyouseido.mhlw.go.jp/znk-web/juminkanja/S2430/initialize?prefCd=16&kikanCd=5161000005&kikanKbn=4", "url2": null, "内容": "まつしま助産院【4:助産院】富山県下新川郡入善町福島１０６" }, "geometry": { "type": "Point", "coordinates": [ 137.495145, 36.902859 ] } },
{ "type": "Feature", "properties": { "ID": 1645161000006, "正式名称": "母乳育児相談室　こころ助産院", "機関区分": 4, "都道府県コード": 16, "市区町村コード": 207, "所在地": "富山県黒部市若栗２２５５", "緯度": 36.868446, "経度": 137.495286, "url": "https://www.iryou.teikyouseido.mhlw.go.jp/znk-web/juminkanja/S2430/initialize?prefCd=16&kikanCd=5161000006&kikanKbn=4", "url2": null, "内容": "母乳育児相談室　こころ助産院【4:助産院】富山県黒部市若栗２２５５" }, "geometry": { "type": "Point", "coordinates": [ 137.495286, 36.868446 ] } },
{ "type": "Feature", "properties": { "ID": 1645161000007, "正式名称": "森田助産院", "機関区分": 4, "都道府県コード": 16, "市区町村コード": 201, "所在地": "富山県富山市宝町２丁目４番１５号", "緯度": 36.698542, "経度": 137.209345, "url": "https://www.iryou.teikyouseido.mhlw.go.jp/znk-web/juminkanja/S2430/initialize?prefCd=16&kikanCd=5161000007&kikanKbn=4", "url2": null, "内容": "森田助産院【4:助産院】富山県富山市宝町２丁目４番１５号" }, "geometry": { "type": "Point", "coordinates": [ 137.209345, 36.698542 ] } },
{ "type": "Feature", "properties": { "ID": 1645161000016, "正式名称": "吉橋助産所", "機関区分": 4, "都道府県コード": 16, "市区町村コード": 206, "所在地": "富山県滑川市中塚４１３", "緯度": 36.757427, "経度": 137.374273, "url": "https://www.iryou.teikyouseido.mhlw.go.jp/znk-web/juminkanja/S2430/initialize?prefCd=16&kikanCd=5161000016&kikanKbn=4", "url2": null, "内容": "吉橋助産所【4:助産院】富山県滑川市中塚４１３" }, "geometry": { "type": "Point", "coordinates": [ 137.374273, 36.757427 ] } },
{ "type": "Feature", "properties": { "ID": 1645161000022, "正式名称": "母乳育児相談室　ひまわり助産院", "機関区分": 4, "都道府県コード": 16, "市区町村コード": 211, "所在地": "富山県射水市戸破１５４２－１２", "緯度": 36.71199, "経度": 137.097921, "url": "https://www.iryou.teikyouseido.mhlw.go.jp/znk-web/juminkanja/S2430/initialize?prefCd=16&kikanCd=5161000022&kikanKbn=4", "url2": null, "内容": "母乳育児相談室　ひまわり助産院【4:助産院】富山県射水市戸破１５４２－１２" }, "geometry": { "type": "Point", "coordinates": [ 137.097921, 36.71199 ] } },
{ "type": "Feature", "properties": { "ID": 1645161000023, "正式名称": "たけのこ助産院", "機関区分": 4, "都道府県コード": 16, "市区町村コード": 202, "所在地": "富山県高岡市戸出町２－３－２０", "緯度": 36.686539, "経度": 136.982809, "url": "https://www.iryou.teikyouseido.mhlw.go.jp/znk-web/juminkanja/S2430/initialize?prefCd=16&kikanCd=5161000023&kikanKbn=4", "url2": "http://takenoko.hahaue.com/", "内容": "たけのこ助産院【4:助産院】富山県高岡市戸出町２－３－２０" }, "geometry": { "type": "Point", "coordinates": [ 136.982809, 36.686539 ] } },
{ "type": "Feature", "properties": { "ID": 1645161000024, "正式名称": "さつき助産院", "機関区分": 4, "都道府県コード": 16, "市区町村コード": 210, "所在地": "富山県南砺市法林寺５２－９", "緯度": 36.562856, "経度": 136.859075, "url": "https://www.iryou.teikyouseido.mhlw.go.jp/znk-web/juminkanja/S2430/initialize?prefCd=16&kikanCd=5161000024&kikanKbn=4", "url2": null, "内容": "さつき助産院【4:助産院】富山県南砺市法林寺５２－９" }, "geometry": { "type": "Point", "coordinates": [ 136.859075, 36.562856 ] } },
{ "type": "Feature", "properties": { "ID": 1645161000025, "正式名称": "さかえ助産院", "機関区分": 4, "都道府県コード": 16, "市区町村コード": 208, "所在地": "富山県砺波市大門５２３番２", "緯度": 36.621685, "経度": 136.966646, "url": "https://www.iryou.teikyouseido.mhlw.go.jp/znk-web/juminkanja/S2430/initialize?prefCd=16&kikanCd=5161000025&kikanKbn=4", "url2": "https://sakaecl.jimdofree.com/", "内容": "さかえ助産院【4:助産院】富山県砺波市大門５２３番２" }, "geometry": { "type": "Point", "coordinates": [ 136.966646, 36.621685 ] } },
{ "type": "Feature", "properties": { "ID": 1645161000051, "正式名称": "おひさま助産院", "機関区分": 4, "都道府県コード": 16, "市区町村コード": 206, "所在地": "富山県滑川市清水町１５－３４", "緯度": 36.763676, "経度": 137.347858, "url": "https://www.iryou.teikyouseido.mhlw.go.jp/znk-web/juminkanja/S2430/initialize?prefCd=16&kikanCd=5161000051&kikanKbn=4", "url2": null, "内容": "おひさま助産院【4:助産院】富山県滑川市清水町１５－３４" }, "geometry": { "type": "Point", "coordinates": [ 137.347858, 36.763676 ] } },
{ "type": "Feature", "properties": { "ID": 1645161000052, "正式名称": "ひだまり助産院", "機関区分": 4, "都道府県コード": 16, "市区町村コード": 210, "所在地": "富山県南砺市やかた", "緯度": 36.589068, "経度": 136.915909, "url": "https://www.iryou.teikyouseido.mhlw.go.jp/znk-web/juminkanja/S2430/initialize?prefCd=16&kikanCd=5161000052&kikanKbn=4", "url2": "https://r.goope.jp/h1damar1/", "内容": "ひだまり助産院【4:助産院】富山県南砺市やかた" }, "geometry": { "type": "Point", "coordinates": [ 136.915909, 36.589068 ] } },
{ "type": "Feature", "properties": { "ID": 1645161000054, "正式名称": "たんぽぽ助産院", "機関区分": 4, "都道府県コード": 16, "市区町村コード": 201, "所在地": "富山県富山市大泉東町一丁目２－１９", "緯度": 36.680711, "経度": 137.228955, "url": "https://www.iryou.teikyouseido.mhlw.go.jp/znk-web/juminkanja/S2430/initialize?prefCd=16&kikanCd=5161000054&kikanKbn=4", "url2": "http://www.akachannet.ne.jp/tanpopo", "内容": "たんぽぽ助産院【4:助産院】富山県富山市大泉東町一丁目２－１９" }, "geometry": { "type": "Point", "coordinates": [ 137.228955, 36.680711 ] } },
{ "type": "Feature", "properties": { "ID": 1645161000055, "正式名称": "さくら助産院", "機関区分": 4, "都道府県コード": 16, "市区町村コード": 202, "所在地": "富山県高岡市伏木矢田２１－１３", "緯度": 36.784474, "経度": 137.044466, "url": "https://www.iryou.teikyouseido.mhlw.go.jp/znk-web/juminkanja/S2430/initialize?prefCd=16&kikanCd=5161000055&kikanKbn=4", "url2": null, "内容": "さくら助産院【4:助産院】富山県高岡市伏木矢田２１－１３" }, "geometry": { "type": "Point", "coordinates": [ 137.044466, 36.784474 ] } },
{ "type": "Feature", "properties": { "ID": 1645161000056, "正式名称": "助産院　ぬまこ", "機関区分": 4, "都道府県コード": 16, "市区町村コード": 202, "所在地": "富山県高岡市戸出町５丁目９番１２号", "緯度": 36.685595, "経度": 136.975393, "url": "https://www.iryou.teikyouseido.mhlw.go.jp/znk-web/juminkanja/S2430/initialize?prefCd=16&kikanCd=5161000056&kikanKbn=4", "url2": "https://r.goope.jp/numako/about", "内容": "助産院　ぬまこ【4:助産院】富山県高岡市戸出町５丁目９番１２号" }, "geometry": { "type": "Point", "coordinates": [ 136.975393, 36.685595 ] } },
{ "type": "Feature", "properties": { "ID": 1645161000057, "正式名称": "おおもり助産院　ｈａｐｐｙ　ｌｉｆｅ", "機関区分": 4, "都道府県コード": 16, "市区町村コード": 205, "所在地": "富山県氷見市早借２７１７", "緯度": 36.847077, "経度": 136.917973, "url": "https://www.iryou.teikyouseido.mhlw.go.jp/znk-web/juminkanja/S2430/initialize?prefCd=16&kikanCd=5161000057&kikanKbn=4", "url2": null, "内容": "おおもり助産院　ｈａｐｐｙ　ｌｉｆｅ【4:助産院】富山県氷見市早借２７１７" }, "geometry": { "type": "Point", "coordinates": [ 136.917973, 36.847077 ] } },
{ "type": "Feature", "properties": { "ID": 1645161000058, "正式名称": "虎谷助産院", "機関区分": 4, "都道府県コード": 16, "市区町村コード": 204, "所在地": "富山県魚津市吉島２－５－１７", "緯度": 36.826384, "経度": 137.4148, "url": "https://www.iryou.teikyouseido.mhlw.go.jp/znk-web/juminkanja/S2430/initialize?prefCd=16&kikanCd=5161000058&kikanKbn=4", "url2": null, "内容": "虎谷助産院【4:助産院】富山県魚津市吉島２－５－１７" }, "geometry": { "type": "Point", "coordinates": [ 137.4148, 36.826384 ] } },
{ "type": "Feature", "properties": { "ID": 1645161000059, "正式名称": "楽ｎｉｃｏ助産院", "機関区分": 4, "都道府県コード": 16, "市区町村コード": 207, "所在地": "富山県黒部市山田８０７－５", "緯度": 36.848051, "経度": 137.44307, "url": "https://www.iryou.teikyouseido.mhlw.go.jp/znk-web/juminkanja/S2430/initialize?prefCd=16&kikanCd=5161000059&kikanKbn=4", "url2": "https://rakunico-online.amebaownd.com/", "内容": "楽ｎｉｃｏ助産院【4:助産院】富山県黒部市山田８０７－５" }, "geometry": { "type": "Point", "coordinates": [ 137.44307, 36.848051 ] } },
{ "type": "Feature", "properties": { "ID": 1645161000060, "正式名称": "にじいろ助産院", "機関区分": 4, "都道府県コード": 16, "市区町村コード": 202, "所在地": "富山県高岡市石瀬２６５－５", "緯度": 36.752838, "経度": 137.041565, "url": "https://www.iryou.teikyouseido.mhlw.go.jp/znk-web/juminkanja/S2430/initialize?prefCd=16&kikanCd=5161000060&kikanKbn=4", "url2": "https://oppa.oketani.or.jp/view/rFR8WchFOyCsb9FjcmYAqK4nERs3n99OeBjlsfZEdBT?prefecture=16", "内容": "にじいろ助産院【4:助産院】富山県高岡市石瀬２６５－５" }, "geometry": { "type": "Point", "coordinates": [ 137.041565, 36.752838 ] } },
{ "type": "Feature", "properties": { "ID": 1645161000061, "正式名称": "オリーブ助産院", "機関区分": 4, "都道府県コード": 16, "市区町村コード": 207, "所在地": "富山県黒部市三日市２６８８－５", "緯度": 36.87722, "経度": 137.455573, "url": "https://www.iryou.teikyouseido.mhlw.go.jp/znk-web/juminkanja/S2430/initialize?prefCd=16&kikanCd=5161000061&kikanKbn=4", "url2": null, "内容": "オリーブ助産院【4:助産院】富山県黒部市三日市２６８８－５" }, "geometry": { "type": "Point", "coordinates": [ 137.455573, 36.87722 ] } },
{ "type": "Feature", "properties": { "ID": 1645161000062, "正式名称": "よつば助産院", "機関区分": 4, "都道府県コード": 16, "市区町村コード": 202, "所在地": "富山県高岡市戸出町５－４－５８", "緯度": 36.684772, "経度": 136.969474, "url": "https://www.iryou.teikyouseido.mhlw.go.jp/znk-web/juminkanja/S2430/initialize?prefCd=16&kikanCd=5161000062&kikanKbn=4", "url2": null, "内容": "よつば助産院【4:助産院】富山県高岡市戸出町５－４－５８" }, "geometry": { "type": "Point", "coordinates": [ 136.969474, 36.684772 ] } },
{ "type": "Feature", "properties": { "ID": 1645161000063, "正式名称": "助産院ゆるり", "機関区分": 4, "都道府県コード": 16, "市区町村コード": 204, "所在地": "富山県魚津市下村木町３５５１", "緯度": 36.819301, "経度": 137.407318, "url": "https://www.iryou.teikyouseido.mhlw.go.jp/znk-web/juminkanja/S2430/initialize?prefCd=16&kikanCd=5161000063&kikanKbn=4", "url2": null, "内容": "助産院ゆるり【4:助産院】富山県魚津市下村木町３５５１" }, "geometry": { "type": "Point", "coordinates": [ 137.407318, 36.819301 ] } },
{ "type": "Feature", "properties": { "ID": 1645161000068, "正式名称": "プラット・フォーム助産院", "機関区分": 4, "都道府県コード": 16, "市区町村コード": 322, "所在地": "富山県中新川郡上市町郷柿沢７１６", "緯度": 36.711429, "経度": 137.368168, "url": "https://www.iryou.teikyouseido.mhlw.go.jp/znk-web/juminkanja/S2430/initialize?prefCd=16&kikanCd=5161000068&kikanKbn=4", "url2": null, "内容": "プラット・フォーム助産院【4:助産院】富山県中新川郡上市町郷柿沢７１６" }, "geometry": { "type": "Point", "coordinates": [ 137.368168, 36.711429 ] } },
{ "type": "Feature", "properties": { "ID": 1645161000069, "正式名称": "富山市産後ケア応援室", "機関区分": 4, "都道府県コード": 16, "市区町村コード": 201, "所在地": "富山県富山市総曲輪４－４－８　富山市まちなか総合ケアセンター３階", "緯度": 36.690305, "経度": 137.210261, "url": "https://www.iryou.teikyouseido.mhlw.go.jp/znk-web/juminkanja/S2430/initialize?prefCd=16&kikanCd=5161000069&kikanKbn=4", "url2": "http://machinaka-care.city.toyama.lg.jp", "内容": "富山市産後ケア応援室【4:助産院】富山県富山市総曲輪４－４－８　富山市まちなか総合ケアセンター３階" }, "geometry": { "type": "Point", "coordinates": [ 137.210261, 36.690305 ] } },
{ "type": "Feature", "properties": { "ID": 1645161000070, "正式名称": "桜谷助産院", "機関区分": 4, "都道府県コード": 16, "市区町村コード": 201, "所在地": "富山県富山市安養坊３９１－１", "緯度": 36.710768, "経度": 137.191797, "url": "https://www.iryou.teikyouseido.mhlw.go.jp/znk-web/juminkanja/S2430/initialize?prefCd=16&kikanCd=5161000070&kikanKbn=4", "url2": "http://toyamamidwife.sakura.ne.jp", "内容": "桜谷助産院【4:助産院】富山県富山市安養坊３９１－１" }, "geometry": { "type": "Point", "coordinates": [ 137.191797, 36.710768 ] } },
{ "type": "Feature", "properties": { "ID": 1645161000072, "正式名称": "かねこ助産院", "機関区分": 4, "都道府県コード": 16, "市区町村コード": 201, "所在地": "富山県富山市新川原町５－２１　木町テラス１階", "緯度": 36.689628, "経度": 137.210301, "url": "https://www.iryou.teikyouseido.mhlw.go.jp/znk-web/juminkanja/S2430/initialize?prefCd=16&kikanCd=5161000072&kikanKbn=4", "url2": "https://peraichi.com/landing_pages/view/kanekobabymama", "内容": "かねこ助産院【4:助産院】富山県富山市新川原町５－２１　木町テラス１階" }, "geometry": { "type": "Point", "coordinates": [ 137.210301, 36.689628 ] } },
{ "type": "Feature", "properties": { "ID": 1645161000075, "正式名称": "助産院“ｔｕｔｕ", "機関区分": 4, "都道府県コード": 16, "市区町村コード": 343, "所在地": "富山県下新川郡朝日町宮崎３２３９－９", "緯度": 36.974037, "経度": 137.597892, "url": "https://www.iryou.teikyouseido.mhlw.go.jp/znk-web/juminkanja/S2430/initialize?prefCd=16&kikanCd=5161000075&kikanKbn=4", "url2": "tutumw.amebaownd.com", "内容": "助産院“ｔｕｔｕ【4:助産院】富山県下新川郡朝日町宮崎３２３９－９" }, "geometry": { "type": "Point", "coordinates": [ 137.597892, 36.974037 ] } },
{ "type": "Feature", "properties": { "ID": 1645161000077, "正式名称": "あかつき助産院", "機関区分": 4, "都道府県コード": 16, "市区町村コード": 201, "所在地": "富山県富山市上赤江町２丁目３－５", "緯度": 36.714014, "経度": 137.230478, "url": "https://www.iryou.teikyouseido.mhlw.go.jp/znk-web/juminkanja/S2430/initialize?prefCd=16&kikanCd=5161000077&kikanKbn=4", "url2": "https://www.akatsukijosanin.com", "内容": "あかつき助産院【4:助産院】富山県富山市上赤江町２丁目３－５" }, "geometry": { "type": "Point", "coordinates": [ 137.230478, 36.714014 ] } },
{ "type": "Feature", "properties": { "ID": 1645161000079, "正式名称": "すど母乳育児相談室", "機関区分": 4, "都道府県コード": 16, "市区町村コード": 201, "所在地": "富山県富山市婦中町速星４２５－１", "緯度": 36.664067, "経度": 137.163244, "url": "https://www.iryou.teikyouseido.mhlw.go.jp/znk-web/juminkanja/S2430/initialize?prefCd=16&kikanCd=5161000079&kikanKbn=4", "url2": null, "内容": "すど母乳育児相談室【4:助産院】富山県富山市婦中町速星４２５－１" }, "geometry": { "type": "Point", "coordinates": [ 137.163244, 36.664067 ] } },
{ "type": "Feature", "properties": { "ID": 1645161000080, "正式名称": "オオニシ助産院", "機関区分": 4, "都道府県コード": 16, "市区町村コード": 211, "所在地": "富山県射水市朴木１７４", "緯度": 36.761108, "経度": 137.078319, "url": "https://www.iryou.teikyouseido.mhlw.go.jp/znk-web/juminkanja/S2430/initialize?prefCd=16&kikanCd=5161000080&kikanKbn=4", "url2": "https://sites.google.com/view/oonishi-mh", "内容": "オオニシ助産院【4:助産院】富山県射水市朴木１７４" }, "geometry": { "type": "Point", "coordinates": [ 137.078319, 36.761108 ] } },
{ "type": "Feature", "properties": { "ID": 1645161000082, "正式名称": "助産院Ｌｉｎｏ", "機関区分": 4, "都道府県コード": 16, "市区町村コード": 205, "所在地": "富山県氷見市川尻３１４－３", "緯度": 36.827094, "経度": 136.961182, "url": "https://www.iryou.teikyouseido.mhlw.go.jp/znk-web/juminkanja/S2430/initialize?prefCd=16&kikanCd=5161000082&kikanKbn=4", "url2": "http://anovj1reedpipe1.wixsite.com/---lino", "内容": "助産院Ｌｉｎｏ【4:助産院】富山県氷見市川尻３１４－３" }, "geometry": { "type": "Point", "coordinates": [ 136.961182, 36.827094 ] } },
{ "type": "Feature", "properties": { "ID": 1645161000085, "正式名称": "田中ひとみ助産院", "機関区分": 4, "都道府県コード": 16, "市区町村コード": 205, "所在地": "富山県氷見市下久津呂９２", "緯度": 36.828769, "経度": 136.953067, "url": "https://www.iryou.teikyouseido.mhlw.go.jp/znk-web/juminkanja/S2430/initialize?prefCd=16&kikanCd=5161000085&kikanKbn=4", "url2": null, "内容": "田中ひとみ助産院【4:助産院】富山県氷見市下久津呂９２" }, "geometry": { "type": "Point", "coordinates": [ 136.953067, 36.828769 ] } },
{ "type": "Feature", "properties": { "ID": 1645161000088, "正式名称": "きなり助産院", "機関区分": 4, "都道府県コード": 16, "市区町村コード": 323, "所在地": "富山県中新川郡立山町宮成１８－２", "緯度": 36.722972, "経度": 137.267828, "url": "https://www.iryou.teikyouseido.mhlw.go.jp/znk-web/juminkanja/S2430/initialize?prefCd=16&kikanCd=5161000088&kikanKbn=4", "url2": null, "内容": "きなり助産院【4:助産院】富山県中新川郡立山町宮成１８－２" }, "geometry": { "type": "Point", "coordinates": [ 137.267828, 36.722972 ] } }
]
}
