{
"type": "FeatureCollection",
"name": "geo_16_介護療養型医療施設",
"crs": { "type": "name", "properties": { "name": "urn:ogc:def:crs:OGC:1.3:CRS84" } },
"features": [
{ "type": "Feature", "properties": { "内容": "清幸会　島田病院【介護療養型医療施設】富山県富山市下新北町6番52号", "url2": "https://www.kaigokensaku.mhlw.go.jp/16/index.php?action_kouhyou_detail_004_kani=true&JigyosyoCd=1610116210-00&ServiceCd=530&Type=search" }, "geometry": { "type": "Point", "coordinates": [ 137.219516800000065, 36.7169437 ] } },
{ "type": "Feature", "properties": { "内容": "おおやま病院【介護療養型医療施設】富山市花崎８５", "url2": "https://www.kaigokensaku.mhlw.go.jp/16/index.php?action_kouhyou_detail_004_kani=true&JigyosyoCd=1610117176-00&ServiceCd=530&Type=search" }, "geometry": { "type": "Point", "coordinates": [ 137.280629299999987, 36.6096965 ] } },
{ "type": "Feature", "properties": { "内容": "栗山病院【介護療養型医療施設】富山市開発133番地", "url2": "https://www.kaigokensaku.mhlw.go.jp/16/index.php?action_kouhyou_detail_004_kani=true&JigyosyoCd=1610116020-00&ServiceCd=530&Type=search" }, "geometry": { "type": "Point", "coordinates": [ 137.246162300000037, 36.6313494 ] } },
{ "type": "Feature", "properties": { "内容": "政岡内科病院【介護療養型医療施設】富山県富山市下新町２８番２３号", "url2": "https://www.kaigokensaku.mhlw.go.jp/16/index.php?action_kouhyou_detail_004_kani=true&JigyosyoCd=1610115568-00&ServiceCd=530&Type=search" }, "geometry": { "type": "Point", "coordinates": [ 137.2163425, 36.7096639 ] } },
{ "type": "Feature", "properties": { "内容": "医療法人社団三医会三輪病院介護療養型医療施設【介護療養型医療施設】富山市小中291", "url2": "https://www.kaigokensaku.mhlw.go.jp/16/index.php?action_kouhyou_detail_004_kani=true&JigyosyoCd=1610114686-00&ServiceCd=530&Type=search" }, "geometry": { "type": "Point", "coordinates": [ 137.2125873, 36.63864 ] } },
{ "type": "Feature", "properties": { "内容": "誠友病院【介護療養型医療施設】富山市上千俵町１０３番地", "url2": "https://www.kaigokensaku.mhlw.go.jp/16/index.php?action_kouhyou_detail_004_kani=true&JigyosyoCd=1610114033-00&ServiceCd=530&Type=search" }, "geometry": { "type": "Point", "coordinates": [ 137.243937599999981, 36.6265388 ] } },
{ "type": "Feature", "properties": { "内容": "萩野病院【介護療養型医療施設】富山市婦中町萩島315-1", "url2": "https://www.kaigokensaku.mhlw.go.jp/16/index.php?action_kouhyou_detail_004_kani=true&JigyosyoCd=1610118083-00&ServiceCd=530&Type=search" }, "geometry": { "type": "Point", "coordinates": [ 137.179438, 36.6282458 ] } },
{ "type": "Feature", "properties": { "内容": "医療法人　光ヶ丘病院【介護療養型医療施設】富山県高岡市西藤平蔵313", "url2": "https://www.kaigokensaku.mhlw.go.jp/16/index.php?action_kouhyou_detail_004_kani=true&JigyosyoCd=1610211995-00&ServiceCd=530&Type=search" }, "geometry": { "type": "Point", "coordinates": [ 136.985816800000066, 36.7072474 ] } },
{ "type": "Feature", "properties": { "内容": "医療法人　新川病院【介護療養型医療施設】富山県魚津市住吉２３６番地", "url2": "https://www.kaigokensaku.mhlw.go.jp/16/index.php?action_kouhyou_detail_004_kani=true&JigyosyoCd=1610410522-00&ServiceCd=530&Type=search" }, "geometry": { "type": "Point", "coordinates": [ 137.4110766, 36.8103968 ] } },
{ "type": "Feature", "properties": { "内容": "池田リハビリテーション病院　介護療養型医療施設【介護療養型医療施設】富山県黒部市荻生８２１番地", "url2": "https://www.kaigokensaku.mhlw.go.jp/16/index.php?action_kouhyou_detail_004_kani=true&JigyosyoCd=1610710558-00&ServiceCd=530&Type=search" }, "geometry": { "type": "Point", "coordinates": [ 137.469502, 36.8878395 ] } }
]
}
