{
"type": "FeatureCollection",
"name": "geo_16_特定施設入居者生活介護（有料老人ホーム（サービス付き高齢者向け住宅））",
"crs": { "type": "name", "properties": { "name": "urn:ogc:def:crs:OGC:1.3:CRS84" } },
"features": [
{ "type": "Feature", "properties": { "内容": "そう呉羽【特定施設入居者生活介護（有料老人ホーム（サービス付き高齢者向け住宅））】富山県富山市呉羽町2164番地1", "url": "https://www.kaigokensaku.mhlw.go.jp/16/index.php?action_kouhyou_detail_004_kani=true&JigyosyoCd=1670114071-00&ServiceCd=&Type=search", "url2": "http://coronet-t.com/" }, "geometry": { "type": "Point", "coordinates": [ 137.1606415, 36.7156704 ] } },
{ "type": "Feature", "properties": { "内容": "ファミーユ【特定施設入居者生活介護（有料老人ホーム（サービス付き高齢者向け住宅））】松若町331番ファミーユ", "url": "https://www.kaigokensaku.mhlw.go.jp/16/index.php?action_kouhyou_detail_004_kani=true&JigyosyoCd=1670114691-00&ServiceCd=&Type=search", "url2": null }, "geometry": { "type": "Point", "coordinates": [ 137.225656347607412, 36.719102324964723 ] } },
{ "type": "Feature", "properties": { "内容": "リビングふじ【特定施設入居者生活介護（有料老人ホーム（サービス付き高齢者向け住宅））】富山県富山市藤木43番地1", "url": "https://www.kaigokensaku.mhlw.go.jp/16/index.php?action_kouhyou_detail_004_kani=true&JigyosyoCd=1670114550-00&ServiceCd=&Type=search", "url2": "http://www.coronet-t.com/" }, "geometry": { "type": "Point", "coordinates": [ 137.273644369311569, 36.679759441195472 ] } },
{ "type": "Feature", "properties": { "内容": "リビング　るい【特定施設入居者生活介護（有料老人ホーム（サービス付き高齢者向け住宅））】本郷町22番地", "url": "https://www.kaigokensaku.mhlw.go.jp/16/index.php?action_kouhyou_detail_004_kani=true&JigyosyoCd=1670112281-00&ServiceCd=&Type=search", "url2": "http://coronet-t.com" }, "geometry": { "type": "Point", "coordinates": [ 137.235962200000017, 36.665348200000011 ] } }
]
}
