{
"type": "FeatureCollection",
"name": "geo_16_夜間対応型訪問介護",
"crs": { "type": "name", "properties": { "name": "urn:ogc:def:crs:OGC:1.3:CRS84" } },
"features": [
{ "type": "Feature", "properties": { "内容": "射水万葉会天正寺サポートセンター夜間対応型訪問介護【夜間対応型訪問介護】富山市天正寺４８４番1", "url2": "https://www.kaigokensaku.mhlw.go.jp/16/index.php?action_kouhyou_detail_004_kani=true&JigyosyoCd=1690100258-00&ServiceCd=710&Type=search" }, "geometry": { "type": "Point", "coordinates": [ 137.249285200000031, 36.6870483 ] } },
{ "type": "Feature", "properties": { "内容": "あさひの里ヘルパーステーション【夜間対応型訪問介護】富山県高岡市鷲北新185", "url2": "https://www.kaigokensaku.mhlw.go.jp/16/index.php?action_kouhyou_detail_004_kani=true&JigyosyoCd=1690200728-00&ServiceCd=710&Type=search" }, "geometry": { "type": "Point", "coordinates": [ 137.03784522025046, 36.766417299944081 ] } },
{ "type": "Feature", "properties": { "内容": "福祉プラザ七美　夜間対応型訪問介護【夜間対応型訪問介護】富山県射水市七美879-1", "url2": "https://www.kaigokensaku.mhlw.go.jp/16/index.php?action_kouhyou_detail_004_kani=true&JigyosyoCd=1691100182-00&ServiceCd=710&Type=search" }, "geometry": { "type": "Point", "coordinates": [ 137.14075349999996, 36.7522095 ] } }
]
}
