{
"type": "FeatureCollection",
"name": "geo_16_通所介護",
"crs": { "type": "name", "properties": { "name": "urn:ogc:def:crs:OGC:1.3:CRS84" } },
"features": [
{ "type": "Feature", "properties": { "内容": "デイサービスセンターほほえみ【通所介護】富山市古鍛冶町2番27号", "url2": "https://www.kaigokensaku.mhlw.go.jp/16/index.php?action_kouhyou_detail_004_kani=true&JigyosyoCd=1670103454-00&ServiceCd=150&Type=search" }, "geometry": { "type": "Point", "coordinates": [ 137.217507299999966, 36.6876976 ] } },
{ "type": "Feature", "properties": { "内容": "有限会社　尚栄【通所介護】富山県富山市西宮1番地1", "url2": "https://www.kaigokensaku.mhlw.go.jp/16/index.php?action_kouhyou_detail_004_kani=true&JigyosyoCd=1670100799-00&ServiceCd=150&Type=search" }, "geometry": { "type": "Point", "coordinates": [ 137.227066418660172, 36.751282792611562 ] } },
{ "type": "Feature", "properties": { "内容": "花いちご　デイサービス【通所介護】富山市上冨居二丁目９番３８号", "url2": "https://www.kaigokensaku.mhlw.go.jp/16/index.php?action_kouhyou_detail_004_kani=true&JigyosyoCd=1670103421-00&ServiceCd=150&Type=search" }, "geometry": { "type": "Point", "coordinates": [ 137.243504300000041, 36.7084232 ] } },
{ "type": "Feature", "properties": { "内容": "すずらん【通所介護】富山市清水中町1番9号", "url2": "https://www.kaigokensaku.mhlw.go.jp/16/index.php?action_kouhyou_detail_004_kani=true&JigyosyoCd=1670114972-00&ServiceCd=150&Type=search" }, "geometry": { "type": "Point", "coordinates": [ 137.2278382, 36.687551 ] } },
{ "type": "Feature", "properties": { "内容": "デイサービスあんじゅ【通所介護】富山県富山市大島2丁目596-19", "url2": "https://www.kaigokensaku.mhlw.go.jp/16/index.php?action_kouhyou_detail_004_kani=true&JigyosyoCd=1670113735-00&ServiceCd=150&Type=search" }, "geometry": { "type": "Point", "coordinates": [ 137.268386700000065, 36.6769444 ] } },
{ "type": "Feature", "properties": { "内容": "デイサービスももの花【通所介護】藤木422番地１", "url2": "https://www.kaigokensaku.mhlw.go.jp/16/index.php?action_kouhyou_detail_004_kani=true&JigyosyoCd=1670114188-00&ServiceCd=150&Type=search" }, "geometry": { "type": "Point", "coordinates": [ 137.273824699999977, 36.6893431 ] } },
{ "type": "Feature", "properties": { "内容": "ふくし百選　デイサービスあずみ【通所介護】富山市舟橋南町７－４", "url2": "https://www.kaigokensaku.mhlw.go.jp/16/index.php?action_kouhyou_detail_004_kani=true&JigyosyoCd=1670112026-00&ServiceCd=150&Type=search" }, "geometry": { "type": "Point", "coordinates": [ 137.20755158902432, 36.695086372025777 ] } },
{ "type": "Feature", "properties": { "内容": "北陸メディカルサービス株式会社デイサービスふわり【通所介護】富山市八尾町福島字牧野１０１番地１", "url2": "https://www.kaigokensaku.mhlw.go.jp/16/index.php?action_kouhyou_detail_004_kani=true&JigyosyoCd=1671800496-00&ServiceCd=150&Type=search" }, "geometry": { "type": "Point", "coordinates": [ 137.134187500000053, 36.5803092 ] } },
{ "type": "Feature", "properties": { "内容": "ニチイケアセンター堀川【通所介護】富山県富山市本郷新３６", "url2": "https://www.kaigokensaku.mhlw.go.jp/16/index.php?action_kouhyou_detail_004_kani=true&JigyosyoCd=1670100450-00&ServiceCd=150&Type=search" }, "geometry": { "type": "Point", "coordinates": [ 137.229368199999954, 36.6698671 ] } },
{ "type": "Feature", "properties": { "内容": "しらいわ苑　デイサービスセンター【通所介護】富山県富山市水橋新堀17-1", "url2": "https://www.kaigokensaku.mhlw.go.jp/16/index.php?action_kouhyou_detail_004_kani=true&JigyosyoCd=1670100823-00&ServiceCd=150&Type=search" }, "geometry": { "type": "Point", "coordinates": [ 137.30417680000005, 36.7148715 ] } },
{ "type": "Feature", "properties": { "内容": "デイサービスセンター　おおくぼ【通所介護】富山県富山市下大久保1530－1ケアパークおおくぼ", "url2": "https://www.kaigokensaku.mhlw.go.jp/16/index.php?action_kouhyou_detail_004_kani=true&JigyosyoCd=1670111978-00&ServiceCd=150&Type=search" }, "geometry": { "type": "Point", "coordinates": [ 137.2077081, 36.6099095 ] } },
{ "type": "Feature", "properties": { "内容": "すずらん【通所介護】富山市清水中町1番9号", "url2": "https://www.kaigokensaku.mhlw.go.jp/16/index.php?action_kouhyou_detail_004_kani=true&JigyosyoCd=1670115375-00&ServiceCd=150&Type=search" }, "geometry": { "type": "Point", "coordinates": [ 137.227860600000014, 36.6875248 ] } },
{ "type": "Feature", "properties": { "内容": "サポートハウス神通さくら野【通所介護】富山市八尾町西神通８８２－１", "url2": "https://www.kaigokensaku.mhlw.go.jp/16/index.php?action_kouhyou_detail_004_kani=true&JigyosyoCd=1670103447-00&ServiceCd=150&Type=search" }, "geometry": { "type": "Point", "coordinates": [ 137.182047, 36.5904282 ] } },
{ "type": "Feature", "properties": { "内容": "デイサービスセンター「夢・元気」【通所介護】富山市下赤江町2丁目３－１４", "url2": "https://www.kaigokensaku.mhlw.go.jp/16/index.php?action_kouhyou_detail_004_kani=true&JigyosyoCd=1670102977-00&ServiceCd=150&Type=search" }, "geometry": { "type": "Point", "coordinates": [ 137.23283392729769, 36.716196769486203 ] } },
{ "type": "Feature", "properties": { "内容": "デイサービスぽんぽこ【通所介護】富山県富山市上二杉407-1", "url2": "https://www.kaigokensaku.mhlw.go.jp/16/index.php?action_kouhyou_detail_004_kani=true&JigyosyoCd=1670104742-00&ServiceCd=150&Type=search" }, "geometry": { "type": "Point", "coordinates": [ 137.202792958860755, 36.589117641960215 ] } },
{ "type": "Feature", "properties": { "内容": "とやまケアセンターそよ風【通所介護】富山市上袋518-1", "url2": "https://www.kaigokensaku.mhlw.go.jp/16/index.php?action_kouhyou_detail_004_kani=true&JigyosyoCd=1670102225-00&ServiceCd=150&Type=search" }, "geometry": { "type": "Point", "coordinates": [ 137.216744699999907, 36.6598903 ] } },
{ "type": "Feature", "properties": { "内容": "デイサービス虹の丘三郷【通所介護】富山市水橋小路287-1", "url2": "https://www.kaigokensaku.mhlw.go.jp/16/index.php?action_kouhyou_detail_004_kani=true&JigyosyoCd=1670101979-00&ServiceCd=150&Type=search" }, "geometry": { "type": "Point", "coordinates": [ 137.2914333, 36.7208898 ] } },
{ "type": "Feature", "properties": { "内容": "吉田内科クリニックデイサービスセンター　「あゆみ」【通所介護】富山県富山市吉作364番地2", "url2": "https://www.kaigokensaku.mhlw.go.jp/16/index.php?action_kouhyou_detail_004_kani=true&JigyosyoCd=1670101946-00&ServiceCd=150&Type=search" }, "geometry": { "type": "Point", "coordinates": [ 137.16396629999997, 36.7107017 ] } },
{ "type": "Feature", "properties": { "内容": "白光苑デイサービスセンター【通所介護】富山市山岸９５番地", "url2": "https://www.kaigokensaku.mhlw.go.jp/16/index.php?action_kouhyou_detail_004_kani=true&JigyosyoCd=1670100682-00&ServiceCd=150&Type=search" }, "geometry": { "type": "Point", "coordinates": [ 137.201997200000051, 36.7184513 ] } },
{ "type": "Feature", "properties": { "内容": "すみれ苑デイサービスセンター【通所介護】富山市横越180番地", "url2": "https://www.kaigokensaku.mhlw.go.jp/16/index.php?action_kouhyou_detail_004_kani=true&JigyosyoCd=1670100476-00&ServiceCd=150&Type=search" }, "geometry": { "type": "Point", "coordinates": [ 137.283783099999937, 36.7515253 ] } },
{ "type": "Feature", "properties": { "内容": "にながわ光風苑【通所介護】富山市蜷川89番地", "url2": "https://www.kaigokensaku.mhlw.go.jp/16/index.php?action_kouhyou_detail_004_kani=true&JigyosyoCd=1670100633-00&ServiceCd=150&Type=search" }, "geometry": { "type": "Point", "coordinates": [ 137.2104041, 36.6442948 ] } },
{ "type": "Feature", "properties": { "内容": "デイサ－ビスセンタ－ふなん苑【通所介護】富山市石屋237番地", "url2": "https://www.kaigokensaku.mhlw.go.jp/16/index.php?action_kouhyou_detail_004_kani=true&JigyosyoCd=1670101870-00&ServiceCd=150&Type=search" }, "geometry": { "type": "Point", "coordinates": [ 137.2576967, 36.6525803 ] } },
{ "type": "Feature", "properties": { "内容": "敬寿苑デイサービスセンター【通所介護】富山県富山市今泉西部町1番地3", "url2": "https://www.kaigokensaku.mhlw.go.jp/16/index.php?action_kouhyou_detail_004_kani=true&JigyosyoCd=1670100492-00&ServiceCd=150&Type=search" }, "geometry": { "type": "Point", "coordinates": [ 137.209145199999966, 36.673905 ] } },
{ "type": "Feature", "properties": { "内容": "ふるさとのあかり【通所介護】富山県富山市四方荒屋３２２３番地", "url2": "https://www.kaigokensaku.mhlw.go.jp/16/index.php?action_kouhyou_detail_004_kani=true&JigyosyoCd=1670102068-00&ServiceCd=150&Type=search" }, "geometry": { "type": "Point", "coordinates": [ 137.193317, 36.7505337 ] } },
{ "type": "Feature", "properties": { "内容": "富山医療生活協同組合　在宅福祉総合センターえがお　デイサービスセンター【通所介護】富山市山室82-1", "url2": "https://www.kaigokensaku.mhlw.go.jp/16/index.php?action_kouhyou_detail_004_kani=true&JigyosyoCd=1670101821-00&ServiceCd=150&Type=search" }, "geometry": { "type": "Point", "coordinates": [ 137.239764299999933, 36.6740026 ] } },
{ "type": "Feature", "properties": { "内容": "老人介護事業所　あさひホーム【通所介護】富山市北代189", "url2": "https://www.kaigokensaku.mhlw.go.jp/16/index.php?action_kouhyou_detail_004_kani=true&JigyosyoCd=1670102175-00&ServiceCd=150&Type=search" }, "geometry": { "type": "Point", "coordinates": [ 137.1756507, 36.7199866 ] } },
{ "type": "Feature", "properties": { "内容": "デイホーム福祉の里【通所介護】富山市下新町16-11", "url2": "https://www.kaigokensaku.mhlw.go.jp/16/index.php?action_kouhyou_detail_004_kani=true&JigyosyoCd=1670102142-00&ServiceCd=150&Type=search" }, "geometry": { "type": "Point", "coordinates": [ 137.21445940000001, 36.7132634 ] } },
{ "type": "Feature", "properties": { "内容": "あいあいデイサービス【通所介護】富山県富山市窪新町６－２１", "url2": "https://www.kaigokensaku.mhlw.go.jp/16/index.php?action_kouhyou_detail_004_kani=true&JigyosyoCd=1670104643-00&ServiceCd=150&Type=search" }, "geometry": { "type": "Point", "coordinates": [ 137.230866225353026, 36.706298805262946 ] } },
{ "type": "Feature", "properties": { "内容": "デイサービス百たろう【通所介護】富山県富山市北新町二丁目1番14号", "url2": "https://www.kaigokensaku.mhlw.go.jp/16/index.php?action_kouhyou_detail_004_kani=true&JigyosyoCd=1670114873-00&ServiceCd=150&Type=search" }, "geometry": { "type": "Point", "coordinates": [ 137.220246800000012, 36.6928051 ] } },
{ "type": "Feature", "properties": { "内容": "ケアパートナー富山デイサービスセンター【通所介護】富山市天正寺１２９１番地", "url2": "https://www.kaigokensaku.mhlw.go.jp/16/index.php?action_kouhyou_detail_004_kani=true&JigyosyoCd=1670102522-00&ServiceCd=150&Type=search" }, "geometry": { "type": "Point", "coordinates": [ 137.2504437, 36.680038 ] } },
{ "type": "Feature", "properties": { "内容": "デイサービスおきな【通所介護】富山県富山市石金一丁目２番３０号", "url2": "https://www.kaigokensaku.mhlw.go.jp/16/index.php?action_kouhyou_detail_004_kani=true&JigyosyoCd=1670113909-00&ServiceCd=150&Type=search" }, "geometry": { "type": "Point", "coordinates": [ 137.234269499999982, 36.6910447 ] } },
{ "type": "Feature", "properties": { "内容": "富山西デイサービス【通所介護】富山県富山市婦中町下轡田1001ラ・サンテ富山西", "url2": "https://www.kaigokensaku.mhlw.go.jp/16/index.php?action_kouhyou_detail_004_kani=true&JigyosyoCd=1670114204-00&ServiceCd=150&Type=search" }, "geometry": { "type": "Point", "coordinates": [ 137.172881402763323, 36.659814403870207 ] } },
{ "type": "Feature", "properties": { "内容": "医療法人社団城南会　　もなみデイサービス【通所介護】富山県富山市太郎丸本町1丁目10-23住宅型有料老人ホーム　シニアライフもなみ内", "url2": "https://www.kaigokensaku.mhlw.go.jp/16/index.php?action_kouhyou_detail_004_kani=true&JigyosyoCd=1670102696-00&ServiceCd=150&Type=search" }, "geometry": { "type": "Point", "coordinates": [ 137.212225413769602, 36.677478491823642 ] } },
{ "type": "Feature", "properties": { "内容": "いきいき元気クラブ【通所介護】富山市上大久保1310-1", "url2": "https://www.kaigokensaku.mhlw.go.jp/16/index.php?action_kouhyou_detail_004_kani=true&JigyosyoCd=1670113024-00&ServiceCd=150&Type=search" }, "geometry": { "type": "Point", "coordinates": [ 137.203895441083006, 36.598100439469157 ] } },
{ "type": "Feature", "properties": { "内容": "デイサービスセンターふる里の風【通所介護】富山県富山市住吉町2-6-19", "url2": "https://www.kaigokensaku.mhlw.go.jp/16/index.php?action_kouhyou_detail_004_kani=true&JigyosyoCd=1670103223-00&ServiceCd=150&Type=search" }, "geometry": { "type": "Point", "coordinates": [ 137.230275906745874, 36.690928692166835 ] } },
{ "type": "Feature", "properties": { "内容": "一休庵デイサービスセンター【通所介護】富山市四方1133－1", "url2": "https://www.kaigokensaku.mhlw.go.jp/16/index.php?action_kouhyou_detail_004_kani=true&JigyosyoCd=1670104296-00&ServiceCd=150&Type=search" }, "geometry": { "type": "Point", "coordinates": [ 137.193219799999952, 36.7525974 ] } },
{ "type": "Feature", "properties": { "内容": "とやま金泉寺ケアセンターそよ風【通所介護】富山市中野新29番1", "url2": "https://www.kaigokensaku.mhlw.go.jp/16/index.php?action_kouhyou_detail_004_kani=true&JigyosyoCd=1670114642-00&ServiceCd=150&Type=search" }, "geometry": { "type": "Point", "coordinates": [ 137.2731656, 36.720408 ] } },
{ "type": "Feature", "properties": { "内容": "かえでデイサービス黒崎【通所介護】富山県富山市黒崎291", "url2": "https://www.kaigokensaku.mhlw.go.jp/16/index.php?action_kouhyou_detail_004_kani=true&JigyosyoCd=1670114352-00&ServiceCd=150&Type=search" }, "geometry": { "type": "Point", "coordinates": [ 137.2098929, 36.6508996 ] } },
{ "type": "Feature", "properties": { "内容": "ロコモ予防貯筋デイかがやき【通所介護】富山県富山市つばめ野1-53", "url2": "https://www.kaigokensaku.mhlw.go.jp/16/index.php?action_kouhyou_detail_004_kani=true&JigyosyoCd=1670113487-00&ServiceCd=150&Type=search" }, "geometry": { "type": "Point", "coordinates": [ 137.189267500000028, 36.7516196 ] } },
{ "type": "Feature", "properties": { "内容": "デイサービス　ふぁみりー　南町【通所介護】富山県富山市四方212-3", "url2": "https://www.kaigokensaku.mhlw.go.jp/16/index.php?action_kouhyou_detail_004_kani=true&JigyosyoCd=1670114121-00&ServiceCd=150&Type=search" }, "geometry": { "type": "Point", "coordinates": [ 137.196077599999967, 36.7564166 ] } },
{ "type": "Feature", "properties": { "内容": "ひなたぼっことやまデイサービスセンター【通所介護】富山県富山市高畠町一丁目10番17号", "url2": "https://www.kaigokensaku.mhlw.go.jp/16/index.php?action_kouhyou_detail_004_kani=true&JigyosyoCd=1670104619-00&ServiceCd=150&Type=search" }, "geometry": { "type": "Point", "coordinates": [ 137.2303015, 36.7499489 ] } },
{ "type": "Feature", "properties": { "内容": "デイサービスまみ～ずが～でん黒瀬【通所介護】富山市黒瀬４３５－１", "url2": "https://www.kaigokensaku.mhlw.go.jp/16/index.php?action_kouhyou_detail_004_kani=true&JigyosyoCd=1670115342-00&ServiceCd=150&Type=search" }, "geometry": { "type": "Point", "coordinates": [ 137.20176257132772, 36.661284439557491 ] } },
{ "type": "Feature", "properties": { "内容": "デイサービスまみーずがーでん【通所介護】富山市婦中町速星204番", "url2": "https://www.kaigokensaku.mhlw.go.jp/16/index.php?action_kouhyou_detail_004_kani=true&JigyosyoCd=1670111853-00&ServiceCd=150&Type=search" }, "geometry": { "type": "Point", "coordinates": [ 137.167790367229827, 36.663147148322047 ] } },
{ "type": "Feature", "properties": { "内容": "デイサービスみんなの輪　おおさわの【通所介護】富山県富山市南野田70番地", "url2": "https://www.kaigokensaku.mhlw.go.jp/16/index.php?action_kouhyou_detail_004_kani=true&JigyosyoCd=1670112380-00&ServiceCd=150&Type=search" }, "geometry": { "type": "Point", "coordinates": [ 137.22323416773682, 36.589249377438406 ] } },
{ "type": "Feature", "properties": { "内容": "新庄ヒルズデイサービスセンター【通所介護】富山県富山市新庄町四丁目１４番４８", "url2": "https://www.kaigokensaku.mhlw.go.jp/16/index.php?action_kouhyou_detail_004_kani=true&JigyosyoCd=1670104809-00&ServiceCd=150&Type=search" }, "geometry": { "type": "Point", "coordinates": [ 137.267098900000065, 36.703677500000033 ] } },
{ "type": "Feature", "properties": { "内容": "コスモスの里　大江干【通所介護】富山市大江干３４番地１", "url2": "https://www.kaigokensaku.mhlw.go.jp/16/index.php?action_kouhyou_detail_004_kani=true&JigyosyoCd=1670104155-00&ServiceCd=150&Type=search" }, "geometry": { "type": "Point", "coordinates": [ 137.26525879999997, 36.6914815 ] } },
{ "type": "Feature", "properties": { "内容": "ツクイ富山藤ノ木【通所介護】富山県富山市藤木1847-2", "url2": "https://www.kaigokensaku.mhlw.go.jp/16/index.php?action_kouhyou_detail_004_kani=true&JigyosyoCd=1670105012-00&ServiceCd=150&Type=search" }, "geometry": { "type": "Point", "coordinates": [ 137.268455899999907, 36.6841713 ] } },
{ "type": "Feature", "properties": { "内容": "ツクイ富山【通所介護】富山市稲荷元町2丁目8-9アクトピアトヤマ　1階", "url2": "https://www.kaigokensaku.mhlw.go.jp/16/index.php?action_kouhyou_detail_004_kani=true&JigyosyoCd=1670102282-00&ServiceCd=150&Type=search" }, "geometry": { "type": "Point", "coordinates": [ 137.228444599999989, 36.6961577 ] } },
{ "type": "Feature", "properties": { "内容": "ツクイ富山上冨居【通所介護】富山市上冨居3-1-29", "url2": "https://www.kaigokensaku.mhlw.go.jp/16/index.php?action_kouhyou_detail_004_kani=true&JigyosyoCd=1670103199-00&ServiceCd=150&Type=search" }, "geometry": { "type": "Point", "coordinates": [ 137.240465500000028, 36.7115144 ] } },
{ "type": "Feature", "properties": { "内容": "ツクイ富山萩原【通所介護】富山市萩原179-1", "url2": "https://www.kaigokensaku.mhlw.go.jp/16/index.php?action_kouhyou_detail_004_kani=true&JigyosyoCd=1670102449-00&ServiceCd=150&Type=search" }, "geometry": { "type": "Point", "coordinates": [ 137.196741400000064, 36.6640615 ] } },
{ "type": "Feature", "properties": { "内容": "ニチイケアセンター安養坊【通所介護】富山県富山市安養坊256-1", "url2": "https://www.kaigokensaku.mhlw.go.jp/16/index.php?action_kouhyou_detail_004_kani=true&JigyosyoCd=1670111846-00&ServiceCd=150&Type=search" }, "geometry": { "type": "Point", "coordinates": [ 137.19312930000001, 36.7103159 ] } },
{ "type": "Feature", "properties": { "内容": "ニチイケアセンター富山【通所介護】富山県富山市下奥井1-19-16", "url2": "https://www.kaigokensaku.mhlw.go.jp/16/index.php?action_kouhyou_detail_004_kani=true&JigyosyoCd=1670111747-00&ServiceCd=150&Type=search" }, "geometry": { "type": "Point", "coordinates": [ 137.223216500000035, 36.7126499 ] } },
{ "type": "Feature", "properties": { "内容": "デイサービスセンターふる里の風　堀川【通所介護】富山市堀川町475", "url2": "https://www.kaigokensaku.mhlw.go.jp/16/index.php?action_kouhyou_detail_004_kani=true&JigyosyoCd=1670111481-00&ServiceCd=150&Type=search" }, "geometry": { "type": "Point", "coordinates": [ 137.2189945, 36.6601071 ] } },
{ "type": "Feature", "properties": { "内容": "デイサービスセンターふる里の風　中田【通所介護】富山市中田１丁目１１－１６", "url2": "https://www.kaigokensaku.mhlw.go.jp/16/index.php?action_kouhyou_detail_004_kani=true&JigyosyoCd=1670104320-00&ServiceCd=150&Type=search" }, "geometry": { "type": "Point", "coordinates": [ 137.244756199999983, 36.7452387 ] } },
{ "type": "Feature", "properties": { "内容": "デイサービス笑美寿【通所介護】富山市中島2丁目1－43ケアセンター笑美寿", "url2": "https://www.kaigokensaku.mhlw.go.jp/16/index.php?action_kouhyou_detail_004_kani=true&JigyosyoCd=1670104254-00&ServiceCd=150&Type=search" }, "geometry": { "type": "Point", "coordinates": [ 137.2203637, 36.7253177 ] } },
{ "type": "Feature", "properties": { "内容": "デイサービス笑美寿東【通所介護】田畑852-3ケアセンター笑美寿東", "url2": "https://www.kaigokensaku.mhlw.go.jp/16/index.php?action_kouhyou_detail_004_kani=true&JigyosyoCd=1670111960-00&ServiceCd=150&Type=search" }, "geometry": { "type": "Point", "coordinates": [ 137.254608400000052, 36.7450308 ] } },
{ "type": "Feature", "properties": { "内容": "デイサービスおあしす中島【通所介護】富山市中島3-8-33", "url2": "https://www.kaigokensaku.mhlw.go.jp/16/index.php?action_kouhyou_detail_004_kani=true&JigyosyoCd=1670112091-00&ServiceCd=150&Type=search" }, "geometry": { "type": "Point", "coordinates": [ 137.220674899999949, 36.7198517 ] } },
{ "type": "Feature", "properties": { "内容": "かえるの楽笑【通所介護】蓮町４丁目６-３", "url2": "https://www.kaigokensaku.mhlw.go.jp/16/index.php?action_kouhyou_detail_004_kani=true&JigyosyoCd=1670112638-00&ServiceCd=150&Type=search" }, "geometry": { "type": "Point", "coordinates": [ 137.231664234833403, 36.741615610883272 ] } },
{ "type": "Feature", "properties": { "内容": "笑ひ　デイサービス【通所介護】富山市五福4区116", "url2": "https://www.kaigokensaku.mhlw.go.jp/16/index.php?action_kouhyou_detail_004_kani=true&JigyosyoCd=1670104270-00&ServiceCd=150&Type=search" }, "geometry": { "type": "Point", "coordinates": [ 137.186062900000024, 36.7037788 ] } },
{ "type": "Feature", "properties": { "内容": "デイサービス　すまいる【通所介護】富山市上大久保８９３－１", "url2": "https://www.kaigokensaku.mhlw.go.jp/16/index.php?action_kouhyou_detail_004_kani=true&JigyosyoCd=1670105137-00&ServiceCd=150&Type=search" }, "geometry": { "type": "Point", "coordinates": [ 137.206639099999961, 36.5976692 ] } },
{ "type": "Feature", "properties": { "内容": "かえでデイサービス石坂【通所介護】富山県富山市石坂3322-1", "url2": "https://www.kaigokensaku.mhlw.go.jp/16/index.php?action_kouhyou_detail_004_kani=true&JigyosyoCd=1670115334-00&ServiceCd=150&Type=search" }, "geometry": { "type": "Point", "coordinates": [ 137.200266199999987, 36.717158900000015 ] } },
{ "type": "Feature", "properties": { "内容": "リハビリ特化型デイサービスRe-TAC【通所介護】富山県富山市日俣157-1", "url2": "https://www.kaigokensaku.mhlw.go.jp/16/index.php?action_kouhyou_detail_004_kani=true&JigyosyoCd=1670115284-00&ServiceCd=150&Type=search" }, "geometry": { "type": "Point", "coordinates": [ 137.2713546, 36.696772618631591 ] } },
{ "type": "Feature", "properties": { "内容": "桜谷の里デイサービスセンター【通所介護】富山市石坂新８３０番地1", "url2": "https://www.kaigokensaku.mhlw.go.jp/16/index.php?action_kouhyou_detail_004_kani=true&JigyosyoCd=1670112463-00&ServiceCd=150&Type=search" }, "geometry": { "type": "Point", "coordinates": [ 137.199011599999949, 36.7153905 ] } },
{ "type": "Feature", "properties": { "内容": "デイサービスセンター呉羽あいの風【通所介護】富山県富山市野々上340", "url2": "https://www.kaigokensaku.mhlw.go.jp/16/index.php?action_kouhyou_detail_004_kani=true&JigyosyoCd=1670113891-00&ServiceCd=150&Type=search" }, "geometry": { "type": "Point", "coordinates": [ 137.1428654, 36.720761 ] } },
{ "type": "Feature", "properties": { "内容": "アルペンデイサービス【通所介護】富山市小西１７０番地", "url2": "https://www.kaigokensaku.mhlw.go.jp/16/index.php?action_kouhyou_detail_004_kani=true&JigyosyoCd=1670100716-00&ServiceCd=150&Type=search" }, "geometry": { "type": "Point", "coordinates": [ 137.257864, 36.7246772 ] } },
{ "type": "Feature", "properties": { "内容": "デイサービス花みずき【通所介護】富山市稲荷町4丁目3－16", "url2": "https://www.kaigokensaku.mhlw.go.jp/16/index.php?action_kouhyou_detail_004_kani=true&JigyosyoCd=1670102902-00&ServiceCd=150&Type=search" }, "geometry": { "type": "Point", "coordinates": [ 137.233586, 36.696355 ] } },
{ "type": "Feature", "properties": { "内容": "三寿苑デイサービスセンター【通所介護】富山市大島３丁目１４７番地", "url2": "https://www.kaigokensaku.mhlw.go.jp/16/index.php?action_kouhyou_detail_004_kani=true&JigyosyoCd=1670100401-00&ServiceCd=150&Type=search" }, "geometry": { "type": "Point", "coordinates": [ 137.278030400000034, 36.6740811 ] } },
{ "type": "Feature", "properties": { "内容": "あすなろの郷デイサービスセンター【通所介護】富山県富山市下新北町6-45", "url2": "https://www.kaigokensaku.mhlw.go.jp/16/index.php?action_kouhyou_detail_004_kani=true&JigyosyoCd=1670102712-00&ServiceCd=150&Type=search" }, "geometry": { "type": "Point", "coordinates": [ 137.220122299999957, 36.717002 ] } },
{ "type": "Feature", "properties": { "内容": "水橋生活サポートセンターかけはし　デイサービスかけはし【通所介護】富山市水橋中村町２－２", "url2": "https://www.kaigokensaku.mhlw.go.jp/16/index.php?action_kouhyou_detail_004_kani=true&JigyosyoCd=1670103538-00&ServiceCd=150&Type=search" }, "geometry": { "type": "Point", "coordinates": [ 137.312316099999947, 36.7545727 ] } },
{ "type": "Feature", "properties": { "内容": "あしたねの森デイサービス【通所介護】富山県富山市新庄町2丁目15-32", "url2": "https://www.kaigokensaku.mhlw.go.jp/16/index.php?action_kouhyou_detail_004_kani=true&JigyosyoCd=1670112828-00&ServiceCd=150&Type=search" }, "geometry": { "type": "Point", "coordinates": [ 137.25573989999998, 36.6997302 ] } },
{ "type": "Feature", "properties": { "内容": "堀川南光風苑【通所介護】富山市本郷町２６２－１５", "url2": "https://www.kaigokensaku.mhlw.go.jp/16/index.php?action_kouhyou_detail_004_kani=true&JigyosyoCd=1670102852-00&ServiceCd=150&Type=search" }, "geometry": { "type": "Point", "coordinates": [ 137.232890118402651, 36.663033156659409 ] } },
{ "type": "Feature", "properties": { "内容": "晴風荘デイサービスセンターうみかぜ【通所介護】富山県富山市水橋辻", "url2": "https://www.kaigokensaku.mhlw.go.jp/16/index.php?action_kouhyou_detail_004_kani=true&JigyosyoCd=1670104353-00&ServiceCd=150&Type=search" }, "geometry": { "type": "Point", "coordinates": [ 137.297848599999952, 36.7459844 ] } },
{ "type": "Feature", "properties": { "内容": "デイサービスセンターあざみ【通所介護】富山市辰巳町2丁目4-12", "url2": "https://www.kaigokensaku.mhlw.go.jp/16/index.php?action_kouhyou_detail_004_kani=true&JigyosyoCd=1670104312-00&ServiceCd=150&Type=search" }, "geometry": { "type": "Point", "coordinates": [ 137.221931899999959, 36.6838011 ] } },
{ "type": "Feature", "properties": { "内容": "デイサービスくつろぎ日和【通所介護】富山市飯野1-2", "url2": "https://www.kaigokensaku.mhlw.go.jp/16/index.php?action_kouhyou_detail_004_kani=true&JigyosyoCd=1670104080-00&ServiceCd=150&Type=search" }, "geometry": { "type": "Point", "coordinates": [ 137.25791090000007, 36.7399284 ] } },
{ "type": "Feature", "properties": { "内容": "デイサービス　まちなか【通所介護】千石町四丁目５番１号", "url2": "https://www.kaigokensaku.mhlw.go.jp/16/index.php?action_kouhyou_detail_004_kani=true&JigyosyoCd=1670113396-00&ServiceCd=150&Type=search" }, "geometry": { "type": "Point", "coordinates": [ 140.6240269, 36.5476537 ] } },
{ "type": "Feature", "properties": { "内容": "しみずまち敬寿苑デイサービスセンター【通所介護】富山市清水町二丁目6-23", "url2": "https://www.kaigokensaku.mhlw.go.jp/16/index.php?action_kouhyou_detail_004_kani=true&JigyosyoCd=1670103009-00&ServiceCd=150&Type=search" }, "geometry": { "type": "Point", "coordinates": [ 137.225916388360588, 36.688863542144674 ] } },
{ "type": "Feature", "properties": { "内容": "デイサービスにながわ【通所介護】富山県富山市二俣319-1", "url2": "https://www.kaigokensaku.mhlw.go.jp/16/index.php?action_kouhyou_detail_004_kani=true&JigyosyoCd=1670105061-00&ServiceCd=150&Type=search" }, "geometry": { "type": "Point", "coordinates": [ 137.217334, 36.644722700000017 ] } },
{ "type": "Feature", "properties": { "内容": "ソレイユデイサービスセンター【通所介護】富山県富山市下堀50-6", "url2": "https://www.kaigokensaku.mhlw.go.jp/16/index.php?action_kouhyou_detail_004_kani=true&JigyosyoCd=1670103553-00&ServiceCd=150&Type=search" }, "geometry": { "type": "Point", "coordinates": [ 137.228415700000028, 36.6625096 ] } },
{ "type": "Feature", "properties": { "内容": "梨雲苑ゆうゆうデイサービスセンター【通所介護】富山県富山市野口南部121", "url2": "https://www.kaigokensaku.mhlw.go.jp/16/index.php?action_kouhyou_detail_004_kani=true&JigyosyoCd=1670112679-00&ServiceCd=150&Type=search" }, "geometry": { "type": "Point", "coordinates": [ 137.15284912104039, 36.713362541213151 ] } },
{ "type": "Feature", "properties": { "内容": "梨雲苑デイサ－ビスセンタ－【通所介護】富山県富山市吉作1725番地", "url2": "https://www.kaigokensaku.mhlw.go.jp/16/index.php?action_kouhyou_detail_004_kani=true&JigyosyoCd=1670100229-00&ServiceCd=150&Type=search" }, "geometry": { "type": "Point", "coordinates": [ 137.153270199999952, 36.7122291 ] } },
{ "type": "Feature", "properties": { "内容": "和合ハイツデイサービスセンター【通所介護】富山市布目1966番地1", "url2": "https://www.kaigokensaku.mhlw.go.jp/16/index.php?action_kouhyou_detail_004_kani=true&JigyosyoCd=1670100807-00&ServiceCd=150&Type=search" }, "geometry": { "type": "Point", "coordinates": [ 137.190431399999966, 36.7468618 ] } },
{ "type": "Feature", "properties": { "内容": "デイサービスきたえるーむ富山奥田【通所介護】富山県富山市下新本町3番17号", "url2": "https://www.kaigokensaku.mhlw.go.jp/16/index.php?action_kouhyou_detail_004_kani=true&JigyosyoCd=1670115292-00&ServiceCd=150&Type=search" }, "geometry": { "type": "Point", "coordinates": [ 137.2196777, 36.7156969 ] } },
{ "type": "Feature", "properties": { "内容": "デイサービスきたえるーむ富山長江【通所介護】富山市長江1丁目5番20号", "url2": "https://www.kaigokensaku.mhlw.go.jp/16/index.php?action_kouhyou_detail_004_kani=true&JigyosyoCd=1670112158-00&ServiceCd=150&Type=search" }, "geometry": { "type": "Point", "coordinates": [ 137.245371437356027, 36.689764709216547 ] } },
{ "type": "Feature", "properties": { "内容": "きたえるーむ富山萩原【通所介護】富山県富山市萩原416-1", "url2": "https://www.kaigokensaku.mhlw.go.jp/16/index.php?action_kouhyou_detail_004_kani=true&JigyosyoCd=1670114105-00&ServiceCd=150&Type=search" }, "geometry": { "type": "Point", "coordinates": [ 137.196705299999962, 36.6659696 ] } },
{ "type": "Feature", "properties": { "内容": "青い鳥デイサービス【通所介護】富山県富山市根塚町3丁目9-12", "url2": "https://www.kaigokensaku.mhlw.go.jp/16/index.php?action_kouhyou_detail_004_kani=true&JigyosyoCd=1670114543-00&ServiceCd=150&Type=search" }, "geometry": { "type": "Point", "coordinates": [ 137.207133099999965, 36.6705765 ] } },
{ "type": "Feature", "properties": { "内容": "青鳥寺デイサービスセンター【通所介護】富山市二口町１丁目９－３", "url2": "https://www.kaigokensaku.mhlw.go.jp/16/index.php?action_kouhyou_detail_004_kani=true&JigyosyoCd=1670104536-00&ServiceCd=150&Type=search" }, "geometry": { "type": "Point", "coordinates": [ 137.201976699999932, 36.6715857 ] } },
{ "type": "Feature", "properties": { "内容": "デイサービス　このゆびとーまれ向い【通所介護】富山県富山市富岡町３６５番地", "url2": "https://www.kaigokensaku.mhlw.go.jp/16/index.php?action_kouhyou_detail_004_kani=true&JigyosyoCd=1670103157-00&ServiceCd=150&Type=search" }, "geometry": { "type": "Point", "coordinates": [ 137.26232559999994, 36.6943977 ] } },
{ "type": "Feature", "properties": { "内容": "富山医療生活協同組合在宅福祉総合センターひまわり通所介護【通所介護】富山市粟島２丁目２－１", "url2": "https://www.kaigokensaku.mhlw.go.jp/16/index.php?action_kouhyou_detail_004_kani=true&JigyosyoCd=1670101995-00&ServiceCd=150&Type=search" }, "geometry": { "type": "Point", "coordinates": [ 137.231179600000019, 36.724432 ] } },
{ "type": "Feature", "properties": { "内容": "富山医療生活協同組合在宅福祉総合センターきずなデイサービスセンター【通所介護】富山市柳町1丁目２－１８", "url2": "https://www.kaigokensaku.mhlw.go.jp/16/index.php?action_kouhyou_detail_004_kani=true&JigyosyoCd=1670100161-00&ServiceCd=150&Type=search" }, "geometry": { "type": "Point", "coordinates": [ 137.222117499999968, 36.692847 ] } },
{ "type": "Feature", "properties": { "内容": "北陸メディカルサービス株式会社　デイサービスてんまり【通所介護】富山市奥井町4番36号", "url2": "https://www.kaigokensaku.mhlw.go.jp/16/index.php?action_kouhyou_detail_004_kani=true&JigyosyoCd=1670111622-00&ServiceCd=150&Type=search" }, "geometry": { "type": "Point", "coordinates": [ 137.224820817196587, 36.70444513272615 ] } },
{ "type": "Feature", "properties": { "内容": "通所介護　あい【通所介護】富山県富山市婦中町熊野道357", "url2": "https://www.kaigokensaku.mhlw.go.jp/16/index.php?action_kouhyou_detail_004_kani=true&JigyosyoCd=1670103215-00&ServiceCd=150&Type=search" }, "geometry": { "type": "Point", "coordinates": [ 137.142619700000068, 36.6268841 ] } },
{ "type": "Feature", "properties": { "内容": "デイサービスセンター1・2の3【通所介護】富山市中川原399-1", "url2": "https://www.kaigokensaku.mhlw.go.jp/16/index.php?action_kouhyou_detail_004_kani=true&JigyosyoCd=1670102662-00&ServiceCd=150&Type=search" }, "geometry": { "type": "Point", "coordinates": [ 137.246665354631006, 36.675207336470791 ] } },
{ "type": "Feature", "properties": { "内容": "ちゅらさん婦中デイサービスセンター【通所介護】富山市婦中町下轡田90-1", "url2": "https://www.kaigokensaku.mhlw.go.jp/16/index.php?action_kouhyou_detail_004_kani=true&JigyosyoCd=1670104403-00&ServiceCd=150&Type=search" }, "geometry": { "type": "Point", "coordinates": [ 137.173013200000014, 36.6656356 ] } },
{ "type": "Feature", "properties": { "内容": "ディサービスマーガレット【通所介護】富山県富山市小泉町11番地", "url2": "https://www.kaigokensaku.mhlw.go.jp/16/index.php?action_kouhyou_detail_004_kani=true&JigyosyoCd=1670112364-00&ServiceCd=150&Type=search" }, "geometry": { "type": "Point", "coordinates": [ 137.21917820367014, 36.676653145652686 ] } },
{ "type": "Feature", "properties": { "内容": "ケアサポート・まき　吉作【通所介護】富山市吉作４７０４－２", "url2": "https://www.kaigokensaku.mhlw.go.jp/16/index.php?action_kouhyou_detail_004_kani=true&JigyosyoCd=1670104049-00&ServiceCd=150&Type=search" }, "geometry": { "type": "Point", "coordinates": [ 137.163166499999988, 36.7064995 ] } },
{ "type": "Feature", "properties": { "内容": "デイサービス　萩の里　ぬくもり【通所介護】富山市蓮町２－３－２３", "url2": "https://www.kaigokensaku.mhlw.go.jp/16/index.php?action_kouhyou_detail_004_kani=true&JigyosyoCd=1670103504-00&ServiceCd=150&Type=search" }, "geometry": { "type": "Point", "coordinates": [ 137.231959700000061, 36.7436911 ] } },
{ "type": "Feature", "properties": { "内容": "デイサービス金泉寺【通所介護】富山市手屋三丁目8‐39", "url2": "https://www.kaigokensaku.mhlw.go.jp/16/index.php?action_kouhyou_detail_004_kani=true&JigyosyoCd=1670112141-00&ServiceCd=150&Type=search" }, "geometry": { "type": "Point", "coordinates": [ 137.26598826441807, 36.718436900382848 ] } },
{ "type": "Feature", "properties": { "内容": "ふれあい工房【通所介護】富山市上野799-2", "url2": "https://www.kaigokensaku.mhlw.go.jp/16/index.php?action_kouhyou_detail_004_kani=true&JigyosyoCd=1670104387-00&ServiceCd=150&Type=search" }, "geometry": { "type": "Point", "coordinates": [ 137.218572047850415, 36.638910537493409 ] } },
{ "type": "Feature", "properties": { "内容": "ニチイケアセンター婦中【通所介護】富山県富山市婦中町上田島32-2", "url2": "https://www.kaigokensaku.mhlw.go.jp/16/index.php?action_kouhyou_detail_004_kani=true&JigyosyoCd=1671800223-00&ServiceCd=150&Type=search" }, "geometry": { "type": "Point", "coordinates": [ 137.173910299999989, 36.6689491 ] } },
{ "type": "Feature", "properties": { "内容": "喜寿苑デイサービスセンター【通所介護】富山市婦中町塚原122", "url2": "https://www.kaigokensaku.mhlw.go.jp/16/index.php?action_kouhyou_detail_004_kani=true&JigyosyoCd=1671800132-00&ServiceCd=150&Type=search" }, "geometry": { "type": "Point", "coordinates": [ 137.184456599999976, 36.6596672 ] } },
{ "type": "Feature", "properties": { "内容": "のりみねデイサービスセンター【通所介護】富山県富山市八尾町福島７－４２", "url2": "https://www.kaigokensaku.mhlw.go.jp/16/index.php?action_kouhyou_detail_004_kani=true&JigyosyoCd=1671800108-00&ServiceCd=150&Type=search" }, "geometry": { "type": "Point", "coordinates": [ 137.138215567828638, 36.596241324515539 ] } },
{ "type": "Feature", "properties": { "内容": "ふるさと敬寿苑デイサービスセンター【通所介護】富山県富山市婦中町羽根1092番地２", "url2": "https://www.kaigokensaku.mhlw.go.jp/16/index.php?action_kouhyou_detail_004_kani=true&JigyosyoCd=1671800322-00&ServiceCd=150&Type=search" }, "geometry": { "type": "Point", "coordinates": [ 137.140473300000025, 36.660074100000017 ] } },
{ "type": "Feature", "properties": { "内容": "椿寿荘デイサービスセンター【通所介護】富山県富山市八尾町奥田80番地", "url2": "https://www.kaigokensaku.mhlw.go.jp/16/index.php?action_kouhyou_detail_004_kani=true&JigyosyoCd=1671800421-00&ServiceCd=150&Type=search" }, "geometry": { "type": "Point", "coordinates": [ 137.1311624, 36.6186518 ] } },
{ "type": "Feature", "properties": { "内容": "富山医療生活協同組合　在宅福祉総合センターぽぷら【通所介護】富山市婦中町速星398番地１", "url2": "https://www.kaigokensaku.mhlw.go.jp/16/index.php?action_kouhyou_detail_004_kani=true&JigyosyoCd=1671800462-00&ServiceCd=150&Type=search" }, "geometry": { "type": "Point", "coordinates": [ 137.165486200000032, 36.6638911 ] } },
{ "type": "Feature", "properties": { "内容": "老人デイサービスセンターくれは苑【通所介護】富山県富山市中老田８４５番地", "url2": "https://www.kaigokensaku.mhlw.go.jp/16/index.php?action_kouhyou_detail_004_kani=true&JigyosyoCd=1670103819-00&ServiceCd=150&Type=search" }, "geometry": { "type": "Point", "coordinates": [ 137.130214199999955, 36.6999579 ] } },
{ "type": "Feature", "properties": { "内容": "デイおおくぼの森【通所介護】下大久保1530-1ささづ苑おおくぼ拠点おおくぼの森", "url2": "https://www.kaigokensaku.mhlw.go.jp/16/index.php?action_kouhyou_detail_004_kani=true&JigyosyoCd=1670115482-00&ServiceCd=150&Type=search" }, "geometry": { "type": "Point", "coordinates": [ 137.2078789, 36.609727 ] } },
{ "type": "Feature", "properties": { "内容": "サポートハウス神通さくら野【通所介護】富山県富山市八尾町西神通８８２－１", "url2": "https://www.kaigokensaku.mhlw.go.jp/16/index.php?action_kouhyou_detail_004_kani=true&JigyosyoCd=1670115540-00&ServiceCd=150&Type=search" }, "geometry": { "type": "Point", "coordinates": [ 137.182071400000012, 36.5904099 ] } },
{ "type": "Feature", "properties": { "内容": "デイサービスあおば【通所介護】富山県富山市八尾町黒田2702-1", "url2": "https://www.kaigokensaku.mhlw.go.jp/16/index.php?action_kouhyou_detail_004_kani=true&JigyosyoCd=1670113719-00&ServiceCd=150&Type=search" }, "geometry": { "type": "Point", "coordinates": [ 137.163672655163253, 36.601083658301199 ] } },
{ "type": "Feature", "properties": { "内容": "うめばちふちゅう【通所介護】富山県富山市婦中町蔵島1058-2", "url2": "https://www.kaigokensaku.mhlw.go.jp/16/index.php?action_kouhyou_detail_004_kani=true&JigyosyoCd=1670115243-00&ServiceCd=150&Type=search" }, "geometry": { "type": "Point", "coordinates": [ 137.171450599999986, 36.6455478 ] } },
{ "type": "Feature", "properties": { "内容": "きたえるーむ富山本郷【通所介護】富山県富山市本郷町63-1", "url2": "https://www.kaigokensaku.mhlw.go.jp/16/index.php?action_kouhyou_detail_004_kani=true&JigyosyoCd=1670115060-00&ServiceCd=150&Type=search" }, "geometry": { "type": "Point", "coordinates": [ 137.233928800000029, 36.663258400000011 ] } },
{ "type": "Feature", "properties": { "内容": "デイサービス鈴の音飯野【通所介護】富山県富山市飯野18番4", "url2": "https://www.kaigokensaku.mhlw.go.jp/16/index.php?action_kouhyou_detail_004_kani=true&JigyosyoCd=1670115680-00&ServiceCd=150&Type=search" }, "geometry": { "type": "Point", "coordinates": [ 137.253905, 36.7154319 ] } },
{ "type": "Feature", "properties": { "内容": "デイサービス笑美寿あかえ【通所介護】富山県富山市下赤江町二丁目3-14", "url2": "https://www.kaigokensaku.mhlw.go.jp/16/index.php?action_kouhyou_detail_004_kani=true&JigyosyoCd=1670115755-00&ServiceCd=150&Type=search" }, "geometry": { "type": "Point", "coordinates": [ 137.2327414, 36.7161708 ] } },
{ "type": "Feature", "properties": { "内容": "はなさき苑デイサービスセンター【通所介護】富山県富山市花崎80番地", "url2": "https://www.kaigokensaku.mhlw.go.jp/16/index.php?action_kouhyou_detail_004_kani=true&JigyosyoCd=1671500070-00&ServiceCd=150&Type=search" }, "geometry": { "type": "Point", "coordinates": [ 137.279862699999967, 36.6100076 ] } },
{ "type": "Feature", "properties": { "内容": "ツクイ富山赤田【通所介護】富山県富山市赤田535-1ツクイ富山赤田", "url2": "https://www.kaigokensaku.mhlw.go.jp/16/index.php?action_kouhyou_detail_004_kani=true&JigyosyoCd=1670113180-00&ServiceCd=150&Type=search" }, "geometry": { "type": "Point", "coordinates": [ 137.217464500000034, 36.654417200000019 ] } },
{ "type": "Feature", "properties": { "内容": "ささづ苑デイサービスセンター【通所介護】富山市下タ林141", "url2": "https://www.kaigokensaku.mhlw.go.jp/16/index.php?action_kouhyou_detail_004_kani=true&JigyosyoCd=1671500153-00&ServiceCd=150&Type=search" }, "geometry": { "type": "Point", "coordinates": [ 137.205434800000035, 36.5633484 ] } },
{ "type": "Feature", "properties": { "内容": "社協デイサービスセンター【通所介護】富山県高岡市清水町１丁目７番30号", "url2": "https://www.kaigokensaku.mhlw.go.jp/16/index.php?action_kouhyou_detail_004_kani=true&JigyosyoCd=1670200185-00&ServiceCd=150&Type=search" }, "geometry": { "type": "Point", "coordinates": [ 137.002895399999943, 36.7409086 ] } },
{ "type": "Feature", "properties": { "内容": "デイサービス　えにし【通所介護】富山県高岡市野村1029-1有料老人ホーム　縁高岡　1階", "url2": "https://www.kaigokensaku.mhlw.go.jp/16/index.php?action_kouhyou_detail_004_kani=true&JigyosyoCd=1670202850-00&ServiceCd=150&Type=search" }, "geometry": { "type": "Point", "coordinates": [ 137.033366786415684, 36.751571356723126 ] } },
{ "type": "Feature", "properties": { "内容": "プラトーケアセンター中保【通所介護】富山県高岡市中保1294", "url2": "https://www.kaigokensaku.mhlw.go.jp/16/index.php?action_kouhyou_detail_004_kani=true&JigyosyoCd=1670202090-00&ServiceCd=150&Type=search" }, "geometry": { "type": "Point", "coordinates": [ 136.965326477423901, 36.721773578462965 ] } },
{ "type": "Feature", "properties": { "内容": "かざぐるま　デイサービス【通所介護】富山県高岡市熊野町２番２号", "url2": "https://www.kaigokensaku.mhlw.go.jp/16/index.php?action_kouhyou_detail_004_kani=true&JigyosyoCd=1670201274-00&ServiceCd=150&Type=search" }, "geometry": { "type": "Point", "coordinates": [ 137.01921440000001, 36.7621982 ] } },
{ "type": "Feature", "properties": { "内容": "デイサービスあさひの里【通所介護】富山県高岡市鷲北新185番地あさひの里", "url2": "https://www.kaigokensaku.mhlw.go.jp/16/index.php?action_kouhyou_detail_004_kani=true&JigyosyoCd=1670202421-00&ServiceCd=150&Type=search" }, "geometry": { "type": "Point", "coordinates": [ 137.035660399999983, 36.7617955 ] } },
{ "type": "Feature", "properties": { "内容": "高陵クリニック在宅介護総合支援センター　まいけ【通所介護】富山県高岡市野村２３－１", "url2": "https://www.kaigokensaku.mhlw.go.jp/16/index.php?action_kouhyou_detail_004_kani=true&JigyosyoCd=1610212555-00&ServiceCd=150&Type=search" }, "geometry": { "type": "Point", "coordinates": [ 137.027401199999986, 36.7378317 ] } },
{ "type": "Feature", "properties": { "内容": "ニチイケアセンター能町【通所介護】富山県高岡市能町南2-25", "url2": "https://www.kaigokensaku.mhlw.go.jp/16/index.php?action_kouhyou_detail_004_kani=true&JigyosyoCd=1670200318-00&ServiceCd=150&Type=search" }, "geometry": { "type": "Point", "coordinates": [ 137.043037599999934, 36.7647118 ] } },
{ "type": "Feature", "properties": { "内容": "鳳鳴苑デイサービスセンター【通所介護】富山県高岡市蔵野町3番地", "url2": "https://www.kaigokensaku.mhlw.go.jp/16/index.php?action_kouhyou_detail_004_kani=true&JigyosyoCd=1670200243-00&ServiceCd=150&Type=search" }, "geometry": { "type": "Point", "coordinates": [ 136.978160399999979, 36.7229736 ] } },
{ "type": "Feature", "properties": { "内容": "香野苑デイサービスセンター【通所介護】富山県高岡市上渡161番地", "url2": "https://www.kaigokensaku.mhlw.go.jp/16/index.php?action_kouhyou_detail_004_kani=true&JigyosyoCd=1670200383-00&ServiceCd=150&Type=search" }, "geometry": { "type": "Point", "coordinates": [ 136.957872700000053, 36.7296946 ] } },
{ "type": "Feature", "properties": { "内容": "デイサービスセンター藤園苑【通所介護】富山県高岡市早川390-1", "url2": "https://www.kaigokensaku.mhlw.go.jp/16/index.php?action_kouhyou_detail_004_kani=true&JigyosyoCd=1670200672-00&ServiceCd=150&Type=search" }, "geometry": { "type": "Point", "coordinates": [ 136.988288199999943, 36.7465688 ] } },
{ "type": "Feature", "properties": { "内容": "高岡デイサービスセンターきらら【通所介護】富山県高岡市千木屋町１５番地", "url2": "https://www.kaigokensaku.mhlw.go.jp/16/index.php?action_kouhyou_detail_004_kani=true&JigyosyoCd=1670200714-00&ServiceCd=150&Type=search" }, "geometry": { "type": "Point", "coordinates": [ 137.012346500000035, 36.7491885 ] } },
{ "type": "Feature", "properties": { "内容": "デイサービスいちごいちえ【通所介護】富山県高岡市問屋町211", "url2": "https://www.kaigokensaku.mhlw.go.jp/16/index.php?action_kouhyou_detail_004_kani=true&JigyosyoCd=1670202934-00&ServiceCd=150&Type=search" }, "geometry": { "type": "Point", "coordinates": [ 137.027220699999958, 36.7307024 ] } },
{ "type": "Feature", "properties": { "内容": "デイサービスセンター紬【通所介護】富山県高岡市野村1542-1", "url2": "https://www.kaigokensaku.mhlw.go.jp/16/index.php?action_kouhyou_detail_004_kani=true&JigyosyoCd=1670202751-00&ServiceCd=150&Type=search" }, "geometry": { "type": "Point", "coordinates": [ 137.0409838, 36.7575723 ] } },
{ "type": "Feature", "properties": { "内容": "リハビリデイサービス泉【通所介護】富山県高岡市佐野845番地1", "url2": "https://www.kaigokensaku.mhlw.go.jp/16/index.php?action_kouhyou_detail_004_kani=true&JigyosyoCd=1670202884-00&ServiceCd=150&Type=search" }, "geometry": { "type": "Point", "coordinates": [ 136.989346, 36.731105 ] } },
{ "type": "Feature", "properties": { "内容": "ユートピア大滝デイサービスセンター【通所介護】富山県高岡市福岡町大滝928番地1", "url2": "https://www.kaigokensaku.mhlw.go.jp/16/index.php?action_kouhyou_detail_004_kani=true&JigyosyoCd=1670202454-00&ServiceCd=150&Type=search" }, "geometry": { "type": "Point", "coordinates": [ 136.921591799999987, 36.6942266 ] } },
{ "type": "Feature", "properties": { "内容": "デイサービス　えにし【通所介護】富山県高岡市野村1029-1有料老人ホーム　縁高岡　1階", "url2": "https://www.kaigokensaku.mhlw.go.jp/16/index.php?action_kouhyou_detail_004_kani=true&JigyosyoCd=1670202918-00&ServiceCd=150&Type=search" }, "geometry": { "type": "Point", "coordinates": [ 137.033157705143736, 36.751625713194493 ] } },
{ "type": "Feature", "properties": { "内容": "きらく　たかおか【通所介護】富山県高岡市明野町6-1", "url2": "https://www.kaigokensaku.mhlw.go.jp/16/index.php?action_kouhyou_detail_004_kani=true&JigyosyoCd=1670202330-00&ServiceCd=150&Type=search" }, "geometry": { "type": "Point", "coordinates": [ 137.017641200000071, 36.7564879 ] } },
{ "type": "Feature", "properties": { "内容": "アルプス介護予防センター姫野【通所介護】姫野506", "url2": "https://www.kaigokensaku.mhlw.go.jp/16/index.php?action_kouhyou_detail_004_kani=true&JigyosyoCd=1670201746-00&ServiceCd=150&Type=search" }, "geometry": { "type": "Point", "coordinates": [ 137.086528199999947, 36.7720231 ] } },
{ "type": "Feature", "properties": { "内容": "みどりデイサービスセンター【通所介護】富山県高岡市横田町1丁目2番25号", "url2": "https://www.kaigokensaku.mhlw.go.jp/16/index.php?action_kouhyou_detail_004_kani=true&JigyosyoCd=1670201100-00&ServiceCd=150&Type=search" }, "geometry": { "type": "Point", "coordinates": [ 137.002031100000067, 36.7474052 ] } },
{ "type": "Feature", "properties": { "内容": "プラトーケアセンター高岡【通所介護】富山県高岡市佐野1552", "url2": "https://www.kaigokensaku.mhlw.go.jp/16/index.php?action_kouhyou_detail_004_kani=true&JigyosyoCd=1670201803-00&ServiceCd=150&Type=search" }, "geometry": { "type": "Point", "coordinates": [ 136.99691144636509, 36.723098146642108 ] } },
{ "type": "Feature", "properties": { "内容": "ハートフルケアデイサービスセンター【通所介護】富山県高岡市古定塚5-45", "url2": "https://www.kaigokensaku.mhlw.go.jp/16/index.php?action_kouhyou_detail_004_kani=true&JigyosyoCd=1670201753-00&ServiceCd=150&Type=search" }, "geometry": { "type": "Point", "coordinates": [ 137.033613800000012, 36.7522772 ] } },
{ "type": "Feature", "properties": { "内容": "サニーデイサービスセンター【通所介護】福岡町本領259－7", "url2": "https://www.kaigokensaku.mhlw.go.jp/16/index.php?action_kouhyou_detail_004_kani=true&JigyosyoCd=1670201928-00&ServiceCd=150&Type=search" }, "geometry": { "type": "Point", "coordinates": [ 136.909715099999971, 36.6954816 ] } },
{ "type": "Feature", "properties": { "内容": "デイサービス　ゆめ【通所介護】富山県高岡市戸出町３丁目１－７５", "url2": "https://www.kaigokensaku.mhlw.go.jp/16/index.php?action_kouhyou_detail_004_kani=true&JigyosyoCd=1670201340-00&ServiceCd=150&Type=search" }, "geometry": { "type": "Point", "coordinates": [ 136.978026099999965, 36.686802800000017 ] } },
{ "type": "Feature", "properties": { "内容": "ふしき苑デイサービスセンター【通所介護】富山県高岡市伏木国分１丁目１０番１０号", "url2": "https://www.kaigokensaku.mhlw.go.jp/16/index.php?action_kouhyou_detail_004_kani=true&JigyosyoCd=1670200847-00&ServiceCd=150&Type=search" }, "geometry": { "type": "Point", "coordinates": [ 137.0539238, 36.8001945 ] } },
{ "type": "Feature", "properties": { "内容": "高志の郷デイサービスセンター【通所介護】高岡市横田本町５番２１号", "url2": "https://www.kaigokensaku.mhlw.go.jp/16/index.php?action_kouhyou_detail_004_kani=true&JigyosyoCd=1670201993-00&ServiceCd=150&Type=search" }, "geometry": { "type": "Point", "coordinates": [ 136.9996837, 36.7518352 ] } },
{ "type": "Feature", "properties": { "内容": "雨晴苑　デイサービスセンター【通所介護】富山県高岡市太田５８番地", "url2": "https://www.kaigokensaku.mhlw.go.jp/16/index.php?action_kouhyou_detail_004_kani=true&JigyosyoCd=1670200201-00&ServiceCd=150&Type=search" }, "geometry": { "type": "Point", "coordinates": [ 137.014864799999941, 36.8154082 ] } },
{ "type": "Feature", "properties": { "内容": "高岡市だいごデイサービスセンター【通所介護】富山県高岡市醍醐１２５７番地", "url2": "https://www.kaigokensaku.mhlw.go.jp/16/index.php?action_kouhyou_detail_004_kani=true&JigyosyoCd=1670201373-00&ServiceCd=150&Type=search" }, "geometry": { "type": "Point", "coordinates": [ 136.961654400000043, 36.6961986 ] } },
{ "type": "Feature", "properties": { "内容": "デイサービス清水館つどい【通所介護】清水町3丁目3－58", "url2": "https://www.kaigokensaku.mhlw.go.jp/16/index.php?action_kouhyou_detail_004_kani=true&JigyosyoCd=1670202041-00&ServiceCd=150&Type=search" }, "geometry": { "type": "Point", "coordinates": [ 137.003898299999946, 36.7377201 ] } },
{ "type": "Feature", "properties": { "内容": "デイサービスセンターはるかぜ【通所介護】富山県　高岡市　オフィスパーク13番", "url2": "https://www.kaigokensaku.mhlw.go.jp/16/index.php?action_kouhyou_detail_004_kani=true&JigyosyoCd=1670201480-00&ServiceCd=150&Type=search" }, "geometry": { "type": "Point", "coordinates": [ 136.999101600000017, 36.6720308 ] } },
{ "type": "Feature", "properties": { "内容": "二上万葉苑デイサービスセンター【通所介護】富山県高岡市二上町1004番地", "url2": "https://www.kaigokensaku.mhlw.go.jp/16/index.php?action_kouhyou_detail_004_kani=true&JigyosyoCd=1670200821-00&ServiceCd=150&Type=search" }, "geometry": { "type": "Point", "coordinates": [ 137.0081146, 36.773994 ] } },
{ "type": "Feature", "properties": { "内容": "サンケア高岡北【通所介護】富山県高岡市長江464番地1", "url2": "https://www.kaigokensaku.mhlw.go.jp/16/index.php?action_kouhyou_detail_004_kani=true&JigyosyoCd=1670202314-00&ServiceCd=150&Type=search" }, "geometry": { "type": "Point", "coordinates": [ 136.982759094442684, 36.764859333205521 ] } },
{ "type": "Feature", "properties": { "内容": "デイサービスセンター　のむら藤園苑【通所介護】富山県高岡市野村921番地1", "url2": "https://www.kaigokensaku.mhlw.go.jp/16/index.php?action_kouhyou_detail_004_kani=true&JigyosyoCd=1670201316-00&ServiceCd=150&Type=search" }, "geometry": { "type": "Point", "coordinates": [ 137.03611090000004, 36.7507468 ] } },
{ "type": "Feature", "properties": { "内容": "デイサービス　やべの里【通所介護】富山県高岡市福岡町矢部1088番地", "url2": "https://www.kaigokensaku.mhlw.go.jp/16/index.php?action_kouhyou_detail_004_kani=true&JigyosyoCd=1670202827-00&ServiceCd=150&Type=search" }, "geometry": { "type": "Point", "coordinates": [ 136.9326903, 36.687740899999987 ] } },
{ "type": "Feature", "properties": { "内容": "富綜ケアセンターいわせの【通所介護】高岡市石瀬830-1", "url2": "https://www.kaigokensaku.mhlw.go.jp/16/index.php?action_kouhyou_detail_004_kani=true&JigyosyoCd=1670200953-00&ServiceCd=150&Type=search" }, "geometry": { "type": "Point", "coordinates": [ 137.046626300000071, 36.762526 ] } },
{ "type": "Feature", "properties": { "内容": "高岡デイサービスセンターゆ楽【通所介護】富山県高岡市石瀬７５１番地", "url2": "https://www.kaigokensaku.mhlw.go.jp/16/index.php?action_kouhyou_detail_004_kani=true&JigyosyoCd=1670201092-00&ServiceCd=150&Type=search" }, "geometry": { "type": "Point", "coordinates": [ 137.046590400000014, 36.7581459 ] } },
{ "type": "Feature", "properties": { "内容": "デイサービス中田館【通所介護】富山県高岡市下麻生89-2だいご中田館", "url2": "https://www.kaigokensaku.mhlw.go.jp/16/index.php?action_kouhyou_detail_004_kani=true&JigyosyoCd=1670203098-00&ServiceCd=150&Type=search" }, "geometry": { "type": "Point", "coordinates": [ 137.0185027, 36.6935738 ] } },
{ "type": "Feature", "properties": { "内容": "アルテン赤丸デイサービスセンター【通所介護】富山県高岡市福岡町赤丸１１０３番地１", "url2": "https://www.kaigokensaku.mhlw.go.jp/16/index.php?action_kouhyou_detail_004_kani=true&JigyosyoCd=1672100094-00&ServiceCd=150&Type=search" }, "geometry": { "type": "Point", "coordinates": [ 136.932330200000024, 36.7377992 ] } },
{ "type": "Feature", "properties": { "内容": "きたえるーむ高岡野村【通所介護】富山県高岡市野村1357-3", "url2": "https://www.kaigokensaku.mhlw.go.jp/16/index.php?action_kouhyou_detail_004_kani=true&JigyosyoCd=1670202736-00&ServiceCd=150&Type=search" }, "geometry": { "type": "Point", "coordinates": [ 137.041023948444746, 36.755730179405816 ] } },
{ "type": "Feature", "properties": { "内容": "デイサービスセンター二上あいの風【通所介護】富山県高岡市二上町1144-1ケアホーム二上あいの風", "url2": "https://www.kaigokensaku.mhlw.go.jp/16/index.php?action_kouhyou_detail_004_kani=true&JigyosyoCd=1670203130-00&ServiceCd=150&Type=search" }, "geometry": { "type": "Point", "coordinates": [ 137.0051959, 36.7759891 ] } },
{ "type": "Feature", "properties": { "内容": "デイサービスひだまり【通所介護】高岡市佐野1095番地2", "url2": "https://www.kaigokensaku.mhlw.go.jp/16/index.php?action_kouhyou_detail_004_kani=true&JigyosyoCd=1670201910-00&ServiceCd=150&Type=search" }, "geometry": { "type": "Point", "coordinates": [ 136.994444487469906, 36.728973988193985 ] } },
{ "type": "Feature", "properties": { "内容": "魚津市身体障害者デイサービスセンター【通所介護】富山県魚津市本町一丁目4番32号", "url2": "https://www.kaigokensaku.mhlw.go.jp/16/index.php?action_kouhyou_detail_004_kani=true&JigyosyoCd=1670400512-00&ServiceCd=150&Type=search" }, "geometry": { "type": "Point", "coordinates": [ 137.395669, 36.8135571 ] } },
{ "type": "Feature", "properties": { "内容": "深川病院デイサービスセンター【通所介護】富山県魚津市東尾崎３４８４番１", "url2": "https://www.kaigokensaku.mhlw.go.jp/16/index.php?action_kouhyou_detail_004_kani=true&JigyosyoCd=1670400314-00&ServiceCd=150&Type=search" }, "geometry": { "type": "Point", "coordinates": [ 137.4380817, 36.8421585 ] } },
{ "type": "Feature", "properties": { "内容": "あんどの里デイサービスセンター【通所介護】富山県魚津市仏田3468番地", "url2": "https://www.kaigokensaku.mhlw.go.jp/16/index.php?action_kouhyou_detail_004_kani=true&JigyosyoCd=1670400306-00&ServiceCd=150&Type=search" }, "geometry": { "type": "Point", "coordinates": [ 137.406394800000044, 36.8418411 ] } },
{ "type": "Feature", "properties": { "内容": "新川ヴィーラデイサービスセンター【通所介護】富山県魚津市大光寺450", "url2": "https://www.kaigokensaku.mhlw.go.jp/16/index.php?action_kouhyou_detail_004_kani=true&JigyosyoCd=1670400231-00&ServiceCd=150&Type=search" }, "geometry": { "type": "Point", "coordinates": [ 137.410218399999962, 36.8102051 ] } },
{ "type": "Feature", "properties": { "内容": "魚津市東部デイサービスセンター【通所介護】富山県魚津市吉島1095番地2", "url2": "https://www.kaigokensaku.mhlw.go.jp/16/index.php?action_kouhyou_detail_004_kani=true&JigyosyoCd=1670400157-00&ServiceCd=150&Type=search" }, "geometry": { "type": "Point", "coordinates": [ 137.416289, 36.8312812 ] } },
{ "type": "Feature", "properties": { "内容": "魚津市西部デイサービスセンター【通所介護】富山県魚津市大光寺467-1", "url2": "https://www.kaigokensaku.mhlw.go.jp/16/index.php?action_kouhyou_detail_004_kani=true&JigyosyoCd=1670400066-00&ServiceCd=150&Type=search" }, "geometry": { "type": "Point", "coordinates": [ 137.410443399999963, 36.810294 ] } },
{ "type": "Feature", "properties": { "内容": "大浦デイサービスセンター笑笑【通所介護】富山県氷見市大浦字細越１０－３", "url2": "https://www.kaigokensaku.mhlw.go.jp/16/index.php?action_kouhyou_detail_004_kani=true&JigyosyoCd=1670500576-00&ServiceCd=150&Type=search" }, "geometry": { "type": "Point", "coordinates": [ 136.983391992234829, 36.827332492934254 ] } },
{ "type": "Feature", "properties": { "内容": "みんなの家のどか【通所介護】富山県氷見市中村４８５番地１", "url2": "https://www.kaigokensaku.mhlw.go.jp/16/index.php?action_kouhyou_detail_004_kani=true&JigyosyoCd=1670500527-00&ServiceCd=150&Type=search" }, "geometry": { "type": "Point", "coordinates": [ 136.933787222090103, 36.866921084324098 ] } },
{ "type": "Feature", "properties": { "内容": "そよ風ホーム【通所介護】富山県氷見市窪2073", "url2": "https://www.kaigokensaku.mhlw.go.jp/16/index.php?action_kouhyou_detail_004_kani=true&JigyosyoCd=1670500493-00&ServiceCd=150&Type=search" }, "geometry": { "type": "Point", "coordinates": [ 137.001410299999947, 36.8394181 ] } },
{ "type": "Feature", "properties": { "内容": "鶴亀荘【通所介護】富山県氷見市柳田1355-2", "url2": "https://www.kaigokensaku.mhlw.go.jp/16/index.php?action_kouhyou_detail_004_kani=true&JigyosyoCd=1670500162-00&ServiceCd=150&Type=search" }, "geometry": { "type": "Point", "coordinates": [ 136.998616299999981, 36.8268337 ] } },
{ "type": "Feature", "properties": { "内容": "はまなす苑氷見デイサービスセンター【通所介護】富山県氷見市島尾791番地特別養護老人ホームはまなす苑氷見", "url2": "https://www.kaigokensaku.mhlw.go.jp/16/index.php?action_kouhyou_detail_004_kani=true&JigyosyoCd=1670500121-00&ServiceCd=150&Type=search" }, "geometry": { "type": "Point", "coordinates": [ 137.010634500000037, 36.8240264 ] } },
{ "type": "Feature", "properties": { "内容": "つまま園デイサービスセンター【通所介護】富山県氷見市阿尾410番地", "url2": "https://www.kaigokensaku.mhlw.go.jp/16/index.php?action_kouhyou_detail_004_kani=true&JigyosyoCd=1670500071-00&ServiceCd=150&Type=search" }, "geometry": { "type": "Point", "coordinates": [ 136.98098559999994, 36.887549 ] } },
{ "type": "Feature", "properties": { "内容": "陽和温泉デイサービスセンター福来喜【通所介護】富山県氷見市堀田4-1", "url2": "https://www.kaigokensaku.mhlw.go.jp/16/index.php?action_kouhyou_detail_004_kani=true&JigyosyoCd=1670500253-00&ServiceCd=150&Type=search" }, "geometry": { "type": "Point", "coordinates": [ 136.972652499999981, 36.8123404 ] } },
{ "type": "Feature", "properties": { "内容": "さっさきテルマエデイサービスセンター【通所介護】富山県氷見市指崎字上野1700番地", "url2": "https://www.kaigokensaku.mhlw.go.jp/16/index.php?action_kouhyou_detail_004_kani=true&JigyosyoCd=1670500667-00&ServiceCd=150&Type=search" }, "geometry": { "type": "Point", "coordinates": [ 136.974622299999965, 36.8892959 ] } },
{ "type": "Feature", "properties": { "内容": "なごみの郷【通所介護】富山県氷見市湖光271-2", "url2": "https://www.kaigokensaku.mhlw.go.jp/16/index.php?action_kouhyou_detail_004_kani=true&JigyosyoCd=1670500261-00&ServiceCd=150&Type=search" }, "geometry": { "type": "Point", "coordinates": [ 136.978437699999972, 36.8409724 ] } },
{ "type": "Feature", "properties": { "内容": "氷見苑デイサービスセンター【通所介護】富山県氷見市薮田2063番地", "url2": "https://www.kaigokensaku.mhlw.go.jp/16/index.php?action_kouhyou_detail_004_kani=true&JigyosyoCd=1670500436-00&ServiceCd=150&Type=search" }, "geometry": { "type": "Point", "coordinates": [ 136.997758699999963, 36.892973499999982 ] } },
{ "type": "Feature", "properties": { "内容": "デイサービスセンターほのぼの苑【通所介護】富山県氷見市加納４９５－１", "url2": "https://www.kaigokensaku.mhlw.go.jp/16/index.php?action_kouhyou_detail_004_kani=true&JigyosyoCd=1670500329-00&ServiceCd=150&Type=search" }, "geometry": { "type": "Point", "coordinates": [ 136.971682099999953, 36.8625246 ] } },
{ "type": "Feature", "properties": { "内容": "明善寺デイサービスあんのん【通所介護】富山県氷見市堀田1195－1番地", "url2": "https://www.kaigokensaku.mhlw.go.jp/16/index.php?action_kouhyou_detail_004_kani=true&JigyosyoCd=1670500634-00&ServiceCd=150&Type=search" }, "geometry": { "type": "Point", "coordinates": [ 136.977963276860038, 36.811798172329993 ] } },
{ "type": "Feature", "properties": { "内容": "花みち【通所介護】富山県氷見市加納115番1", "url2": "https://www.kaigokensaku.mhlw.go.jp/16/index.php?action_kouhyou_detail_004_kani=true&JigyosyoCd=1670500758-00&ServiceCd=150&Type=search" }, "geometry": { "type": "Point", "coordinates": [ 136.974920771658418, 36.871414686678186 ] } },
{ "type": "Feature", "properties": { "内容": "ＪＡ氷見市福祉センター結の里【通所介護】富山県氷見市窪１９０８番の１", "url2": "https://www.kaigokensaku.mhlw.go.jp/16/index.php?action_kouhyou_detail_004_kani=true&JigyosyoCd=1670500469-00&ServiceCd=150&Type=search" }, "geometry": { "type": "Point", "coordinates": [ 136.994366702516146, 36.837871853633665 ] } },
{ "type": "Feature", "properties": { "内容": "JA氷見市いこいの家【通所介護】富山県氷見市谷屋1633", "url2": "https://www.kaigokensaku.mhlw.go.jp/16/index.php?action_kouhyou_detail_004_kani=true&JigyosyoCd=1670500287-00&ServiceCd=150&Type=search" }, "geometry": { "type": "Point", "coordinates": [ 136.920356199999986, 36.8650679 ] } },
{ "type": "Feature", "properties": { "内容": "プラトーケアセンター氷見【通所介護】富山県氷見市大浦10番地3", "url2": "https://www.kaigokensaku.mhlw.go.jp/16/index.php?action_kouhyou_detail_004_kani=true&JigyosyoCd=1670500857-00&ServiceCd=150&Type=search" }, "geometry": { "type": "Point", "coordinates": [ 136.9834726, 36.8273123 ] } },
{ "type": "Feature", "properties": { "内容": "機能訓練特化型デイサービス　まほろば氷見【通所介護】富山県氷見市加納77-2", "url2": "https://www.kaigokensaku.mhlw.go.jp/16/index.php?action_kouhyou_detail_004_kani=true&JigyosyoCd=1670500832-00&ServiceCd=150&Type=search" }, "geometry": { "type": "Point", "coordinates": [ 136.9773784, 36.8719352 ] } },
{ "type": "Feature", "properties": { "内容": "フイットネスデイサービス　オレンジ・ＦＩＴ【通所介護】富山県氷見市北大町11番17号", "url2": "https://www.kaigokensaku.mhlw.go.jp/16/index.php?action_kouhyou_detail_004_kani=true&JigyosyoCd=1670500816-00&ServiceCd=150&Type=search" }, "geometry": { "type": "Point", "coordinates": [ 136.98445879999997, 36.863932 ] } },
{ "type": "Feature", "properties": { "内容": "リハ・ハウス来夢通所介護事業所【通所介護】富山県氷見市伊勢大町二丁目14番20号", "url2": "https://www.kaigokensaku.mhlw.go.jp/16/index.php?action_kouhyou_detail_004_kani=true&JigyosyoCd=1670500709-00&ServiceCd=150&Type=search" }, "geometry": { "type": "Point", "coordinates": [ 136.989698885319541, 36.84813359565608 ] } },
{ "type": "Feature", "properties": { "内容": "デイサービス　あったかホーム【通所介護】滑川市中川原134", "url2": "https://www.kaigokensaku.mhlw.go.jp/16/index.php?action_kouhyou_detail_004_kani=true&JigyosyoCd=1670600376-00&ServiceCd=150&Type=search" }, "geometry": { "type": "Point", "coordinates": [ 137.34873390000007, 36.7721994 ] } },
{ "type": "Feature", "properties": { "内容": "滑川市老人デイサービスセンター　カモメ荘【通所介護】富山県滑川市吉浦13番地", "url2": "https://www.kaigokensaku.mhlw.go.jp/16/index.php?action_kouhyou_detail_004_kani=true&JigyosyoCd=1670600129-00&ServiceCd=150&Type=search" }, "geometry": { "type": "Point", "coordinates": [ 137.37204220000001, 36.7925923 ] } },
{ "type": "Feature", "properties": { "内容": "滑川市老人デイサービスセンター【通所介護】富山県滑川市赤浜５７３番地の１", "url2": "https://www.kaigokensaku.mhlw.go.jp/16/index.php?action_kouhyou_detail_004_kani=true&JigyosyoCd=1670600038-00&ServiceCd=150&Type=search" }, "geometry": { "type": "Point", "coordinates": [ 137.3640236, 36.735293 ] } },
{ "type": "Feature", "properties": { "内容": "デイサービス滑川倶楽部【通所介護】富山県滑川市中野島2763番地", "url2": "https://www.kaigokensaku.mhlw.go.jp/16/index.php?action_kouhyou_detail_004_kani=true&JigyosyoCd=1670600434-00&ServiceCd=150&Type=search" }, "geometry": { "type": "Point", "coordinates": [ 137.361324700000068, 36.7709665 ] } },
{ "type": "Feature", "properties": { "内容": "社会福祉法人　福梅会　デイサービスほたるの里【通所介護】富山県滑川市下梅沢424番地", "url2": "https://www.kaigokensaku.mhlw.go.jp/16/index.php?action_kouhyou_detail_004_kani=true&JigyosyoCd=1670600160-00&ServiceCd=150&Type=search" }, "geometry": { "type": "Point", "coordinates": [ 137.334203399999979, 36.7468991 ] } },
{ "type": "Feature", "properties": { "内容": "デイサービスセンターシンシア【通所介護】富山県滑川市大崎野207", "url2": "https://www.kaigokensaku.mhlw.go.jp/16/index.php?action_kouhyou_detail_004_kani=true&JigyosyoCd=1670600244-00&ServiceCd=150&Type=search" }, "geometry": { "type": "Point", "coordinates": [ 137.398399354611257, 36.747877318287962 ] } },
{ "type": "Feature", "properties": { "内容": "高野接骨院デイサービスきらきら【通所介護】富山県滑川市魚躬202-1", "url2": "https://www.kaigokensaku.mhlw.go.jp/16/index.php?action_kouhyou_detail_004_kani=true&JigyosyoCd=1670600236-00&ServiceCd=150&Type=search" }, "geometry": { "type": "Point", "coordinates": [ 137.324294302862995, 36.756581721410477 ] } },
{ "type": "Feature", "properties": { "内容": "いきいき元気クラブ滑川【通所介護】富山県滑川市魚躬107", "url2": "https://www.kaigokensaku.mhlw.go.jp/16/index.php?action_kouhyou_detail_004_kani=true&JigyosyoCd=1670600541-00&ServiceCd=150&Type=search" }, "geometry": { "type": "Point", "coordinates": [ 137.323205486508186, 36.754197383151741 ] } },
{ "type": "Feature", "properties": { "内容": "デイサービスセンターJOYLIFEつながり【通所介護】富山県滑川市開535", "url2": "https://www.kaigokensaku.mhlw.go.jp/16/index.php?action_kouhyou_detail_004_kani=true&JigyosyoCd=1670600574-00&ServiceCd=150&Type=search" }, "geometry": { "type": "Point", "coordinates": [ 137.383755757672105, 36.739750884868563 ] } },
{ "type": "Feature", "properties": { "内容": "（健康増進プラザ）デイサービス　リハトレ中新【通所介護】中新31‐3", "url2": "https://www.kaigokensaku.mhlw.go.jp/16/index.php?action_kouhyou_detail_004_kani=true&JigyosyoCd=1670700440-00&ServiceCd=150&Type=search" }, "geometry": { "type": "Point", "coordinates": [ 137.428228799999943, 36.8871169 ] } },
{ "type": "Feature", "properties": { "内容": "やわらぎデイサービスセンター【通所介護】富山県黒部市牧野693番地", "url2": "https://www.kaigokensaku.mhlw.go.jp/16/index.php?action_kouhyou_detail_004_kani=true&JigyosyoCd=1670700077-00&ServiceCd=150&Type=search" }, "geometry": { "type": "Point", "coordinates": [ 137.442281687974514, 36.870676957456752 ] } },
{ "type": "Feature", "properties": { "内容": "老人デイサービスセンター　つばき苑【通所介護】富山県黒部市荒俣4378", "url2": "https://www.kaigokensaku.mhlw.go.jp/16/index.php?action_kouhyou_detail_004_kani=true&JigyosyoCd=1670700069-00&ServiceCd=150&Type=search" }, "geometry": { "type": "Point", "coordinates": [ 137.426947199999972, 36.9104162 ] } },
{ "type": "Feature", "properties": { "内容": "越野荘デイサービスセンター【通所介護】富山県黒部市若栗　2111", "url2": "https://www.kaigokensaku.mhlw.go.jp/16/index.php?action_kouhyou_detail_004_kani=true&JigyosyoCd=1670700093-00&ServiceCd=150&Type=search" }, "geometry": { "type": "Point", "coordinates": [ 137.488287, 36.8658266 ] } },
{ "type": "Feature", "properties": { "内容": "越之湖デイサ－ビスセンタ－【通所介護】富山県黒部市堀切1002", "url2": "https://www.kaigokensaku.mhlw.go.jp/16/index.php?action_kouhyou_detail_004_kani=true&JigyosyoCd=1670700119-00&ServiceCd=150&Type=search" }, "geometry": { "type": "Point", "coordinates": [ 137.424657199999956, 36.8806373 ] } },
{ "type": "Feature", "properties": { "内容": "通所介護事業所　さくら【通所介護】富山県黒部市荻生８２１番地", "url2": "https://www.kaigokensaku.mhlw.go.jp/16/index.php?action_kouhyou_detail_004_kani=true&JigyosyoCd=1670700283-00&ServiceCd=150&Type=search" }, "geometry": { "type": "Point", "coordinates": [ 137.469502, 36.8878395 ] } },
{ "type": "Feature", "properties": { "内容": "黒部温泉デイサービスセンター【通所介護】富山県黒部市窪野９２９番地", "url2": "https://www.kaigokensaku.mhlw.go.jp/16/index.php?action_kouhyou_detail_004_kani=true&JigyosyoCd=1670700325-00&ServiceCd=150&Type=search" }, "geometry": { "type": "Point", "coordinates": [ 137.444433531352274, 36.851292571495456 ] } },
{ "type": "Feature", "properties": { "内容": "ニチイケアセンター黒部【通所介護】富山県黒部市荻生2897-1", "url2": "https://www.kaigokensaku.mhlw.go.jp/16/index.php?action_kouhyou_detail_004_kani=true&JigyosyoCd=1670700481-00&ServiceCd=150&Type=search" }, "geometry": { "type": "Point", "coordinates": [ 137.458967900000061, 36.874144 ] } },
{ "type": "Feature", "properties": { "内容": "宇奈月デイサービスセンター【通所介護】富山県黒部市宇奈月町下立３７番地", "url2": "https://www.kaigokensaku.mhlw.go.jp/16/index.php?action_kouhyou_detail_004_kani=true&JigyosyoCd=1671700142-00&ServiceCd=150&Type=search" }, "geometry": { "type": "Point", "coordinates": [ 137.526713800000039, 36.8642892 ] } },
{ "type": "Feature", "properties": { "内容": "三日市デイサービス　まちなか【通所介護】黒部市三日市3872-1", "url2": "https://www.kaigokensaku.mhlw.go.jp/16/index.php?action_kouhyou_detail_004_kani=true&JigyosyoCd=1670700291-00&ServiceCd=150&Type=search" }, "geometry": { "type": "Point", "coordinates": [ 137.44622783173827, 36.87520030964491 ] } },
{ "type": "Feature", "properties": { "内容": "デイサービス隠居くらぶ【通所介護】富山県黒部市田家新765番地2", "url2": "https://www.kaigokensaku.mhlw.go.jp/16/index.php?action_kouhyou_detail_004_kani=true&JigyosyoCd=1670700267-00&ServiceCd=150&Type=search" }, "geometry": { "type": "Point", "coordinates": [ 137.4379371, 36.8517353 ] } },
{ "type": "Feature", "properties": { "内容": "プラトーケアセンター栄町【通所介護】富山県砺波市栄町224", "url2": "https://www.kaigokensaku.mhlw.go.jp/16/index.php?action_kouhyou_detail_004_kani=true&JigyosyoCd=1670800711-00&ServiceCd=150&Type=search" }, "geometry": { "type": "Point", "coordinates": [ 136.9588364, 36.6472308 ] } },
{ "type": "Feature", "properties": { "内容": "デイサービス　うみとそら【通所介護】富山県砺波市新富町2-10", "url2": "https://www.kaigokensaku.mhlw.go.jp/16/index.php?action_kouhyou_detail_004_kani=true&JigyosyoCd=1670800760-00&ServiceCd=150&Type=search" }, "geometry": { "type": "Point", "coordinates": [ 136.948726399999941, 36.6402847 ] } },
{ "type": "Feature", "properties": { "内容": "ニチイケアセンター砺波【通所介護】富山県砺波市太郎丸1-8-12", "url2": "https://www.kaigokensaku.mhlw.go.jp/16/index.php?action_kouhyou_detail_004_kani=true&JigyosyoCd=1670800224-00&ServiceCd=150&Type=search" }, "geometry": { "type": "Point", "coordinates": [ 136.959967300000017, 36.6320722 ] } },
{ "type": "Feature", "properties": { "内容": "ニチイケアセンター石丸【通所介護】砺波市石丸４０１番地", "url2": "https://www.kaigokensaku.mhlw.go.jp/16/index.php?action_kouhyou_detail_004_kani=true&JigyosyoCd=1670800604-00&ServiceCd=150&Type=search" }, "geometry": { "type": "Point", "coordinates": [ 136.979581899999971, 36.6646561 ] } },
{ "type": "Feature", "properties": { "内容": "砺波ふれあいの杜　デイサービスセンター【通所介護】富山県砺波市神島756-1", "url2": "https://www.kaigokensaku.mhlw.go.jp/16/index.php?action_kouhyou_detail_004_kani=true&JigyosyoCd=1670800315-00&ServiceCd=150&Type=search" }, "geometry": { "type": "Point", "coordinates": [ 136.939355400000068, 36.6358074 ] } },
{ "type": "Feature", "properties": { "内容": "砺波市庄東デイサービスセンター【通所介護】富山県砺波市安川２９７番地", "url2": "https://www.kaigokensaku.mhlw.go.jp/16/index.php?action_kouhyou_detail_004_kani=true&JigyosyoCd=1670800273-00&ServiceCd=150&Type=search" }, "geometry": { "type": "Point", "coordinates": [ 137.0115621, 36.6275714 ] } },
{ "type": "Feature", "properties": { "内容": "やなぜ苑デイサービスセンター【通所介護】富山県砺波市柳瀬３番地", "url2": "https://www.kaigokensaku.mhlw.go.jp/16/index.php?action_kouhyou_detail_004_kani=true&JigyosyoCd=1670800141-00&ServiceCd=150&Type=search" }, "geometry": { "type": "Point", "coordinates": [ 136.995847199999957, 36.6471732 ] } },
{ "type": "Feature", "properties": { "内容": "砺波市南部デイサービスセンター【通所介護】富山県砺波市苗加824番地の１", "url2": "https://www.kaigokensaku.mhlw.go.jp/16/index.php?action_kouhyou_detail_004_kani=true&JigyosyoCd=1670800265-00&ServiceCd=150&Type=search" }, "geometry": { "type": "Point", "coordinates": [ 136.944599899999957, 36.6175069 ] } },
{ "type": "Feature", "properties": { "内容": "砺波市北部デイサービスセンター【通所介護】富山県砺波市林１２０２番地", "url2": "https://www.kaigokensaku.mhlw.go.jp/16/index.php?action_kouhyou_detail_004_kani=true&JigyosyoCd=1670800471-00&ServiceCd=150&Type=search" }, "geometry": { "type": "Point", "coordinates": [ 136.9377442, 36.651863 ] } },
{ "type": "Feature", "properties": { "内容": "ケアポート庄川デイサービスセンター【通所介護】富山県砺波市庄川町金屋字岩黒３８－１", "url2": "https://www.kaigokensaku.mhlw.go.jp/16/index.php?action_kouhyou_detail_004_kani=true&JigyosyoCd=1672000229-00&ServiceCd=150&Type=search" }, "geometry": { "type": "Point", "coordinates": [ 136.987719100000049, 36.5733191 ] } },
{ "type": "Feature", "properties": { "内容": "特定非営利活動法人　デイサービス青空【通所介護】富山県砺波市矢木222番1特定非営利活動法人　デイサービス青空", "url2": "https://www.kaigokensaku.mhlw.go.jp/16/index.php?action_kouhyou_detail_004_kani=true&JigyosyoCd=1670800331-00&ServiceCd=150&Type=search" }, "geometry": { "type": "Point", "coordinates": [ 136.9737857, 36.6347413 ] } },
{ "type": "Feature", "properties": { "内容": "JAいなばディサービスセンターさんごの家【通所介護】富山県小矢部市水島680番地", "url2": "https://www.kaigokensaku.mhlw.go.jp/16/index.php?action_kouhyou_detail_004_kani=true&JigyosyoCd=1670900453-00&ServiceCd=150&Type=search" }, "geometry": { "type": "Point", "coordinates": [ 136.902598487541638, 36.638220232750136 ] } },
{ "type": "Feature", "properties": { "内容": "ほっとはうす千羽デイサービスセンター【通所介護】富山県小矢部市浅地１２１", "url2": "https://www.kaigokensaku.mhlw.go.jp/16/index.php?action_kouhyou_detail_004_kani=true&JigyosyoCd=1670900081-00&ServiceCd=150&Type=search" }, "geometry": { "type": "Point", "coordinates": [ 136.875473, 36.6233822 ] } },
{ "type": "Feature", "properties": { "内容": "清楽園デイサービスセンター【通所介護】富山県小矢部市八和町10番32号", "url2": "https://www.kaigokensaku.mhlw.go.jp/16/index.php?action_kouhyou_detail_004_kani=true&JigyosyoCd=1670900107-00&ServiceCd=150&Type=search" }, "geometry": { "type": "Point", "coordinates": [ 136.870019647190816, 36.680886332914035 ] } },
{ "type": "Feature", "properties": { "内容": "花かごデイサービス【通所介護】富山県小矢部市桜町1800番地", "url2": "https://www.kaigokensaku.mhlw.go.jp/16/index.php?action_kouhyou_detail_004_kani=true&JigyosyoCd=1670900560-00&ServiceCd=150&Type=search" }, "geometry": { "type": "Point", "coordinates": [ 136.87268819999997, 36.6854572 ] } },
{ "type": "Feature", "properties": { "内容": "サニーデイサービスセンター小矢部【通所介護】富山県小矢部市島440－2サニーデイサービスセンター小矢部", "url2": "https://www.kaigokensaku.mhlw.go.jp/16/index.php?action_kouhyou_detail_004_kani=true&JigyosyoCd=1670900578-00&ServiceCd=150&Type=search" }, "geometry": { "type": "Point", "coordinates": [ 136.8778383, 36.667115 ] } },
{ "type": "Feature", "properties": { "内容": "共生型ディサービス　ぴーすあけぼの【通所介護】富山県小矢部市綾子5596", "url2": "https://www.kaigokensaku.mhlw.go.jp/16/index.php?action_kouhyou_detail_004_kani=true&JigyosyoCd=1670900610-00&ServiceCd=150&Type=search" }, "geometry": { "type": "Point", "coordinates": [ 136.8621512, 36.6709558 ] } },
{ "type": "Feature", "properties": { "内容": "デイサービスセンターいなみ【通所介護】富山県南砺市井波1310番地1", "url2": "https://www.kaigokensaku.mhlw.go.jp/16/index.php?action_kouhyou_detail_004_kani=true&JigyosyoCd=1672000153-00&ServiceCd=150&Type=search" }, "geometry": { "type": "Point", "coordinates": [ 136.9760731, 36.5678305 ] } },
{ "type": "Feature", "properties": { "内容": "福野通所介護施設【通所介護】富山県南砺市松原500番地2", "url2": "https://www.kaigokensaku.mhlw.go.jp/16/index.php?action_kouhyou_detail_004_kani=true&JigyosyoCd=1672000112-00&ServiceCd=150&Type=search" }, "geometry": { "type": "Point", "coordinates": [ 136.927815600000031, 36.5958953 ] } },
{ "type": "Feature", "properties": { "内容": "旅川通所介護施設【通所介護】富山県南砺市院林92番地1", "url2": "https://www.kaigokensaku.mhlw.go.jp/16/index.php?action_kouhyou_detail_004_kani=true&JigyosyoCd=1672000120-00&ServiceCd=150&Type=search" }, "geometry": { "type": "Point", "coordinates": [ 136.908992500000068, 36.5909874 ] } },
{ "type": "Feature", "properties": { "内容": "井口デイサービスセンター【通所介護】富山県南砺市蛇喰1010井口デイサービスセンター", "url2": "https://www.kaigokensaku.mhlw.go.jp/16/index.php?action_kouhyou_detail_004_kani=true&JigyosyoCd=1671000428-00&ServiceCd=150&Type=search" }, "geometry": { "type": "Point", "coordinates": [ 136.930718, 36.5424498 ] } },
{ "type": "Feature", "properties": { "内容": "ニチイケアセンター南砺【通所介護】富山県南砺市八幡13-1", "url2": "https://www.kaigokensaku.mhlw.go.jp/16/index.php?action_kouhyou_detail_004_kani=true&JigyosyoCd=1671000402-00&ServiceCd=150&Type=search" }, "geometry": { "type": "Point", "coordinates": [ 136.872843500000045, 36.568345 ] } },
{ "type": "Feature", "properties": { "内容": "はぴねすデイサービス和みの里【通所介護】富山県南砺市二日町2077-1", "url2": "https://www.kaigokensaku.mhlw.go.jp/16/index.php?action_kouhyou_detail_004_kani=true&JigyosyoCd=1671000071-00&ServiceCd=150&Type=search" }, "geometry": { "type": "Point", "coordinates": [ 136.920399399999951, 36.6001973 ] } },
{ "type": "Feature", "properties": { "内容": "ふく満デイサービスセンター【通所介護】富山県南砺市福光1045番地", "url2": "https://www.kaigokensaku.mhlw.go.jp/16/index.php?action_kouhyou_detail_004_kani=true&JigyosyoCd=1672100193-00&ServiceCd=150&Type=search" }, "geometry": { "type": "Point", "coordinates": [ 136.867542, 36.5548104 ] } },
{ "type": "Feature", "properties": { "内容": "やすらぎ荘デイサービスセンター【通所介護】富山県南砺市天池１５７０番地", "url2": "https://www.kaigokensaku.mhlw.go.jp/16/index.php?action_kouhyou_detail_004_kani=true&JigyosyoCd=1672100060-00&ServiceCd=150&Type=search" }, "geometry": { "type": "Point", "coordinates": [ 136.886369, 36.5400488 ] } },
{ "type": "Feature", "properties": { "内容": "きららデイサービスセンター【通所介護】富山県南砺市理休247番地1", "url2": "https://www.kaigokensaku.mhlw.go.jp/16/index.php?action_kouhyou_detail_004_kani=true&JigyosyoCd=1671000253-00&ServiceCd=150&Type=search" }, "geometry": { "type": "Point", "coordinates": [ 136.910481399999981, 36.512061300000049 ] } },
{ "type": "Feature", "properties": { "内容": "ＪＡ福光デイサ－ビス日向ぼっこ【通所介護】富山県南砺市福光1192番地", "url2": "https://www.kaigokensaku.mhlw.go.jp/16/index.php?action_kouhyou_detail_004_kani=true&JigyosyoCd=1671000089-00&ServiceCd=150&Type=search" }, "geometry": { "type": "Point", "coordinates": [ 136.870400099999983, 36.5542855 ] } },
{ "type": "Feature", "properties": { "内容": "くなとデイサービスセンター【通所介護】射水市久々湊448番地", "url2": "https://www.kaigokensaku.mhlw.go.jp/16/index.php?action_kouhyou_detail_004_kani=true&JigyosyoCd=1671100178-00&ServiceCd=150&Type=search" }, "geometry": { "type": "Point", "coordinates": [ 137.094019399999979, 36.7589024 ] } },
{ "type": "Feature", "properties": { "内容": "ぶどうの木桜町ディサービス【通所介護】射水市桜町18-15", "url2": "https://www.kaigokensaku.mhlw.go.jp/16/index.php?action_kouhyou_detail_004_kani=true&JigyosyoCd=1671100301-00&ServiceCd=150&Type=search" }, "geometry": { "type": "Point", "coordinates": [ 137.0851338, 36.7758421 ] } },
{ "type": "Feature", "properties": { "内容": "デイサービスセンター　りらいあんす【通所介護】富山県射水市寺塚原１８８番地りらいあんす", "url2": "https://www.kaigokensaku.mhlw.go.jp/16/index.php?action_kouhyou_detail_004_kani=true&JigyosyoCd=1670300209-00&ServiceCd=150&Type=search" }, "geometry": { "type": "Point", "coordinates": [ 137.06239770000002, 36.7496416 ] } },
{ "type": "Feature", "properties": { "内容": "社会福祉法人喜寿会　七美ことぶき苑デイサービスセンター【通所介護】富山県射水市七美891番地", "url2": "https://www.kaigokensaku.mhlw.go.jp/16/index.php?action_kouhyou_detail_004_kani=true&JigyosyoCd=1670300084-00&ServiceCd=150&Type=search" }, "geometry": { "type": "Point", "coordinates": [ 137.142372799999947, 36.7522429 ] } },
{ "type": "Feature", "properties": { "内容": "射水万葉苑デイサービスセンター【通所介護】富山県射水市朴木２１１番地の１", "url2": "https://www.kaigokensaku.mhlw.go.jp/16/index.php?action_kouhyou_detail_004_kani=true&JigyosyoCd=1670300076-00&ServiceCd=150&Type=search" }, "geometry": { "type": "Point", "coordinates": [ 137.078659900000048, 36.759302 ] } },
{ "type": "Feature", "properties": { "内容": "ぶどうの木デイサービス【通所介護】富山県射水市桜町19-3", "url2": "https://www.kaigokensaku.mhlw.go.jp/16/index.php?action_kouhyou_detail_004_kani=true&JigyosyoCd=1670300308-00&ServiceCd=150&Type=search" }, "geometry": { "type": "Point", "coordinates": [ 137.085461500000065, 36.7765893 ] } },
{ "type": "Feature", "properties": { "内容": "こぶし園デイサービスセンター【通所介護】富山県射水市中村２０番地", "url2": "https://www.kaigokensaku.mhlw.go.jp/16/index.php?action_kouhyou_detail_004_kani=true&JigyosyoCd=1671900080-00&ServiceCd=150&Type=search" }, "geometry": { "type": "Point", "coordinates": [ 137.056160200000022, 36.7229811 ] } },
{ "type": "Feature", "properties": { "内容": "すずらんデイサービスセンター【通所介護】富山県射水市大島北野３３番地", "url2": "https://www.kaigokensaku.mhlw.go.jp/16/index.php?action_kouhyou_detail_004_kani=true&JigyosyoCd=1671900247-00&ServiceCd=150&Type=search" }, "geometry": { "type": "Point", "coordinates": [ 137.052923700000065, 36.7445059 ] } },
{ "type": "Feature", "properties": { "内容": "大江苑デイサービスセンター【通所介護】富山県射水市大江３３３番地の１", "url2": "https://www.kaigokensaku.mhlw.go.jp/16/index.php?action_kouhyou_detail_004_kani=true&JigyosyoCd=1671900122-00&ServiceCd=150&Type=search" }, "geometry": { "type": "Point", "coordinates": [ 137.1151734, 36.7283541 ] } },
{ "type": "Feature", "properties": { "内容": "デイサービス癒さぁ【通所介護】射水市本町１丁目１３番１号", "url2": "https://www.kaigokensaku.mhlw.go.jp/16/index.php?action_kouhyou_detail_004_kani=true&JigyosyoCd=1671100210-00&ServiceCd=150&Type=search" }, "geometry": { "type": "Point", "coordinates": [ 137.07433160000005, 36.7831467 ] } },
{ "type": "Feature", "properties": { "内容": "リハビリ特化型ﾃﾞｲｻｰﾋﾞｽｾﾝﾀｰ　りらいあんす【通所介護】富山県射水市寺塚原188", "url2": "https://www.kaigokensaku.mhlw.go.jp/16/index.php?action_kouhyou_detail_004_kani=true&JigyosyoCd=1671100863-00&ServiceCd=150&Type=search" }, "geometry": { "type": "Point", "coordinates": [ 137.062393899999989, 36.7496535 ] } },
{ "type": "Feature", "properties": { "内容": "ニチイケアセンターいみず【通所介護】富山県射水市二口３１５９番の2", "url2": "https://www.kaigokensaku.mhlw.go.jp/16/index.php?action_kouhyou_detail_004_kani=true&JigyosyoCd=1671100285-00&ServiceCd=150&Type=search" }, "geometry": { "type": "Point", "coordinates": [ 137.053057599999988, 36.7283831 ] } },
{ "type": "Feature", "properties": { "内容": "片口デイサービスわが家【通所介護】富山県射水市片口８２８番地", "url2": "https://www.kaigokensaku.mhlw.go.jp/16/index.php?action_kouhyou_detail_004_kani=true&JigyosyoCd=1671100277-00&ServiceCd=150&Type=search" }, "geometry": { "type": "Point", "coordinates": [ 137.119821278836696, 36.75996788161747 ] } },
{ "type": "Feature", "properties": { "内容": "Re-have【通所介護】富山県射水市太閤山7-108", "url2": "https://www.kaigokensaku.mhlw.go.jp/16/index.php?action_kouhyou_detail_004_kani=true&JigyosyoCd=1671100848-00&ServiceCd=150&Type=search" }, "geometry": { "type": "Point", "coordinates": [ 137.089290205487799, 36.708451894048174 ] } },
{ "type": "Feature", "properties": { "内容": "海王デイサービス【通所介護】富山県射水市海王町25番地", "url2": "https://www.kaigokensaku.mhlw.go.jp/16/index.php?action_kouhyou_detail_004_kani=true&JigyosyoCd=1671100814-00&ServiceCd=150&Type=search" }, "geometry": { "type": "Point", "coordinates": [ 137.107070599999986, 36.7774225 ] } },
{ "type": "Feature", "properties": { "内容": "太閤の杜デイサービスセンター【通所介護】富山県射水市中太閤山18丁目1番地の2", "url2": "https://www.kaigokensaku.mhlw.go.jp/16/index.php?action_kouhyou_detail_004_kani=true&JigyosyoCd=1671100160-00&ServiceCd=150&Type=search" }, "geometry": { "type": "Point", "coordinates": [ 137.089466099999981, 36.6996346 ] } },
{ "type": "Feature", "properties": { "内容": "エスポワールこすぎデイサービスセンター【通所介護】富山県射水市池多８２２番地", "url2": "https://www.kaigokensaku.mhlw.go.jp/16/index.php?action_kouhyou_detail_004_kani=true&JigyosyoCd=1671900106-00&ServiceCd=150&Type=search" }, "geometry": { "type": "Point", "coordinates": [ 137.109724799999981, 36.6847427 ] } },
{ "type": "Feature", "properties": { "内容": "デイサービス愛のて【通所介護】かもめ台97", "url2": "https://www.kaigokensaku.mhlw.go.jp/16/index.php?action_kouhyou_detail_004_kani=true&JigyosyoCd=1671100657-00&ServiceCd=150&Type=search" }, "geometry": { "type": "Point", "coordinates": [ 137.175302399999964, 36.7576823 ] } },
{ "type": "Feature", "properties": { "内容": "（しゃかいふくしほうじんしんみなとふくしかいでいさーびすなごみのさと）【通所介護】富山県射水市久々湊448", "url2": "https://www.kaigokensaku.mhlw.go.jp/16/index.php?action_kouhyou_detail_004_kani=true&JigyosyoCd=1671100947-00&ServiceCd=150&Type=search" }, "geometry": { "type": "Point", "coordinates": [ 137.0939608, 36.758931 ] } },
{ "type": "Feature", "properties": { "内容": "福祉プラザ七美通所介護【通所介護】富山県射水市七美879－1", "url2": "https://www.kaigokensaku.mhlw.go.jp/16/index.php?action_kouhyou_detail_004_kani=true&JigyosyoCd=1671100251-00&ServiceCd=150&Type=search" }, "geometry": { "type": "Point", "coordinates": [ 137.1407428, 36.7521046 ] } },
{ "type": "Feature", "properties": { "内容": "ふなはし荘デイサービスセンター【通所介護】富山県中新川郡舟橋村舟橋６０番地１", "url2": "https://www.kaigokensaku.mhlw.go.jp/16/index.php?action_kouhyou_detail_004_kani=true&JigyosyoCd=1671600987-00&ServiceCd=150&Type=search" }, "geometry": { "type": "Point", "coordinates": [ 137.3102336, 36.7086311 ] } },
{ "type": "Feature", "properties": { "内容": "ニチイケアセンター上市【通所介護】富山県中新川郡上市町神田20-5", "url2": "https://www.kaigokensaku.mhlw.go.jp/16/index.php?action_kouhyou_detail_004_kani=true&JigyosyoCd=1671600177-00&ServiceCd=150&Type=search" }, "geometry": { "type": "Point", "coordinates": [ 137.340799, 36.6984134 ] } },
{ "type": "Feature", "properties": { "内容": "ひなたぼっこ上市デイサービスセンター【通所介護】富山県中新川郡上市町稗田33-1ひなたぼっこ上市", "url2": "https://www.kaigokensaku.mhlw.go.jp/16/index.php?action_kouhyou_detail_004_kani=true&JigyosyoCd=1671600391-00&ServiceCd=150&Type=search" }, "geometry": { "type": "Point", "coordinates": [ 137.360191799999939, 36.695192 ] } },
{ "type": "Feature", "properties": { "内容": "デイサービス　スマイル・ハート【通所介護】富山県中新川郡上市町森尻375", "url2": "https://www.kaigokensaku.mhlw.go.jp/16/index.php?action_kouhyou_detail_004_kani=true&JigyosyoCd=1671600730-00&ServiceCd=150&Type=search" }, "geometry": { "type": "Point", "coordinates": [ 137.3586024, 36.7177172 ] } },
{ "type": "Feature", "properties": { "内容": "福祉コミュニティあいの風デイサービスひまわり【通所介護】富山県中新川郡上市町中小泉68番地4", "url2": "https://www.kaigokensaku.mhlw.go.jp/16/index.php?action_kouhyou_detail_004_kani=true&JigyosyoCd=1671601019-00&ServiceCd=150&Type=search" }, "geometry": { "type": "Point", "coordinates": [ 137.347892471163959, 36.708466207637798 ] } },
{ "type": "Feature", "properties": { "内容": "デイサービスやまやまハウス【通所介護】富山県中新川郡上市町稗田13-16", "url2": "https://www.kaigokensaku.mhlw.go.jp/16/index.php?action_kouhyou_detail_004_kani=true&JigyosyoCd=1671600409-00&ServiceCd=150&Type=search" }, "geometry": { "type": "Point", "coordinates": [ 137.352872899999966, 36.6975693 ] } },
{ "type": "Feature", "properties": { "内容": "常楽園デイサービスセンター【通所介護】富山県中新川郡上市町舘２０９番", "url2": "https://www.kaigokensaku.mhlw.go.jp/16/index.php?action_kouhyou_detail_004_kani=true&JigyosyoCd=1671600185-00&ServiceCd=150&Type=search" }, "geometry": { "type": "Point", "coordinates": [ 137.363147700000013, 36.6728135 ] } },
{ "type": "Feature", "properties": { "内容": "株式会社アピアウエルネス　フィットリハたてやま【通所介護】富山県中新川郡立山町前沢1880", "url2": "https://www.kaigokensaku.mhlw.go.jp/16/index.php?action_kouhyou_detail_004_kani=true&JigyosyoCd=1671600763-00&ServiceCd=150&Type=search" }, "geometry": { "type": "Point", "coordinates": [ 137.305197600000042, 36.6644219 ] } },
{ "type": "Feature", "properties": { "内容": "虹の丘たてやま【通所介護】中新川郡立山町米沢44-14", "url2": "https://www.kaigokensaku.mhlw.go.jp/16/index.php?action_kouhyou_detail_004_kani=true&JigyosyoCd=1671600326-00&ServiceCd=150&Type=search" }, "geometry": { "type": "Point", "coordinates": [ 137.327426100000025, 36.6649945 ] } },
{ "type": "Feature", "properties": { "内容": "医療法人財団　恵仁会　藤木病院　デイサービスセンター　スマイルレーベル【通所介護】富山県中新川郡立山町大石原２２５", "url2": "https://www.kaigokensaku.mhlw.go.jp/16/index.php?action_kouhyou_detail_004_kani=true&JigyosyoCd=1671600961-00&ServiceCd=150&Type=search" }, "geometry": { "type": "Point", "coordinates": [ 137.2979688, 36.6652434 ] } },
{ "type": "Feature", "properties": { "内容": "吉峰温泉デイサービスセンター【通所介護】富山県中新川郡立山町下田字川除山割27-2", "url2": "https://www.kaigokensaku.mhlw.go.jp/16/index.php?action_kouhyou_detail_004_kani=true&JigyosyoCd=1671600342-00&ServiceCd=150&Type=search" }, "geometry": { "type": "Point", "coordinates": [ 137.3234493, 36.6138214 ] } },
{ "type": "Feature", "properties": { "内容": "デイサービス宮路やまの湯【通所介護】宮路34-1", "url2": "https://www.kaigokensaku.mhlw.go.jp/16/index.php?action_kouhyou_detail_004_kani=true&JigyosyoCd=1671600748-00&ServiceCd=150&Type=search" }, "geometry": { "type": "Point", "coordinates": [ 137.323874096464607, 36.605243691512186 ] } },
{ "type": "Feature", "properties": { "内容": "デイサービスまんてん米沢【通所介護】富山県中新川郡立山町米沢21", "url2": "https://www.kaigokensaku.mhlw.go.jp/16/index.php?action_kouhyou_detail_004_kani=true&JigyosyoCd=1671600672-00&ServiceCd=150&Type=search" }, "geometry": { "type": "Point", "coordinates": [ 137.317288666665689, 36.671377350597282 ] } },
{ "type": "Feature", "properties": { "内容": "立山町デイサービスセンター竜ヶ浜荘【通所介護】富山県中新川郡立山町末上野267番地7", "url2": "https://www.kaigokensaku.mhlw.go.jp/16/index.php?action_kouhyou_detail_004_kani=true&JigyosyoCd=1671600052-00&ServiceCd=150&Type=search" }, "geometry": { "type": "Point", "coordinates": [ 137.335231099999959, 36.6506294 ] } },
{ "type": "Feature", "properties": { "内容": "赤いふうせん　メルヘン【通所介護】富山県中新川郡立山町前沢２５３０番地４５", "url2": "https://www.kaigokensaku.mhlw.go.jp/16/index.php?action_kouhyou_detail_004_kani=true&JigyosyoCd=1671600680-00&ServiceCd=150&Type=search" }, "geometry": { "type": "Point", "coordinates": [ 137.314724500000011, 36.6619585 ] } },
{ "type": "Feature", "properties": { "内容": "赤いふうせん富山型デイサービス【通所介護】富山県中新川郡立山町前沢新町１６３番地", "url2": "https://www.kaigokensaku.mhlw.go.jp/16/index.php?action_kouhyou_detail_004_kani=true&JigyosyoCd=1671600482-00&ServiceCd=150&Type=search" }, "geometry": { "type": "Point", "coordinates": [ 137.310102599999937, 36.670102 ] } },
{ "type": "Feature", "properties": { "内容": "リハビリ＆フィットネス　寿リハ立山【通所介護】富山県中新川郡立山町前沢1880", "url2": "https://www.kaigokensaku.mhlw.go.jp/16/index.php?action_kouhyou_detail_004_kani=true&JigyosyoCd=1671601050-00&ServiceCd=150&Type=search" }, "geometry": { "type": "Point", "coordinates": [ 137.3052298, 36.6644383 ] } },
{ "type": "Feature", "properties": { "内容": "デイサービスセンター　おあしす新川【通所介護】富山県下新川郡入善町上野２８０３", "url2": "https://www.kaigokensaku.mhlw.go.jp/16/index.php?action_kouhyou_detail_004_kani=true&JigyosyoCd=1671700175-00&ServiceCd=150&Type=search" }, "geometry": { "type": "Point", "coordinates": [ 137.5023589, 36.9246901 ] } },
{ "type": "Feature", "properties": { "内容": "舟見寿楽苑デイサービスセンター【通所介護】富山県下新川郡入善町舟見１６６４番地", "url2": "https://www.kaigokensaku.mhlw.go.jp/16/index.php?action_kouhyou_detail_004_kani=true&JigyosyoCd=1671700050-00&ServiceCd=150&Type=search" }, "geometry": { "type": "Point", "coordinates": [ 137.5595303, 36.8779188 ] } },
{ "type": "Feature", "properties": { "内容": "デイサービスにゅうぜんの里【通所介護】富山県下新川郡入善町入膳343番地にゅうぜんの里", "url2": "https://www.kaigokensaku.mhlw.go.jp/16/index.php?action_kouhyou_detail_004_kani=true&JigyosyoCd=1671700639-00&ServiceCd=150&Type=search" }, "geometry": { "type": "Point", "coordinates": [ 137.508043199999946, 36.9237637 ] } },
{ "type": "Feature", "properties": { "内容": "デイサービスセンター　お達者くらぶ小摺戸【通所介護】富山県下新川郡入善町一宿260番地", "url2": "https://www.kaigokensaku.mhlw.go.jp/16/index.php?action_kouhyou_detail_004_kani=true&JigyosyoCd=1671700373-00&ServiceCd=150&Type=search" }, "geometry": { "type": "Point", "coordinates": [ 137.509251011917058, 36.898299201956455 ] } },
{ "type": "Feature", "properties": { "内容": "朝日町デイサービスセンター【通所介護】富山県下新川郡朝日町泊５５５", "url2": "https://www.kaigokensaku.mhlw.go.jp/16/index.php?action_kouhyou_detail_004_kani=true&JigyosyoCd=1671700100-00&ServiceCd=150&Type=search" }, "geometry": { "type": "Point", "coordinates": [ 137.5631932, 36.9620405 ] } }
]
}
