{
"type": "FeatureCollection",
"name": "geo_16_介護老人保健施設",
"crs": { "type": "name", "properties": { "name": "urn:ogc:def:crs:OGC:1.3:CRS84" } },
"features": [
{ "type": "Feature", "properties": { "内容": "介護老人保健施設富山リハビリテーションホーム【介護老人保健施設】富山県富山市丸の内三丁目３番２２号", "url": "https://www.kaigokensaku.mhlw.go.jp/16/index.php?action_kouhyou_detail_004_kani=true&JigyosyoCd=1650180027-00&ServiceCd=520&Type=search", "url2": "http://www.keiseikai-toyama.jp" }, "geometry": { "type": "Point", "coordinates": [ 137.2091471, 36.6912107 ] } },
{ "type": "Feature", "properties": { "内容": "大沢野老人保健施設　かがやき【介護老人保健施設】富山県富山市春日３６２－１", "url": "https://www.kaigokensaku.mhlw.go.jp/16/index.php?action_kouhyou_detail_004_kani=true&JigyosyoCd=1651580001-00&ServiceCd=520&Type=search", "url2": "http://toyama-souseikai.or.jp/kagayaki/" }, "geometry": { "type": "Point", "coordinates": [ 137.204757100000052, 36.5629262 ] } },
{ "type": "Feature", "properties": { "内容": "介護老人保健施設みどり苑【介護老人保健施設】富山県富山市秋ヶ島146番1", "url": "https://www.kaigokensaku.mhlw.go.jp/16/index.php?action_kouhyou_detail_004_kani=true&JigyosyoCd=1650180126-00&ServiceCd=520&Type=search", "url2": "http://www.sainouhp.or.jp/~midori/" }, "geometry": { "type": "Point", "coordinates": [ 137.193147400000043, 36.6446498 ] } },
{ "type": "Feature", "properties": { "内容": "老人保健施設シルバーケア栗山【介護老人保健施設】富山市栗山字沢下割900", "url": "https://www.kaigokensaku.mhlw.go.jp/16/index.php?action_kouhyou_detail_004_kani=true&JigyosyoCd=1650180076-00&ServiceCd=520&Type=search", "url2": "http://izumikai.mutsumi-gr.jp/" }, "geometry": { "type": "Point", "coordinates": [ 137.2077716, 36.6211195 ] } },
{ "type": "Feature", "properties": { "内容": "介護老人保健施設　アメニティ月岡【介護老人保健施設】富山市月岡町2丁目189番地", "url": "https://www.kaigokensaku.mhlw.go.jp/16/index.php?action_kouhyou_detail_004_kani=true&JigyosyoCd=1650180100-00&ServiceCd=520&Type=search", "url2": "tsukioka.mutsumi-gr.jp" }, "geometry": { "type": "Point", "coordinates": [ 137.264052600000014, 36.6244531 ] } },
{ "type": "Feature", "properties": { "内容": "介護老人保健施設　みわ苑【介護老人保健施設】富山県富山市小中290-1", "url": "https://www.kaigokensaku.mhlw.go.jp/16/index.php?action_kouhyou_detail_004_kani=true&JigyosyoCd=1650180035-00&ServiceCd=520&Type=search", "url2": "http://www.sanikai.or.jp/" }, "geometry": { "type": "Point", "coordinates": [ 137.21276510000007, 36.6394232 ] } },
{ "type": "Feature", "properties": { "内容": "介護老人保健施設　シルバーケア今泉【介護老人保健施設】富山市今泉２１８番地", "url": "https://www.kaigokensaku.mhlw.go.jp/16/index.php?action_kouhyou_detail_004_kani=true&JigyosyoCd=1650180019-00&ServiceCd=520&Type=search", "url2": "http://www.jonankai.or.jp/scim/" }, "geometry": { "type": "Point", "coordinates": [ 137.212167300000033, 36.6691613 ] } },
{ "type": "Feature", "properties": { "内容": "老人保健施設　チューリップ苑【介護老人保健施設】富山県富山市長江五丁目４番３３号", "url": "https://www.kaigokensaku.mhlw.go.jp/16/index.php?action_kouhyou_detail_004_kani=true&JigyosyoCd=1650180068-00&ServiceCd=520&Type=search", "url2": "http://www.tulipen.jp/" }, "geometry": { "type": "Point", "coordinates": [ 137.245321085705541, 36.687635555203777 ] } },
{ "type": "Feature", "properties": { "内容": "富山老人保健施設【介護老人保健施設】富山県富山市上千俵町９８－１番地", "url": "https://www.kaigokensaku.mhlw.go.jp/16/index.php?action_kouhyou_detail_004_kani=true&JigyosyoCd=1650180001-00&ServiceCd=520&Type=search", "url2": "tomirou@water.ocn..ne.jp" }, "geometry": { "type": "Point", "coordinates": [ 137.244307, 36.6269555 ] } },
{ "type": "Feature", "properties": { "内容": "介護老人保健施設仁泉メディケア【介護老人保健施設】富山市手屋2丁目135-1", "url": "https://www.kaigokensaku.mhlw.go.jp/16/index.php?action_kouhyou_detail_004_kani=true&JigyosyoCd=1650180159-00&ServiceCd=520&Type=search", "url2": "http://seikeikaitoyama.com/guide.html" }, "geometry": { "type": "Point", "coordinates": [ 137.269549200000029, 36.7211364 ] } },
{ "type": "Feature", "properties": { "内容": "老人保健施設　白雲荘【介護老人保健施設】富山市流杉123番地", "url": "https://www.kaigokensaku.mhlw.go.jp/16/index.php?action_kouhyou_detail_004_kani=true&JigyosyoCd=1650180043-00&ServiceCd=520&Type=search", "url2": "https://rouken-hakuunsou.jp/" }, "geometry": { "type": "Point", "coordinates": [ 137.275503299999968, 36.6589716 ] } },
{ "type": "Feature", "properties": { "内容": "八尾老人保健施設　風の庭【介護老人保健施設】富山市八尾町福島7丁目42番地", "url": "https://www.kaigokensaku.mhlw.go.jp/16/index.php?action_kouhyou_detail_004_kani=true&JigyosyoCd=1651880005-00&ServiceCd=520&Type=search", "url2": "http://www.yatsuo.or.jp" }, "geometry": { "type": "Point", "coordinates": [ 137.1377397, 36.5963545 ] } },
{ "type": "Feature", "properties": { "内容": "介護老人保健施設シルバーケア羽根苑【介護老人保健施設】富山県富山市婦中町羽根1092番2", "url": "https://www.kaigokensaku.mhlw.go.jp/16/index.php?action_kouhyou_detail_004_kani=true&JigyosyoCd=1651880138-00&ServiceCd=520&Type=search", "url2": "http://toyamajonankai.mutsumi-gr.jp/sc-haneen/" }, "geometry": { "type": "Point", "coordinates": [ 137.14031535211484, 36.659631161768381 ] } },
{ "type": "Feature", "properties": { "内容": "介護老人保健施設ささづ苑かがやき【介護老人保健施設】富山県富山市春日362-1", "url": "https://www.kaigokensaku.mhlw.go.jp/16/index.php?action_kouhyou_detail_004_kani=true&JigyosyoCd=1650180183-00&ServiceCd=520&Type=search", "url2": "https://oisawano.com" }, "geometry": { "type": "Point", "coordinates": [ 137.2047048, 36.5629019 ] } },
{ "type": "Feature", "properties": { "内容": "介護老人保健施設　西町セントラル・ヴィレー【介護老人保健施設】富山市古鍛冶町5番13号", "url": "https://www.kaigokensaku.mhlw.go.jp/16/index.php?action_kouhyou_detail_004_kani=true&JigyosyoCd=1650180092-00&ServiceCd=520&Type=search", "url2": "https://centralvire.jp" }, "geometry": { "type": "Point", "coordinates": [ 137.217410100000052, 36.6870588 ] } },
{ "type": "Feature", "properties": { "内容": "介護老人保健施設レインボー【介護老人保健施設】富山市水橋新堀1", "url": "https://www.kaigokensaku.mhlw.go.jp/16/index.php?action_kouhyou_detail_004_kani=true&JigyosyoCd=1650180084-00&ServiceCd=520&Type=search", "url2": "http://www.nijinokai.net/" }, "geometry": { "type": "Point", "coordinates": [ 137.303562899999946, 36.7162657 ] } },
{ "type": "Feature", "properties": { "内容": "介護老人保健施設シルバーケア城南【介護老人保健施設】富山県富山市太郎丸西町一丁目6番6", "url": "https://www.kaigokensaku.mhlw.go.jp/16/index.php?action_kouhyou_detail_004_kani=true&JigyosyoCd=1650180118-00&ServiceCd=520&Type=search", "url2": "https://jonankai.or.jp/scjn/" }, "geometry": { "type": "Point", "coordinates": [ 137.209456100000011, 36.677335 ] } },
{ "type": "Feature", "properties": { "内容": "介護老人保健施設　豊佳苑【介護老人保健施設】富山市婦中町萩島６６５－１", "url": "https://www.kaigokensaku.mhlw.go.jp/16/index.php?action_kouhyou_detail_004_kani=true&JigyosyoCd=1651880013-00&ServiceCd=520&Type=search", "url2": "https://www.houka-en.jp" }, "geometry": { "type": "Point", "coordinates": [ 137.174571799999967, 36.6335922 ] } },
{ "type": "Feature", "properties": { "内容": "高岡老人保健施設　長寿苑【介護老人保健施設】富山県高岡市京田７２", "url": "https://www.kaigokensaku.mhlw.go.jp/16/index.php?action_kouhyou_detail_004_kani=true&JigyosyoCd=1650280009-00&ServiceCd=520&Type=search", "url2": "http://kuwayamakai.jp" }, "geometry": { "type": "Point", "coordinates": [ 137.016588800000022, 36.7320767 ] } },
{ "type": "Feature", "properties": { "内容": "介護老人保健施設やすらぎ【介護老人保健施設】富山県高岡市美幸町1丁目1番53号", "url": "https://www.kaigokensaku.mhlw.go.jp/16/index.php?action_kouhyou_detail_004_kani=true&JigyosyoCd=1650280025-00&ServiceCd=520&Type=search", "url2": "http://seirinkai.jp/yasuragi/index.html" }, "geometry": { "type": "Point", "coordinates": [ 136.998072500000035, 36.7558292 ] } },
{ "type": "Feature", "properties": { "内容": "老人保健施設さくら苑【介護老人保健施設】高岡市福岡町大野145", "url": "https://www.kaigokensaku.mhlw.go.jp/16/index.php?action_kouhyou_detail_004_kani=true&JigyosyoCd=1652180009-00&ServiceCd=520&Type=search", "url2": "http://sunvery-group.com/wp/" }, "geometry": { "type": "Point", "coordinates": [ 136.935855800000013, 36.7196319 ] } },
{ "type": "Feature", "properties": { "内容": "老人保健施設しきのケアセンター【介護老人保健施設】富山県高岡市鷲北新480", "url": "https://www.kaigokensaku.mhlw.go.jp/16/index.php?action_kouhyou_detail_004_kani=true&JigyosyoCd=1650280041-00&ServiceCd=520&Type=search", "url2": "https://sunvery-group.com/?page_id=40" }, "geometry": { "type": "Point", "coordinates": [ 137.037265700000034, 36.766606 ] } },
{ "type": "Feature", "properties": { "内容": "介護老人保健施設きぼう【介護老人保健施設】富山県高岡市和田1055", "url": "https://www.kaigokensaku.mhlw.go.jp/16/index.php?action_kouhyou_detail_004_kani=true&JigyosyoCd=1650280058-00&ServiceCd=520&Type=search", "url2": "http://www.kibou-takaoka.com/" }, "geometry": { "type": "Point", "coordinates": [ 136.983398, 36.7350586 ] } },
{ "type": "Feature", "properties": { "内容": "アルカディア雨晴【介護老人保健施設】高岡市太田桜谷23-1", "url": "https://www.kaigokensaku.mhlw.go.jp/16/index.php?action_kouhyou_detail_004_kani=true&JigyosyoCd=1650280033-00&ServiceCd=520&Type=search", "url2": "http://www.meijukai.com" }, "geometry": { "type": "Point", "coordinates": [ 137.033546651697861, 36.814874817026627 ] } },
{ "type": "Feature", "properties": { "内容": "介護老人保健施設おおぞら【介護老人保健施設】富山県高岡市京田490番地", "url": "https://www.kaigokensaku.mhlw.go.jp/16/index.php?action_kouhyou_detail_004_kani=true&JigyosyoCd=1650280017-00&ServiceCd=520&Type=search", "url2": "http://www.shirankai.net/" }, "geometry": { "type": "Point", "coordinates": [ 137.016894968647762, 36.728433679444173 ] } },
{ "type": "Feature", "properties": { "内容": "介護療養型老人保健施設ちょうろく【介護老人保健施設】富山県魚津市魚津市石垣389番地", "url": "https://www.kaigokensaku.mhlw.go.jp/16/index.php?action_kouhyou_detail_004_kani=true&JigyosyoCd=1650480047-00&ServiceCd=520&Type=search", "url2": "http://www.hospy.jp" }, "geometry": { "type": "Point", "coordinates": [ 137.405937, 36.826301 ] } },
{ "type": "Feature", "properties": { "内容": "老人保健施設ちょうろく【介護老人保健施設】富山県魚津市石垣389番地", "url": "https://www.kaigokensaku.mhlw.go.jp/16/index.php?action_kouhyou_detail_004_kani=true&JigyosyoCd=1650480021-00&ServiceCd=520&Type=search", "url2": "http://www.hospy.jp" }, "geometry": { "type": "Point", "coordinates": [ 137.4426906, 36.8050837 ] } },
{ "type": "Feature", "properties": { "内容": "魚津老人保健施設【介護老人保健施設】富山県魚津市友道789番地", "url": "https://www.kaigokensaku.mhlw.go.jp/16/index.php?action_kouhyou_detail_004_kani=true&JigyosyoCd=1650480005-00&ServiceCd=520&Type=search", "url2": "http://www.uozubyouin.jp/" }, "geometry": { "type": "Point", "coordinates": [ 137.411204199999929, 36.8145575 ] } },
{ "type": "Feature", "properties": { "内容": "新川老人保健施設【介護老人保健施設】富山県魚津市住吉236", "url": "https://www.kaigokensaku.mhlw.go.jp/16/index.php?action_kouhyou_detail_004_kani=true&JigyosyoCd=1650480062-00&ServiceCd=520&Type=search", "url2": "www.fukujukai.com" }, "geometry": { "type": "Point", "coordinates": [ 137.399328, 36.800241899999989 ] } },
{ "type": "Feature", "properties": { "内容": "老人保健施設エルダーヴィラ氷見【介護老人保健施設】富山県氷見市余川南山50番地", "url": "https://www.kaigokensaku.mhlw.go.jp/16/index.php?action_kouhyou_detail_004_kani=true&JigyosyoCd=1650580010-00&ServiceCd=520&Type=search", "url2": "http://www.drshiraishi.or.jp" }, "geometry": { "type": "Point", "coordinates": [ 136.951222199999961, 36.8828797 ] } },
{ "type": "Feature", "properties": { "内容": "老人保健施設　アルカディア氷見【介護老人保健施設】富山県氷見市鞍川1878-1", "url": "https://www.kaigokensaku.mhlw.go.jp/16/index.php?action_kouhyou_detail_004_kani=true&JigyosyoCd=1650580028-00&ServiceCd=520&Type=search", "url2": "http://www.meijukai.com" }, "geometry": { "type": "Point", "coordinates": [ 136.958850200000029, 36.8503149 ] } },
{ "type": "Feature", "properties": { "内容": "老人保健施設なごみ苑【介護老人保健施設】富山県滑川市野町1686番地", "url": "https://www.kaigokensaku.mhlw.go.jp/16/index.php?action_kouhyou_detail_004_kani=true&JigyosyoCd=1650680000-00&ServiceCd=520&Type=search", "url2": "http://www.nagomien.or.jp" }, "geometry": { "type": "Point", "coordinates": [ 137.368174599999946, 36.763512 ] } },
{ "type": "Feature", "properties": { "内容": "黒部市介護老人保健施設カリエール【介護老人保健施設】富山県黒部市牧野693", "url": "https://www.kaigokensaku.mhlw.go.jp/16/index.php?action_kouhyou_detail_004_kani=true&JigyosyoCd=1650780024-00&ServiceCd=520&Type=search", "url2": "http://med-kurobe.jp/guide/facility/cariere/index.html" }, "geometry": { "type": "Point", "coordinates": [ 137.442234070743183, 36.870451143513343 ] } },
{ "type": "Feature", "properties": { "内容": "老人保健施設あかり苑【介護老人保健施設】富山県砺波市寿町2番38号", "url": "https://www.kaigokensaku.mhlw.go.jp/16/index.php?action_kouhyou_detail_004_kani=true&JigyosyoCd=1650880006-00&ServiceCd=520&Type=search", "url2": "http://www.juzankai.jp/" }, "geometry": { "type": "Point", "coordinates": [ 136.956603399999949, 36.6435398 ] } },
{ "type": "Feature", "properties": { "内容": "介護老人保健施設ケアポート庄川【介護老人保健施設】富山県砺波市庄川町金屋字岩黒38-1", "url": "https://www.kaigokensaku.mhlw.go.jp/16/index.php?action_kouhyou_detail_004_kani=true&JigyosyoCd=1652080001-00&ServiceCd=520&Type=search", "url2": "http://www.shogawa.jp/" }, "geometry": { "type": "Point", "coordinates": [ 136.984817218103672, 36.56503695117005 ] } },
{ "type": "Feature", "properties": { "内容": "にしの老人保健施設【介護老人保健施設】小矢部市本町3-38", "url": "https://www.kaigokensaku.mhlw.go.jp/16/index.php?action_kouhyou_detail_004_kani=true&JigyosyoCd=1650980004-00&ServiceCd=520&Type=search", "url2": "https://www.nishinokai.jp" }, "geometry": { "type": "Point", "coordinates": [ 136.866519599999947, 36.6748251 ] } },
{ "type": "Feature", "properties": { "内容": "介護老人保健施設ゆうゆうハウス【介護老人保健施設】富山県小矢部市島３２２番地", "url": "https://www.kaigokensaku.mhlw.go.jp/16/index.php?action_kouhyou_detail_004_kani=true&JigyosyoCd=1650980012-00&ServiceCd=520&Type=search", "url2": "http://www.yuyuhouse.com/" }, "geometry": { "type": "Point", "coordinates": [ 136.876132900000016, 36.6661179 ] } },
{ "type": "Feature", "properties": { "内容": "介護療養型老人保健施設　福光あおい【介護老人保健施設】富山県南砺市法林寺４２４番地", "url": "https://www.kaigokensaku.mhlw.go.jp/16/index.php?action_kouhyou_detail_004_kani=true&JigyosyoCd=1651080002-00&ServiceCd=520&Type=search", "url2": "juzankai.sakura.ne.jp" }, "geometry": { "type": "Point", "coordinates": [ 136.857062206082219, 36.570800840759993 ] } },
{ "type": "Feature", "properties": { "内容": "介護老人保健施設葵の園・なんと【介護老人保健施設】富山県南砺市天池字二番野島1555番3", "url": "https://www.kaigokensaku.mhlw.go.jp/16/index.php?action_kouhyou_detail_004_kani=true&JigyosyoCd=1652180017-00&ServiceCd=520&Type=search", "url2": "http://www.aoikai.jp/about/group_list/group_syuwa/" }, "geometry": { "type": "Point", "coordinates": [ 136.904424530163624, 36.542593928082461 ] } },
{ "type": "Feature", "properties": { "内容": "介護老人保健施設　城端うらら【介護老人保健施設】富山県南砺市理休270番地", "url": "https://www.kaigokensaku.mhlw.go.jp/16/index.php?action_kouhyou_detail_004_kani=true&JigyosyoCd=1652080019-00&ServiceCd=520&Type=search", "url2": "http://care-net.biz/16/keijyukai/" }, "geometry": { "type": "Point", "coordinates": [ 136.9084229, 36.5125942 ] } },
{ "type": "Feature", "properties": { "内容": "老人保健施設みしま野苑一穂【介護老人保健施設】富山県射水市三ヶ508", "url": "https://www.kaigokensaku.mhlw.go.jp/16/index.php?action_kouhyou_detail_004_kani=true&JigyosyoCd=1651980003-00&ServiceCd=520&Type=search", "url2": "http://www.rakusankai.com/" }, "geometry": { "type": "Point", "coordinates": [ 137.1003197, 36.726165 ] } },
{ "type": "Feature", "properties": { "内容": "山田医院併設介護療養型老人保健施設【介護老人保健施設】射水市三ヶ835", "url": "https://www.kaigokensaku.mhlw.go.jp/16/index.php?action_kouhyou_detail_004_kani=true&JigyosyoCd=1651180018-00&ServiceCd=520&Type=search", "url2": "http://www.rakusankai.com/" }, "geometry": { "type": "Point", "coordinates": [ 137.0990782, 36.7250512 ] } },
{ "type": "Feature", "properties": { "内容": "介護老人保健施設　サンセリテ【介護老人保健施設】富山県射水市朴木244番地", "url": "https://www.kaigokensaku.mhlw.go.jp/16/index.php?action_kouhyou_detail_004_kani=true&JigyosyoCd=1650380007-00&ServiceCd=520&Type=search", "url2": "https://kiseikai-toyama.or.jp/" }, "geometry": { "type": "Point", "coordinates": [ 137.076998900000035, 36.7588826 ] } },
{ "type": "Feature", "properties": { "内容": "上市老人保健施設　つるぎの庭【介護老人保健施設】富山県中新川郡上市町森尻704番地", "url": "https://www.kaigokensaku.mhlw.go.jp/16/index.php?action_kouhyou_detail_004_kani=true&JigyosyoCd=1651680017-00&ServiceCd=520&Type=search", "url2": null }, "geometry": { "type": "Point", "coordinates": [ 137.354797100000042, 36.718025399999966 ] } },
{ "type": "Feature", "properties": { "内容": "老人保健施設　ケアホーム　陽風の里【介護老人保健施設】富山県中新川郡立山町大石原254", "url": "https://www.kaigokensaku.mhlw.go.jp/16/index.php?action_kouhyou_detail_004_kani=true&JigyosyoCd=1651680009-00&ServiceCd=520&Type=search", "url2": "http://www.keijinkai-f.or.jp/welfare-facility/yofunosato" }, "geometry": { "type": "Point", "coordinates": [ 137.299087099999952, 36.6637106 ] } },
{ "type": "Feature", "properties": { "内容": "入善老人保健施設　こぶしの庭【介護老人保健施設】富山県下新川郡入善町小杉64番地", "url": "https://www.kaigokensaku.mhlw.go.jp/16/index.php?action_kouhyou_detail_004_kani=true&JigyosyoCd=1651780007-00&ServiceCd=520&Type=search", "url2": "www.yatsuo.or.jp/019_hoken/nyuzen/index.html" }, "geometry": { "type": "Point", "coordinates": [ 137.526088399999907, 36.9180617 ] } },
{ "type": "Feature", "properties": { "内容": "入善老人保健施設　こぶしの庭【介護老人保健施設】富山県下新川郡入善町小杉64", "url": "https://www.kaigokensaku.mhlw.go.jp/16/index.php?action_kouhyou_detail_004_kani=true&JigyosyoCd=1651780023-00&ServiceCd=520&Type=search", "url2": null }, "geometry": { "type": "Point", "coordinates": [ 137.5260056, 36.9177867 ] } },
{ "type": "Feature", "properties": { "内容": "介護老人保健施設　つるさんかめさん【介護老人保健施設】富山県下新川郡朝日町泊新５番地", "url": "https://www.kaigokensaku.mhlw.go.jp/16/index.php?action_kouhyou_detail_004_kani=true&JigyosyoCd=1651780015-00&ServiceCd=520&Type=search", "url2": "http://www.arisokai.jp" }, "geometry": { "type": "Point", "coordinates": [ 137.564684700000043, 36.9616739 ] } }
]
}
