{
"type": "FeatureCollection",
"name": "geo_16_短期入所療養介護（介護老人保健施設）",
"crs": { "type": "name", "properties": { "name": "urn:ogc:def:crs:OGC:1.3:CRS84" } },
"features": [
{ "type": "Feature", "properties": { "内容": "介護老人保健施設富山リハビリテーションホーム【短期入所療養介護（介護老人保健施設）】富山県富山市丸の内三丁目３番２２号", "url": "https://www.kaigokensaku.mhlw.go.jp/16/index.php?action_kouhyou_detail_004_kani=true&JigyosyoCd=1670101441-00&ServiceCd=220&Type=search", "url2": "http://www.keiseikai-toyama.jp" }, "geometry": { "type": "Point", "coordinates": [ 137.2091471, 36.6912107 ] } },
{ "type": "Feature", "properties": { "内容": "介護老人保健施設シルバーケア羽根苑【短期入所療養介護（介護老人保健施設）】富山県富山市婦中町羽根1092番2", "url": "https://www.kaigokensaku.mhlw.go.jp/16/index.php?action_kouhyou_detail_004_kani=true&JigyosyoCd=1651880138-00&ServiceCd=220&Type=search", "url2": "http://toyamajonankai.mutsumi-gr.jp/sc-haneen/" }, "geometry": { "type": "Point", "coordinates": [ 137.14031535211484, 36.659647898140797 ] } },
{ "type": "Feature", "properties": { "内容": "老人保健施設　白雲荘【短期入所療養介護（介護老人保健施設）】富山市流杉123番地", "url": "https://www.kaigokensaku.mhlw.go.jp/16/index.php?action_kouhyou_detail_004_kani=true&JigyosyoCd=1650180043-00&ServiceCd=220&Type=search", "url2": "https://rouken-hakuunsou.jp/" }, "geometry": { "type": "Point", "coordinates": [ 137.275503299999968, 36.6589716 ] } },
{ "type": "Feature", "properties": { "内容": "大沢野老人保健施設　かがやき【短期入所療養介護（介護老人保健施設）】富山県富山市春日３６２－１", "url": "https://www.kaigokensaku.mhlw.go.jp/16/index.php?action_kouhyou_detail_004_kani=true&JigyosyoCd=1651580001-00&ServiceCd=220&Type=search", "url2": "http://toyama-souseikai.or.jp/kagayaki/" }, "geometry": { "type": "Point", "coordinates": [ 137.204757100000052, 36.5629262 ] } },
{ "type": "Feature", "properties": { "内容": "介護老人保健施設みどり苑【短期入所療養介護（介護老人保健施設）】富山県富山市秋ヶ島146番1", "url": "https://www.kaigokensaku.mhlw.go.jp/16/index.php?action_kouhyou_detail_004_kani=true&JigyosyoCd=1670101706-00&ServiceCd=220&Type=search", "url2": "http://www.sainouhp.or.jp/~midori/" }, "geometry": { "type": "Point", "coordinates": [ 137.193147400000043, 36.6446498 ] } },
{ "type": "Feature", "properties": { "内容": "老人保健施設シルバーケア栗山【短期入所療養介護（介護老人保健施設）】富山市栗山字沢下割900", "url": "https://www.kaigokensaku.mhlw.go.jp/16/index.php?action_kouhyou_detail_004_kani=true&JigyosyoCd=1650180076-00&ServiceCd=220&Type=search", "url2": "http://izumikai.mutsumi-gr.jp/" }, "geometry": { "type": "Point", "coordinates": [ 137.2077716, 36.6211195 ] } },
{ "type": "Feature", "properties": { "内容": "介護老人保健施設　アメニティ月岡【短期入所療養介護（介護老人保健施設）】富山市月岡町2丁目189番地", "url": "https://www.kaigokensaku.mhlw.go.jp/16/index.php?action_kouhyou_detail_004_kani=true&JigyosyoCd=1650180100-00&ServiceCd=220&Type=search", "url2": "tsukioka.mutsumi-gr.jp" }, "geometry": { "type": "Point", "coordinates": [ 137.264052600000014, 36.6244531 ] } },
{ "type": "Feature", "properties": { "内容": "富山老人保健施設【短期入所療養介護（介護老人保健施設）】富山県富山市上千俵町９８－１番地", "url": "https://www.kaigokensaku.mhlw.go.jp/16/index.php?action_kouhyou_detail_004_kani=true&JigyosyoCd=1670101136-00&ServiceCd=220&Type=search", "url2": null }, "geometry": { "type": "Point", "coordinates": [ 137.244307, 36.6269555 ] } },
{ "type": "Feature", "properties": { "内容": "介護老人保健施設　みわ苑【短期入所療養介護（介護老人保健施設）】富山県富山市小中290-1", "url": "https://www.kaigokensaku.mhlw.go.jp/16/index.php?action_kouhyou_detail_004_kani=true&JigyosyoCd=1670101458-00&ServiceCd=220&Type=search", "url2": "http://www.sanikai.or.jp/" }, "geometry": { "type": "Point", "coordinates": [ 137.21276510000007, 36.6394232 ] } },
{ "type": "Feature", "properties": { "内容": "介護老人保健施設　シルバーケア今泉【短期入所療養介護（介護老人保健施設）】富山市今泉218番地", "url": "https://www.kaigokensaku.mhlw.go.jp/16/index.php?action_kouhyou_detail_004_kani=true&JigyosyoCd=1650180019-00&ServiceCd=220&Type=search", "url2": "http://www.jonankai.or.jp/scim/" }, "geometry": { "type": "Point", "coordinates": [ 137.212167200000067, 36.6691613 ] } },
{ "type": "Feature", "properties": { "内容": "老人保健施設　チューリップ苑【短期入所療養介護（介護老人保健施設）】富山県富山市長江五丁目４番３３号", "url": "https://www.kaigokensaku.mhlw.go.jp/16/index.php?action_kouhyou_detail_004_kani=true&JigyosyoCd=1670101482-00&ServiceCd=220&Type=search", "url2": "http://www.tulipen.jp/" }, "geometry": { "type": "Point", "coordinates": [ 137.245331814541601, 36.687644158705865 ] } },
{ "type": "Feature", "properties": { "内容": "介護老人保健施設仁泉メディケア【短期入所療養介護（介護老人保健施設）】富山市手屋2丁目135-1", "url": "https://www.kaigokensaku.mhlw.go.jp/16/index.php?action_kouhyou_detail_004_kani=true&JigyosyoCd=1650180159-00&ServiceCd=220&Type=search", "url2": "http://seikeikaitoyama.com/concept.html" }, "geometry": { "type": "Point", "coordinates": [ 137.269549200000029, 36.7211364 ] } },
{ "type": "Feature", "properties": { "内容": "八尾老人保健施設　風の庭【短期入所療養介護（介護老人保健施設）】富山県富山市八尾町福島7-42", "url": "https://www.kaigokensaku.mhlw.go.jp/16/index.php?action_kouhyou_detail_004_kani=true&JigyosyoCd=1651880005-00&ServiceCd=220&Type=search", "url2": "http://www.yatsuo.or.jp" }, "geometry": { "type": "Point", "coordinates": [ 137.1377397, 36.5963545 ] } },
{ "type": "Feature", "properties": { "内容": "介護老人保健施設レインボー短期入所療養介護【短期入所療養介護（介護老人保健施設）】富山市水橋新堀1", "url": "https://www.kaigokensaku.mhlw.go.jp/16/index.php?action_kouhyou_detail_004_kani=true&JigyosyoCd=1670101508-00&ServiceCd=220&Type=search", "url2": "http://www.nijinokai.net/" }, "geometry": { "type": "Point", "coordinates": [ 137.303396603041023, 36.716343102650626 ] } },
{ "type": "Feature", "properties": { "内容": "介護老人保健施設　豊佳苑【短期入所療養介護（介護老人保健施設）】富山県富山市婦中町萩島665-1", "url": "https://www.kaigokensaku.mhlw.go.jp/16/index.php?action_kouhyou_detail_004_kani=true&JigyosyoCd=1651880013-00&ServiceCd=220&Type=search", "url2": "https://www.houka-en.jp/" }, "geometry": { "type": "Point", "coordinates": [ 137.173622, 36.634117 ] } },
{ "type": "Feature", "properties": { "内容": "介護老人保健施設シルバーケア城南【短期入所療養介護（介護老人保健施設）】富山県富山市太郎丸西町一丁目6番6", "url": "https://www.kaigokensaku.mhlw.go.jp/16/index.php?action_kouhyou_detail_004_kani=true&JigyosyoCd=1650180118-00&ServiceCd=220&Type=search", "url2": "https://jonankai.or.jp/scjn/" }, "geometry": { "type": "Point", "coordinates": [ 137.209483899999981, 36.6772439 ] } },
{ "type": "Feature", "properties": { "内容": "老人保健施設しきのケアセンター【短期入所療養介護（介護老人保健施設）】富山県高岡市鷲北新480", "url": "https://www.kaigokensaku.mhlw.go.jp/16/index.php?action_kouhyou_detail_004_kani=true&JigyosyoCd=1650280041-00&ServiceCd=220&Type=search", "url2": "http://sunvery-group.com/?page_id=40" }, "geometry": { "type": "Point", "coordinates": [ 137.037265700000034, 36.766606 ] } },
{ "type": "Feature", "properties": { "内容": "高岡老人保健施設長寿苑【短期入所療養介護（介護老人保健施設）】高岡市京田72", "url": "https://www.kaigokensaku.mhlw.go.jp/16/index.php?action_kouhyou_detail_004_kani=true&JigyosyoCd=1650280009-00&ServiceCd=220&Type=search", "url2": "http://kuwayamakai.jp" }, "geometry": { "type": "Point", "coordinates": [ 137.016588800000022, 36.7320767 ] } },
{ "type": "Feature", "properties": { "内容": "老人保健施設さくら苑【短期入所療養介護（介護老人保健施設）】高岡市福岡町大野145", "url": "https://www.kaigokensaku.mhlw.go.jp/16/index.php?action_kouhyou_detail_004_kani=true&JigyosyoCd=1652180009-00&ServiceCd=220&Type=search", "url2": "http://po6.nsk.ne.jp/sunvery/sakura.html" }, "geometry": { "type": "Point", "coordinates": [ 136.935855800000013, 36.7196319 ] } },
{ "type": "Feature", "properties": { "内容": "介護老人保健施設きぼう【短期入所療養介護（介護老人保健施設）】富山県高岡市和田1055", "url": "https://www.kaigokensaku.mhlw.go.jp/16/index.php?action_kouhyou_detail_004_kani=true&JigyosyoCd=1650280058-00&ServiceCd=220&Type=search", "url2": "http://www14.plala.or.jp/kibou419/" }, "geometry": { "type": "Point", "coordinates": [ 136.983398, 36.7350586 ] } },
{ "type": "Feature", "properties": { "内容": "アルカディア雨晴【短期入所療養介護（介護老人保健施設）】高岡市太田桜谷23-1", "url": "https://www.kaigokensaku.mhlw.go.jp/16/index.php?action_kouhyou_detail_004_kani=true&JigyosyoCd=1650280033-00&ServiceCd=220&Type=search", "url2": "http://www.meijukai.com" }, "geometry": { "type": "Point", "coordinates": [ 137.033535677446054, 36.814848659980399 ] } },
{ "type": "Feature", "properties": { "内容": "介護老人保健施設おおぞら【短期入所療養介護（介護老人保健施設）】富山県高岡市京田490番地", "url": "https://www.kaigokensaku.mhlw.go.jp/16/index.php?action_kouhyou_detail_004_kani=true&JigyosyoCd=1650280017-00&ServiceCd=220&Type=search", "url2": "http://www.shirankai.net/" }, "geometry": { "type": "Point", "coordinates": [ 137.0172973, 36.728266 ] } },
{ "type": "Feature", "properties": { "内容": "介護老人保健施設やすらぎ【短期入所療養介護（介護老人保健施設）】富山県高岡市美幸町1丁目1番53号", "url": "https://www.kaigokensaku.mhlw.go.jp/16/index.php?action_kouhyou_detail_004_kani=true&JigyosyoCd=1650280025-00&ServiceCd=220&Type=search", "url2": "http://seirinkai.jp/yasuragi/index.html" }, "geometry": { "type": "Point", "coordinates": [ 136.998072500000035, 36.7558292 ] } },
{ "type": "Feature", "properties": { "内容": "介護療養型老人保健施設ちょうろく【短期入所療養介護（介護老人保健施設）】富山県魚津市石垣389", "url": "https://www.kaigokensaku.mhlw.go.jp/16/index.php?action_kouhyou_detail_004_kani=true&JigyosyoCd=1650480047-00&ServiceCd=220&Type=search", "url2": "http://www.hospy.jp" }, "geometry": { "type": "Point", "coordinates": [ 137.442685100000062, 36.8052059 ] } },
{ "type": "Feature", "properties": { "内容": "老人保健施設ちょうろく【短期入所療養介護（介護老人保健施設）】富山県魚津市石垣389番地", "url": "https://www.kaigokensaku.mhlw.go.jp/16/index.php?action_kouhyou_detail_004_kani=true&JigyosyoCd=1650480021-00&ServiceCd=220&Type=search", "url2": "http://www.hospy.jp" }, "geometry": { "type": "Point", "coordinates": [ 137.4426906, 36.8050837 ] } },
{ "type": "Feature", "properties": { "内容": "魚津老人保健施設【短期入所療養介護（介護老人保健施設）】富山県魚津市友道789番地", "url": "https://www.kaigokensaku.mhlw.go.jp/16/index.php?action_kouhyou_detail_004_kani=true&JigyosyoCd=1650480005-00&ServiceCd=220&Type=search", "url2": "http://www.uozubyouin.jp/" }, "geometry": { "type": "Point", "coordinates": [ 137.411204199999929, 36.8145575 ] } },
{ "type": "Feature", "properties": { "内容": "新川老人保健施設【短期入所療養介護（介護老人保健施設）】富山県魚津市住吉236", "url": "https://www.kaigokensaku.mhlw.go.jp/16/index.php?action_kouhyou_detail_004_kani=true&JigyosyoCd=1650480062-00&ServiceCd=220&Type=search", "url2": "www.fukujukai.com/byouin.html" }, "geometry": { "type": "Point", "coordinates": [ 137.399328, 36.800241899999989 ] } },
{ "type": "Feature", "properties": { "内容": "老人保健施設エルダーヴィラ氷見【短期入所療養介護（介護老人保健施設）】氷見市余川南山50番地", "url": "https://www.kaigokensaku.mhlw.go.jp/16/index.php?action_kouhyou_detail_004_kani=true&JigyosyoCd=1650580010-00&ServiceCd=220&Type=search", "url2": "http://www.drshiraishi.or.jp" }, "geometry": { "type": "Point", "coordinates": [ 136.951222199999961, 36.8828797 ] } },
{ "type": "Feature", "properties": { "内容": "老人保健施設　アルカディア氷見【短期入所療養介護（介護老人保健施設）】富山県氷見市鞍川1878-1", "url": "https://www.kaigokensaku.mhlw.go.jp/16/index.php?action_kouhyou_detail_004_kani=true&JigyosyoCd=1650580028-00&ServiceCd=220&Type=search", "url2": "http://www.meijukai.com" }, "geometry": { "type": "Point", "coordinates": [ 136.958850200000029, 36.8503149 ] } },
{ "type": "Feature", "properties": { "内容": "老人保健施設なごみ苑【短期入所療養介護（介護老人保健施設）】富山県滑川市野町１６８６番地", "url": "https://www.kaigokensaku.mhlw.go.jp/16/index.php?action_kouhyou_detail_004_kani=true&JigyosyoCd=1650680000-00&ServiceCd=220&Type=search", "url2": "http://www.nagomien.or.jp" }, "geometry": { "type": "Point", "coordinates": [ 137.368174599999946, 36.763512 ] } },
{ "type": "Feature", "properties": { "内容": "黒部市介護老人保健施設カリエール【短期入所療養介護（介護老人保健施設）】富山県黒部市牧野693", "url": "https://www.kaigokensaku.mhlw.go.jp/16/index.php?action_kouhyou_detail_004_kani=true&JigyosyoCd=1650780024-00&ServiceCd=220&Type=search", "url2": "http://med-kurobe.jp/guid/facility/cariere/index.html" }, "geometry": { "type": "Point", "coordinates": [ 137.442207207374906, 36.870460877505352 ] } },
{ "type": "Feature", "properties": { "内容": "老人保健施設あかり苑【短期入所療養介護（介護老人保健施設）】富山県砺波市寿町2番38号", "url": "https://www.kaigokensaku.mhlw.go.jp/16/index.php?action_kouhyou_detail_004_kani=true&JigyosyoCd=1650880006-00&ServiceCd=220&Type=search", "url2": "http://www.juzankai.jp/" }, "geometry": { "type": "Point", "coordinates": [ 136.956603399999949, 36.6435398 ] } },
{ "type": "Feature", "properties": { "内容": "介護老人保健施設ケアポート庄川【短期入所療養介護（介護老人保健施設）】富山県砺波市庄川町金屋字岩黒38-1", "url": "https://www.kaigokensaku.mhlw.go.jp/16/index.php?action_kouhyou_detail_004_kani=true&JigyosyoCd=1672000328-00&ServiceCd=220&Type=search", "url2": "http://www.shogawa.jp/" }, "geometry": { "type": "Point", "coordinates": [ 136.984818398670996, 36.564954354951986 ] } },
{ "type": "Feature", "properties": { "内容": "にしの老人保健施設【短期入所療養介護（介護老人保健施設）】本町3-38", "url": "https://www.kaigokensaku.mhlw.go.jp/16/index.php?action_kouhyou_detail_004_kani=true&JigyosyoCd=1650980004-00&ServiceCd=220&Type=search", "url2": "https://www.nishinokai.jp" }, "geometry": { "type": "Point", "coordinates": [ 139.681326799999965, 35.688741 ] } },
{ "type": "Feature", "properties": { "内容": "介護老人保健施設ゆうゆうハウス【短期入所療養介護（介護老人保健施設）】富山県小矢部市島３２２番地", "url": "https://www.kaigokensaku.mhlw.go.jp/16/index.php?action_kouhyou_detail_004_kani=true&JigyosyoCd=1650980012-00&ServiceCd=220&Type=search", "url2": "http://www.yuyuhouse.com/" }, "geometry": { "type": "Point", "coordinates": [ 136.876132900000016, 36.6661179 ] } },
{ "type": "Feature", "properties": { "内容": "介護療養型老人保健施設　福光あおい【短期入所療養介護（介護老人保健施設）】富山県南砺市法林寺４２４番地", "url": "https://www.kaigokensaku.mhlw.go.jp/16/index.php?action_kouhyou_detail_004_kani=true&JigyosyoCd=1651080002-00&ServiceCd=220&Type=search", "url2": "juzankai.sakura.ne.jp" }, "geometry": { "type": "Point", "coordinates": [ 136.857394800000066, 36.5707276 ] } },
{ "type": "Feature", "properties": { "内容": "介護老人保健施設葵の園・なんと【短期入所療養介護（介護老人保健施設）】富山県南砺市天池字二番野島1555番3", "url": "https://www.kaigokensaku.mhlw.go.jp/16/index.php?action_kouhyou_detail_004_kani=true&JigyosyoCd=1652180017-00&ServiceCd=220&Type=search", "url2": "http://www.aoikai.jp/about/group_list/group_syuwa/" }, "geometry": { "type": "Point", "coordinates": [ 136.90378080000005, 36.5425379 ] } },
{ "type": "Feature", "properties": { "内容": "介護老人保健施設　城端うらら【短期入所療養介護（介護老人保健施設）】富山県南砺市理休270番地", "url": "https://www.kaigokensaku.mhlw.go.jp/16/index.php?action_kouhyou_detail_004_kani=true&JigyosyoCd=1652080019-00&ServiceCd=220&Type=search", "url2": "http://care-net.biz/16/keijyukai/" }, "geometry": { "type": "Point", "coordinates": [ 136.9084229, 36.5125942 ] } },
{ "type": "Feature", "properties": { "内容": "老人保健施設みしま野苑一穂【短期入所療養介護（介護老人保健施設）】富山県射水市三ヶ508", "url": "https://www.kaigokensaku.mhlw.go.jp/16/index.php?action_kouhyou_detail_004_kani=true&JigyosyoCd=1651980003-00&ServiceCd=220&Type=search", "url2": "http://www.rakusankai.com/" }, "geometry": { "type": "Point", "coordinates": [ 137.1003197, 36.726165 ] } },
{ "type": "Feature", "properties": { "内容": "介護老人保健施設　サンセリテ【短期入所療養介護（介護老人保健施設）】富山県射水市朴木244番地", "url": "https://www.kaigokensaku.mhlw.go.jp/16/index.php?action_kouhyou_detail_004_kani=true&JigyosyoCd=1650380007-00&ServiceCd=220&Type=search", "url2": null }, "geometry": { "type": "Point", "coordinates": [ 137.076998900000035, 36.7588826 ] } },
{ "type": "Feature", "properties": { "内容": "上市老人保健施設　つるぎの庭【短期入所療養介護（介護老人保健施設）】富山県中新川郡上市町森尻704番地", "url": "https://www.kaigokensaku.mhlw.go.jp/16/index.php?action_kouhyou_detail_004_kani=true&JigyosyoCd=1651680017-00&ServiceCd=220&Type=search", "url2": null }, "geometry": { "type": "Point", "coordinates": [ 137.354797100000042, 36.7180254 ] } },
{ "type": "Feature", "properties": { "内容": "老人保健施設　ケアホーム　陽風の里【短期入所療養介護（介護老人保健施設）】富山県中新川郡立山町大石原254", "url": "https://www.kaigokensaku.mhlw.go.jp/16/index.php?action_kouhyou_detail_004_kani=true&JigyosyoCd=1651680009-00&ServiceCd=220&Type=search", "url2": "http://www.keijinkai-f.or.jp/welfare-facility/yofunosato" }, "geometry": { "type": "Point", "coordinates": [ 137.299087099999952, 36.6637106 ] } },
{ "type": "Feature", "properties": { "内容": "入善老人保健施設　こぶしの庭【短期入所療養介護（介護老人保健施設）】富山県下新川郡入善町小杉64番地", "url": "https://www.kaigokensaku.mhlw.go.jp/16/index.php?action_kouhyou_detail_004_kani=true&JigyosyoCd=1651780007-00&ServiceCd=220&Type=search", "url2": "www.yatsuo.or.jp/019_hoken/nyuzen/index.html" }, "geometry": { "type": "Point", "coordinates": [ 137.526088399999907, 36.9180617 ] } },
{ "type": "Feature", "properties": { "内容": "入善老人保健施設　こぶしの庭【短期入所療養介護（介護老人保健施設）】富山県下新川郡入善町小杉64", "url": "https://www.kaigokensaku.mhlw.go.jp/16/index.php?action_kouhyou_detail_004_kani=true&JigyosyoCd=1651780023-00&ServiceCd=220&Type=search", "url2": null }, "geometry": { "type": "Point", "coordinates": [ 137.5260501, 36.9179452 ] } },
{ "type": "Feature", "properties": { "内容": "介護老人保健施設　つるさんかめさん【短期入所療養介護（介護老人保健施設）】富山県下新川郡朝日町泊新5番地", "url": "https://www.kaigokensaku.mhlw.go.jp/16/index.php?action_kouhyou_detail_004_kani=true&JigyosyoCd=1651780015-00&ServiceCd=220&Type=search", "url2": "http://www.arisokai.jp" }, "geometry": { "type": "Point", "coordinates": [ 137.564684700000043, 36.9616739 ] } }
]
}
