{
"type": "FeatureCollection",
"name": "geo_16_短期入所生活介護",
"crs": { "type": "name", "properties": { "name": "urn:ogc:def:crs:OGC:1.3:CRS84" } },
"features": [
{ "type": "Feature", "properties": { "内容": "地域密着型特別養護老人ホームささづ苑かすが【短期入所生活介護】富山市下タ林２３７", "url": "https://www.kaigokensaku.mhlw.go.jp/16/index.php?action_kouhyou_detail_004_kani=true&JigyosyoCd=1670114485-00&ServiceCd=210&Type=search", "url2": "http://www.sasazuen.or.jp" }, "geometry": { "type": "Point", "coordinates": [ 137.2090316, 36.5645538 ] } },
{ "type": "Feature", "properties": { "内容": "ショートステイもなみ【短期入所生活介護】富山県富山市太郎丸本町1丁目7‐10", "url": "https://www.kaigokensaku.mhlw.go.jp/16/index.php?action_kouhyou_detail_004_kani=true&JigyosyoCd=1670114766-00&ServiceCd=210&Type=search", "url2": "https://jonankai.mutsumi-gr.jp" }, "geometry": { "type": "Point", "coordinates": [ 137.211330622024263, 36.677381662373833 ] } },
{ "type": "Feature", "properties": { "内容": "特別養護老人ホームひかり苑【短期入所生活介護】西田地方町2丁目10番11", "url": "https://www.kaigokensaku.mhlw.go.jp/16/index.php?action_kouhyou_detail_004_kani=true&JigyosyoCd=1670111721-00&ServiceCd=210&Type=search", "url2": "http://www.funankai.jp" }, "geometry": { "type": "Point", "coordinates": [ 137.2054842, 36.682623 ] } },
{ "type": "Feature", "properties": { "内容": "ショートステイぽんぽこ・上大久保【短期入所生活介護】上大久保322-5幼老複合施設ぽんぽこ村", "url": "https://www.kaigokensaku.mhlw.go.jp/16/index.php?action_kouhyou_detail_004_kani=true&JigyosyoCd=1670113925-00&ServiceCd=210&Type=search", "url2": null }, "geometry": { "type": "Point", "coordinates": [ 137.208215700000011, 36.5957928 ] } },
{ "type": "Feature", "properties": { "内容": "ショートステイぽんぽこ【短期入所生活介護】上二杉407-1", "url": "https://www.kaigokensaku.mhlw.go.jp/16/index.php?action_kouhyou_detail_004_kani=true&JigyosyoCd=1670112224-00&ServiceCd=210&Type=search", "url2": null }, "geometry": { "type": "Point", "coordinates": [ 137.202846603041053, 36.589091798420228 ] } },
{ "type": "Feature", "properties": { "内容": "富山西ショートステイ【短期入所生活介護】富山県富山市婦中町下轡田1010富山西リハビリテーション病院２F", "url": "https://www.kaigokensaku.mhlw.go.jp/16/index.php?action_kouhyou_detail_004_kani=true&JigyosyoCd=1670114212-00&ServiceCd=210&Type=search", "url2": "http://toyama-nishi.jp/" }, "geometry": { "type": "Point", "coordinates": [ 137.173487582000689, 36.659349645289872 ] } },
{ "type": "Feature", "properties": { "内容": "とやま金泉寺ケアセンターそよ風【短期入所生活介護】富山県富山市中野新29番1", "url": "https://www.kaigokensaku.mhlw.go.jp/16/index.php?action_kouhyou_detail_004_kani=true&JigyosyoCd=1670114659-00&ServiceCd=210&Type=search", "url2": "http://www.unimat-rc.co.jp/" }, "geometry": { "type": "Point", "coordinates": [ 137.2731656, 36.720408 ] } },
{ "type": "Feature", "properties": { "内容": "特別養護老人ホーム　白光苑【短期入所生活介護】富山市山岸95番地", "url": "https://www.kaigokensaku.mhlw.go.jp/16/index.php?action_kouhyou_detail_004_kani=true&JigyosyoCd=1670101078-00&ServiceCd=210&Type=search", "url2": "http://www.byakkouen.jp/" }, "geometry": { "type": "Point", "coordinates": [ 137.201997200000051, 36.7184513 ] } },
{ "type": "Feature", "properties": { "内容": "特別養護老人ホームすみれ苑【短期入所生活介護】富山県富山市横越180番地", "url": "https://www.kaigokensaku.mhlw.go.jp/16/index.php?action_kouhyou_detail_004_kani=true&JigyosyoCd=1670101037-00&ServiceCd=210&Type=search", "url2": "http://www.sumireen.jp" }, "geometry": { "type": "Point", "coordinates": [ 137.283783099999937, 36.7515253 ] } },
{ "type": "Feature", "properties": { "内容": "特別養護老人ホームアルペンハイツ短期入所生活介護【短期入所生活介護】富山県富山市小西１７０番地", "url": "https://www.kaigokensaku.mhlw.go.jp/16/index.php?action_kouhyou_detail_004_kani=true&JigyosyoCd=1670101011-00&ServiceCd=210&Type=search", "url2": "http://www.alpen.or.jp" }, "geometry": { "type": "Point", "coordinates": [ 137.257864, 36.7246772 ] } },
{ "type": "Feature", "properties": { "内容": "にながわ光風苑【短期入所生活介護】富山市蜷川89番地", "url": "https://www.kaigokensaku.mhlw.go.jp/16/index.php?action_kouhyou_detail_004_kani=true&JigyosyoCd=1670101060-00&ServiceCd=210&Type=search", "url2": "https://www.koufuukai.jp/" }, "geometry": { "type": "Point", "coordinates": [ 137.2104041, 36.6442948 ] } },
{ "type": "Feature", "properties": { "内容": "特別養護老人ホーム　三寿苑【短期入所生活介護】富山市大島3丁目147番地", "url": "https://www.kaigokensaku.mhlw.go.jp/16/index.php?action_kouhyou_detail_004_kani=true&JigyosyoCd=1670101029-00&ServiceCd=210&Type=search", "url2": "http://www.sanjukai.jp/" }, "geometry": { "type": "Point", "coordinates": [ 137.278030400000034, 36.6740811 ] } },
{ "type": "Feature", "properties": { "内容": "特別養護老人ホーム　あすなろの郷【短期入所生活介護】富山市下新北町６－４５", "url": "https://www.kaigokensaku.mhlw.go.jp/16/index.php?action_kouhyou_detail_004_kani=true&JigyosyoCd=1670102621-00&ServiceCd=210&Type=search", "url2": "https://www.asunaronosato.jp" }, "geometry": { "type": "Point", "coordinates": [ 137.220122299999957, 36.717002 ] } },
{ "type": "Feature", "properties": { "内容": "特別養護老人ホ－ム梨雲苑ゆうゆう【短期入所生活介護】富山県富山市富山市野口南部１２１", "url": "https://www.kaigokensaku.mhlw.go.jp/16/index.php?action_kouhyou_detail_004_kani=true&JigyosyoCd=1670101086-00&ServiceCd=210&Type=search", "url2": "http://www.riunen.com." }, "geometry": { "type": "Point", "coordinates": [ 137.152830317721481, 36.713355790084151 ] } },
{ "type": "Feature", "properties": { "内容": "特別養護老人ホーム　和合ハイツ【短期入所生活介護】富山市布目1966番地１", "url": "https://www.kaigokensaku.mhlw.go.jp/16/index.php?action_kouhyou_detail_004_kani=true&JigyosyoCd=1670101102-00&ServiceCd=210&Type=search", "url2": "https://wagoufukushikai.com" }, "geometry": { "type": "Point", "coordinates": [ 137.190431399999966, 36.7468618 ] } },
{ "type": "Feature", "properties": { "内容": "あしたねの森ショートステイ【短期入所生活介護】富山県富山市新庄町2丁目15-32", "url": "https://www.kaigokensaku.mhlw.go.jp/16/index.php?action_kouhyou_detail_004_kani=true&JigyosyoCd=1670112810-00&ServiceCd=210&Type=search", "url2": "http://www.ashitanenomori.jp/" }, "geometry": { "type": "Point", "coordinates": [ 137.25573989999998, 36.6997302 ] } },
{ "type": "Feature", "properties": { "内容": "堀川南光風苑【短期入所生活介護】富山県富山市本郷町262-15", "url": "https://www.kaigokensaku.mhlw.go.jp/16/index.php?action_kouhyou_detail_004_kani=true&JigyosyoCd=1670113784-00&ServiceCd=210&Type=search", "url2": "https://koufuukai.jp/" }, "geometry": { "type": "Point", "coordinates": [ 137.234757397344993, 36.662943227405705 ] } },
{ "type": "Feature", "properties": { "内容": "ながれすぎ光風苑【短期入所生活介護】富山市流杉77番地", "url": "https://www.kaigokensaku.mhlw.go.jp/16/index.php?action_kouhyou_detail_004_kani=true&JigyosyoCd=1670112968-00&ServiceCd=210&Type=search", "url2": "https://koufuukai.jp" }, "geometry": { "type": "Point", "coordinates": [ 137.2718132, 36.6586316 ] } },
{ "type": "Feature", "properties": { "内容": "くまの光風苑【短期入所生活介護】富山市南金屋111番地", "url": "https://www.kaigokensaku.mhlw.go.jp/16/index.php?action_kouhyou_detail_004_kani=true&JigyosyoCd=1670104502-00&ServiceCd=210&Type=search", "url2": "https://www.koufuukai.jp/" }, "geometry": { "type": "Point", "coordinates": [ 137.231574599999931, 36.6343102 ] } },
{ "type": "Feature", "properties": { "内容": "特別養護老人ホーム晴風荘【短期入所生活介護】富山県富山市水橋辻", "url": "https://www.kaigokensaku.mhlw.go.jp/16/index.php?action_kouhyou_detail_004_kani=true&JigyosyoCd=1670101052-00&ServiceCd=210&Type=search", "url2": "http://seifusou.e-294.net/" }, "geometry": { "type": "Point", "coordinates": [ 137.297848599999952, 36.7459844 ] } },
{ "type": "Feature", "properties": { "内容": "ショートステイみのり【短期入所生活介護】富山県富山市城川原1丁目17-14", "url": "https://www.kaigokensaku.mhlw.go.jp/16/index.php?action_kouhyou_detail_004_kani=true&JigyosyoCd=1670111754-00&ServiceCd=210&Type=search", "url2": "https://www.aikou-g.jp" }, "geometry": { "type": "Point", "coordinates": [ 137.228190700000027, 36.7312645 ] } },
{ "type": "Feature", "properties": { "内容": "ショートステイなごみ【短期入所生活介護】富山県富山市飯野１－１", "url": "https://www.kaigokensaku.mhlw.go.jp/16/index.php?action_kouhyou_detail_004_kani=true&JigyosyoCd=1670104684-00&ServiceCd=210&Type=search", "url2": "https://www.aikou-g.jp/outline" }, "geometry": { "type": "Point", "coordinates": [ 137.249109200000021, 36.7193498 ] } },
{ "type": "Feature", "properties": { "内容": "特別養護老人ホーム　ふなん苑【短期入所生活介護】富山市石屋237", "url": "https://www.kaigokensaku.mhlw.go.jp/16/index.php?action_kouhyou_detail_004_kani=true&JigyosyoCd=1670101896-00&ServiceCd=210&Type=search", "url2": "http://www.funankai.jp/" }, "geometry": { "type": "Point", "coordinates": [ 137.2576967, 36.6525803 ] } },
{ "type": "Feature", "properties": { "内容": "特別養護老人ホーム敬寿苑【短期入所生活介護】富山市今泉西部町１番地３", "url": "https://www.kaigokensaku.mhlw.go.jp/16/index.php?action_kouhyou_detail_004_kani=true&JigyosyoCd=1670101045-00&ServiceCd=210&Type=search", "url2": "https://toyamajonankai.mutsumi-gr.jp/keijuen/" }, "geometry": { "type": "Point", "coordinates": [ 137.209145199999966, 36.673905 ] } },
{ "type": "Feature", "properties": { "内容": "しみずまち敬寿苑【短期入所生活介護】富山市清水町二丁目6－23", "url": "https://www.kaigokensaku.mhlw.go.jp/16/index.php?action_kouhyou_detail_004_kani=true&JigyosyoCd=1670112471-00&ServiceCd=210&Type=search", "url2": "https://toyamajonankai.jp/" }, "geometry": { "type": "Point", "coordinates": [ 137.225895199999968, 36.6888643 ] } },
{ "type": "Feature", "properties": { "内容": "ショートステイにながわ【短期入所生活介護】富山市二俣319-1", "url": "https://www.kaigokensaku.mhlw.go.jp/16/index.php?action_kouhyou_detail_004_kani=true&JigyosyoCd=1670111507-00&ServiceCd=210&Type=search", "url2": "http://www.toyamajonankai.jo/" }, "geometry": { "type": "Point", "coordinates": [ 137.216907820901497, 36.64476983734243 ] } },
{ "type": "Feature", "properties": { "内容": "特別養護老人ホームソレイユ【短期入所生活介護】富山県富山市下堀50-6", "url": "https://www.kaigokensaku.mhlw.go.jp/16/index.php?action_kouhyou_detail_004_kani=true&JigyosyoCd=1670103306-00&ServiceCd=210&Type=search", "url2": "http://www.t-soleil.jp/" }, "geometry": { "type": "Point", "coordinates": [ 137.228415700000028, 36.6625096 ] } },
{ "type": "Feature", "properties": { "内容": "ショートステイ　楓和【短期入所生活介護】富山県富山市婦中町熊野道357", "url": "https://www.kaigokensaku.mhlw.go.jp/16/index.php?action_kouhyou_detail_004_kani=true&JigyosyoCd=1670114261-00&ServiceCd=210&Type=search", "url2": "http://care-rise.co.jp/" }, "geometry": { "type": "Point", "coordinates": [ 137.142614099999946, 36.6268786 ] } },
{ "type": "Feature", "properties": { "内容": "特別養護老人ホームはなさき苑【短期入所生活介護】富山県富山市花崎80番地", "url": "https://www.kaigokensaku.mhlw.go.jp/16/index.php?action_kouhyou_detail_004_kani=true&JigyosyoCd=1671500187-00&ServiceCd=210&Type=search", "url2": "http://www.hanasakien.or.jp" }, "geometry": { "type": "Point", "coordinates": [ 137.279862699999967, 36.6100076 ] } },
{ "type": "Feature", "properties": { "内容": "特別養護老人ホーム　ささづ苑【短期入所生活介護】富山市下タ林141", "url": "https://www.kaigokensaku.mhlw.go.jp/16/index.php?action_kouhyou_detail_004_kani=true&JigyosyoCd=1671500179-00&ServiceCd=210&Type=search", "url2": "http://www.sasazuen.or.jp" }, "geometry": { "type": "Point", "coordinates": [ 137.205434800000035, 36.5633484 ] } },
{ "type": "Feature", "properties": { "内容": "特別養護老人ホーム太陽苑【短期入所生活介護】富山県富山市新村８７番地２", "url": "https://www.kaigokensaku.mhlw.go.jp/16/index.php?action_kouhyou_detail_004_kani=true&JigyosyoCd=1671500138-00&ServiceCd=210&Type=search", "url2": "http://taiyouen１０１０.com/" }, "geometry": { "type": "Point", "coordinates": [ 137.214873799999964, 36.6179227 ] } },
{ "type": "Feature", "properties": { "内容": "特別養護老人ホーム　椿寿荘【短期入所生活介護】富山県富山市八尾町奥田80番地", "url": "https://www.kaigokensaku.mhlw.go.jp/16/index.php?action_kouhyou_detail_004_kani=true&JigyosyoCd=1671800397-00&ServiceCd=210&Type=search", "url2": "http://www.keiju-kai.jp/" }, "geometry": { "type": "Point", "coordinates": [ 137.1311624, 36.6186518 ] } },
{ "type": "Feature", "properties": { "内容": "特別養護老人ホーム　ふるさと敬寿苑　短期入所生活介護事業所【短期入所生活介護】富山県富山市婦中町羽根１０９２番地２", "url": "https://www.kaigokensaku.mhlw.go.jp/16/index.php?action_kouhyou_detail_004_kani=true&JigyosyoCd=1671800348-00&ServiceCd=210&Type=search", "url2": "http://www.toyamajonankai.mutsumi-gr.jp/" }, "geometry": { "type": "Point", "coordinates": [ 137.140476284655733, 36.660190591002355 ] } },
{ "type": "Feature", "properties": { "内容": "特別養護老人ホーム　くれは苑（短期）【短期入所生活介護】富山県富山市中老田845番地", "url": "https://www.kaigokensaku.mhlw.go.jp/16/index.php?action_kouhyou_detail_004_kani=true&JigyosyoCd=1670103819-00&ServiceCd=210&Type=search", "url2": "http://www.youkou-fukushikai.or.jp/kurehaen/" }, "geometry": { "type": "Point", "coordinates": [ 137.130214199999955, 36.6999579 ] } },
{ "type": "Feature", "properties": { "内容": "うめばちふちゅう【短期入所生活介護】富山県富山市婦中町蔵島１０５８－２", "url": "https://www.kaigokensaku.mhlw.go.jp/16/index.php?action_kouhyou_detail_004_kani=true&JigyosyoCd=1670115235-00&ServiceCd=210&Type=search", "url2": "https://raffi-ne.com/fuchu" }, "geometry": { "type": "Point", "coordinates": [ 137.171450599999986, 36.6455478 ] } },
{ "type": "Feature", "properties": { "内容": "特別養護老人ホーム喜寿苑【短期入所生活介護】富山県富山市婦中町塚原122番地", "url": "https://www.kaigokensaku.mhlw.go.jp/16/index.php?action_kouhyou_detail_004_kani=true&JigyosyoCd=1671800140-00&ServiceCd=210&Type=search", "url2": "http://kijuen.or.jp" }, "geometry": { "type": "Point", "coordinates": [ 137.184456599999976, 36.6596672 ] } },
{ "type": "Feature", "properties": { "内容": "光ヶ丘ホーム【短期入所生活介護】富山県高岡市西藤平蔵313", "url": "https://www.kaigokensaku.mhlw.go.jp/16/index.php?action_kouhyou_detail_004_kani=true&JigyosyoCd=1670200755-00&ServiceCd=210&Type=search", "url2": "http://www.shirankai.net/" }, "geometry": { "type": "Point", "coordinates": [ 136.985816800000066, 36.7072474 ] } },
{ "type": "Feature", "properties": { "内容": "ショートステイ　雅-みやび-【短期入所生活介護】高岡市京田281-1", "url": "https://www.kaigokensaku.mhlw.go.jp/16/index.php?action_kouhyou_detail_004_kani=true&JigyosyoCd=1670202132-00&ServiceCd=210&Type=search", "url2": "http://miyabi-qol.com" }, "geometry": { "type": "Point", "coordinates": [ 137.012404437024969, 36.731078420062175 ] } },
{ "type": "Feature", "properties": { "内容": "特別養護老人ホーム　雨晴苑【短期入所生活介護】富山県高岡市太田５８番地", "url": "https://www.kaigokensaku.mhlw.go.jp/16/index.php?action_kouhyou_detail_004_kani=true&JigyosyoCd=1670200433-00&ServiceCd=210&Type=search", "url2": "http://www.amaharashien.jp/" }, "geometry": { "type": "Point", "coordinates": [ 137.014864799999941, 36.8154082 ] } },
{ "type": "Feature", "properties": { "内容": "サンケア下関【短期入所生活介護】富山県高岡市赤祖父166番地", "url": "https://www.kaigokensaku.mhlw.go.jp/16/index.php?action_kouhyou_detail_004_kani=true&JigyosyoCd=1670202926-00&ServiceCd=210&Type=search", "url2": null }, "geometry": { "type": "Point", "coordinates": [ 137.024253006525868, 36.732419496626974 ] } },
{ "type": "Feature", "properties": { "内容": "ケアホームみどり【短期入所生活介護】富山県高岡市横田町１丁目２番２５号", "url": "https://www.kaigokensaku.mhlw.go.jp/16/index.php?action_kouhyou_detail_004_kani=true&JigyosyoCd=1670201126-00&ServiceCd=210&Type=search", "url2": "https://carehome-midori.com" }, "geometry": { "type": "Point", "coordinates": [ 137.002031100000067, 36.7474052 ] } },
{ "type": "Feature", "properties": { "内容": "特別養護老人ホーム　だいご苑【短期入所生活介護】富山県高岡市醍醐1257番地", "url": "https://www.kaigokensaku.mhlw.go.jp/16/index.php?action_kouhyou_detail_004_kani=true&JigyosyoCd=1670200292-00&ServiceCd=210&Type=search", "url2": "http://www.daigoen.com" }, "geometry": { "type": "Point", "coordinates": [ 136.961654400000043, 36.6961986 ] } },
{ "type": "Feature", "properties": { "内容": "ふしき苑ショートステイ【短期入所生活介護】富山県高岡市伏木国分１丁目１０番１０号", "url": "https://www.kaigokensaku.mhlw.go.jp/16/index.php?action_kouhyou_detail_004_kani=true&JigyosyoCd=1670200854-00&ServiceCd=210&Type=search", "url2": "http://www2.tcnet.ne.jp/fusikien/" }, "geometry": { "type": "Point", "coordinates": [ 137.0539238, 36.8001945 ] } },
{ "type": "Feature", "properties": { "内容": "特別養護老人ホーム香野苑【短期入所生活介護】富山県高岡市上渡１６１番地", "url": "https://www.kaigokensaku.mhlw.go.jp/16/index.php?action_kouhyou_detail_004_kani=true&JigyosyoCd=1670200391-00&ServiceCd=210&Type=search", "url2": "https//tatenofukushikai-kanoen.com" }, "geometry": { "type": "Point", "coordinates": [ 136.957835149073844, 36.729449533944511 ] } },
{ "type": "Feature", "properties": { "内容": "特別養護老人ホームあさひ苑【短期入所生活介護】富山県高岡市角５６１", "url": "https://www.kaigokensaku.mhlw.go.jp/16/index.php?action_kouhyou_detail_004_kani=true&JigyosyoCd=1670201688-00&ServiceCd=210&Type=search", "url2": "https://akanekai.toyama.jp/" }, "geometry": { "type": "Point", "coordinates": [ 137.037276799999972, 36.766045 ] } },
{ "type": "Feature", "properties": { "内容": "あさひ苑アネックスショートステイ【短期入所生活介護】高岡市鷲北新１７１番地", "url": "https://www.kaigokensaku.mhlw.go.jp/16/index.php?action_kouhyou_detail_004_kani=true&JigyosyoCd=1670202595-00&ServiceCd=210&Type=search", "url2": "https://akanekai.toyama.jp/" }, "geometry": { "type": "Point", "coordinates": [ 137.0378818, 36.7666146 ] } },
{ "type": "Feature", "properties": { "内容": "特別養護老人ホーム　だいご苑【短期入所生活介護】富山県高岡市醍醐１２５７番地", "url": "https://www.kaigokensaku.mhlw.go.jp/16/index.php?action_kouhyou_detail_004_kani=true&JigyosyoCd=1670202272-00&ServiceCd=210&Type=search", "url2": "http://www.daigoen.com" }, "geometry": { "type": "Point", "coordinates": [ 136.961654400000043, 36.6961986 ] } },
{ "type": "Feature", "properties": { "内容": "特別養護老人ホームはるかぜ【短期入所生活介護】富山県高岡市オフィスパーク13番", "url": "https://www.kaigokensaku.mhlw.go.jp/16/index.php?action_kouhyou_detail_004_kani=true&JigyosyoCd=1670201472-00&ServiceCd=210&Type=search", "url2": "http://www.harukaze-takaoka.or.jp" }, "geometry": { "type": "Point", "coordinates": [ 136.999101600000017, 36.6720308 ] } },
{ "type": "Feature", "properties": { "内容": "特別養護老人ホーム二上万葉苑【短期入所生活介護】富山県高岡市二上町1004番地", "url": "https://www.kaigokensaku.mhlw.go.jp/16/index.php?action_kouhyou_detail_004_kani=true&JigyosyoCd=1670200805-00&ServiceCd=210&Type=search", "url2": "http://www.imizu-manyoukai.or.jp/" }, "geometry": { "type": "Point", "coordinates": [ 137.0081146, 36.773994 ] } },
{ "type": "Feature", "properties": { "内容": "特別養護老人ホーム　藤園苑【短期入所生活介護】富山県高岡市早川390-1", "url": "https://www.kaigokensaku.mhlw.go.jp/16/index.php?action_kouhyou_detail_004_kani=true&JigyosyoCd=1670200664-00&ServiceCd=210&Type=search", "url2": "http://www.fujisonoen.or.jp/" }, "geometry": { "type": "Point", "coordinates": [ 136.988288199999943, 36.7465688 ] } },
{ "type": "Feature", "properties": { "内容": "特別養護老人ホーム藤園苑（ユニット型ショートステイ）【短期入所生活介護】富山県高岡市早川390-1", "url": "https://www.kaigokensaku.mhlw.go.jp/16/index.php?action_kouhyou_detail_004_kani=true&JigyosyoCd=1670202199-00&ServiceCd=210&Type=search", "url2": "http://www.fujisonoen.or.jp/" }, "geometry": { "type": "Point", "coordinates": [ 136.988288199999943, 36.7465688 ] } },
{ "type": "Feature", "properties": { "内容": "特別養護老人ホームのむら藤園苑【短期入所生活介護】富山県高岡市野村921番地1", "url": "https://www.kaigokensaku.mhlw.go.jp/16/index.php?action_kouhyou_detail_004_kani=true&JigyosyoCd=1670201308-00&ServiceCd=210&Type=search", "url2": "http://www.fujisonoen.jp/" }, "geometry": { "type": "Point", "coordinates": [ 137.03611090000004, 36.7507468 ] } },
{ "type": "Feature", "properties": { "内容": "特別養護老人ホーム　鳳鳴苑【短期入所生活介護】富山県高岡市蔵野町３番地", "url": "https://www.kaigokensaku.mhlw.go.jp/16/index.php?action_kouhyou_detail_004_kani=true&JigyosyoCd=1670200250-00&ServiceCd=210&Type=search", "url2": "http://www.fukuhoukai.jp/" }, "geometry": { "type": "Point", "coordinates": [ 136.978160399999979, 36.7229736 ] } },
{ "type": "Feature", "properties": { "内容": "特別養護老人ホーム　アルテン赤丸【短期入所生活介護】富山県高岡市福岡町赤丸1103番地1", "url": "https://www.kaigokensaku.mhlw.go.jp/16/index.php?action_kouhyou_detail_004_kani=true&JigyosyoCd=1672100102-00&ServiceCd=210&Type=search", "url2": "http://www.aruten.or.jp/" }, "geometry": { "type": "Point", "coordinates": [ 136.932330200000024, 36.7377992 ] } },
{ "type": "Feature", "properties": { "内容": "志貴野長生寮【短期入所生活介護】富山県高岡市滝新21番地1", "url": "https://www.kaigokensaku.mhlw.go.jp/16/index.php?action_kouhyou_detail_004_kani=true&JigyosyoCd=1670201597-00&ServiceCd=210&Type=search", "url2": "URL:http://www.shikino.or.jp/" }, "geometry": { "type": "Point", "coordinates": [ 137.030280700000048, 36.6778564 ] } },
{ "type": "Feature", "properties": { "内容": "サンケア高岡北【短期入所生活介護】富山県高岡市長江464-1", "url": "https://www.kaigokensaku.mhlw.go.jp/16/index.php?action_kouhyou_detail_004_kani=true&JigyosyoCd=1670202306-00&ServiceCd=210&Type=search", "url2": "http://www.suncare-life.com" }, "geometry": { "type": "Point", "coordinates": [ 136.982716179098475, 36.764833548634414 ] } },
{ "type": "Feature", "properties": { "内容": "特別養護老人ホーム　あんどの里【短期入所生活介護】富山県魚津市仏田3468番地", "url": "https://www.kaigokensaku.mhlw.go.jp/16/index.php?action_kouhyou_detail_004_kani=true&JigyosyoCd=1670400678-00&ServiceCd=210&Type=search", "url2": "http://www.kaiboufukushi" }, "geometry": { "type": "Point", "coordinates": [ 137.406394800000044, 36.8418411 ] } },
{ "type": "Feature", "properties": { "内容": "特別養護老人ホームあんどの里【短期入所生活介護】富山県魚津市仏田3468番地特別養護老人ホームあんどの里", "url": "https://www.kaigokensaku.mhlw.go.jp/16/index.php?action_kouhyou_detail_004_kani=true&JigyosyoCd=1670400397-00&ServiceCd=210&Type=search", "url2": "https://www.kaiboufukushi.com/" }, "geometry": { "type": "Point", "coordinates": [ 137.4062227, 36.8417951 ] } },
{ "type": "Feature", "properties": { "内容": "新川ヴィーラショートステイ【短期入所生活介護】富山県魚津市大光寺４５０番地", "url": "https://www.kaigokensaku.mhlw.go.jp/16/index.php?action_kouhyou_detail_004_kani=true&JigyosyoCd=1670400074-00&ServiceCd=210&Type=search", "url2": "http://niikawa-fukushi.net/" }, "geometry": { "type": "Point", "coordinates": [ 137.410218399999962, 36.8102051 ] } },
{ "type": "Feature", "properties": { "内容": "特別養護老人ホーム氷見苑【短期入所生活介護】富山県氷見市薮田2063番地", "url": "https://www.kaigokensaku.mhlw.go.jp/16/index.php?action_kouhyou_detail_004_kani=true&JigyosyoCd=1670500428-00&ServiceCd=210&Type=search", "url2": "http://www.himien.jp" }, "geometry": { "type": "Point", "coordinates": [ 136.997758699999963, 36.892973499999982 ] } },
{ "type": "Feature", "properties": { "内容": "特別養護老人ホームはまなす苑氷見【短期入所生活介護】富山県氷見市島尾791番地特別養護老人ホームはまなす苑氷見", "url": "https://www.kaigokensaku.mhlw.go.jp/16/index.php?action_kouhyou_detail_004_kani=true&JigyosyoCd=1670500139-00&ServiceCd=210&Type=search", "url2": "https://www.hamanasu-himi.jp/" }, "geometry": { "type": "Point", "coordinates": [ 137.010634500000037, 36.8240264 ] } },
{ "type": "Feature", "properties": { "内容": "特別養護老人ホーム　ほのぼの苑【短期入所生活介護】富山県氷見市加納495-1", "url": "https://www.kaigokensaku.mhlw.go.jp/16/index.php?action_kouhyou_detail_004_kani=true&JigyosyoCd=1670500295-00&ServiceCd=210&Type=search", "url2": "http://www.hakuju-kai.jp/" }, "geometry": { "type": "Point", "coordinates": [ 136.971682099999953, 36.8625246 ] } },
{ "type": "Feature", "properties": { "内容": "特別養護老人ホームつまま園【短期入所生活介護】氷見市阿尾４１０番地", "url": "https://www.kaigokensaku.mhlw.go.jp/16/index.php?action_kouhyou_detail_004_kani=true&JigyosyoCd=1670500089-00&ServiceCd=210&Type=search", "url2": "https://himifukushikai.com/" }, "geometry": { "type": "Point", "coordinates": [ 136.98098559999994, 36.887549 ] } },
{ "type": "Feature", "properties": { "内容": "特別養護老人ホームすわ苑【短期入所生活介護】富山県氷見市柳田字諏訪野3892番地の1", "url": "https://www.kaigokensaku.mhlw.go.jp/16/index.php?action_kouhyou_detail_004_kani=true&JigyosyoCd=1670500097-00&ServiceCd=210&Type=search", "url2": "https://himifukushikai.com/" }, "geometry": { "type": "Point", "coordinates": [ 136.994355700000028, 36.8299775 ] } },
{ "type": "Feature", "properties": { "内容": "特別養護老人ホームつまま圓たぶの里【短期入所生活介護】阿尾４１０番地", "url": "https://www.kaigokensaku.mhlw.go.jp/16/index.php?action_kouhyou_detail_004_kani=true&JigyosyoCd=1670500683-00&ServiceCd=210&Type=search", "url2": "https://himifukushikai.com/" }, "geometry": { "type": "Point", "coordinates": [ 136.98098559999994, 36.887549 ] } },
{ "type": "Feature", "properties": { "内容": "氷見鶴寿苑　ショートステイ【短期入所生活介護】富山県氷見市鞍川1902-4", "url": "https://www.kaigokensaku.mhlw.go.jp/16/index.php?action_kouhyou_detail_004_kani=true&JigyosyoCd=1670500725-00&ServiceCd=210&Type=search", "url2": "https://sanpuku.meijukai.com" }, "geometry": { "type": "Point", "coordinates": [ 136.958604197531173, 36.850758939589525 ] } },
{ "type": "Feature", "properties": { "内容": "ジェイエイヒミシユイノサト【短期入所生活介護】富山県氷見市窪1908番の1", "url": "https://www.kaigokensaku.mhlw.go.jp/16/index.php?action_kouhyou_detail_004_kani=true&JigyosyoCd=1670500451-00&ServiceCd=210&Type=search", "url2": "https://himi.ja-toyama.jp/" }, "geometry": { "type": "Point", "coordinates": [ 136.994422963151578, 36.837837809309946 ] } },
{ "type": "Feature", "properties": { "内容": "特別養護老人ホーム清寿荘【短期入所生活介護】富山県滑川市赤浜５７３番地の１", "url": "https://www.kaigokensaku.mhlw.go.jp/16/index.php?action_kouhyou_detail_004_kani=true&JigyosyoCd=1670600046-00&ServiceCd=210&Type=search", "url2": "care-net.biz/16/seijusou" }, "geometry": { "type": "Point", "coordinates": [ 137.3640236, 36.735293 ] } },
{ "type": "Feature", "properties": { "内容": "特別養護老人ホームカモメ荘【短期入所生活介護】滑川市吉浦13番地", "url": "https://www.kaigokensaku.mhlw.go.jp/16/index.php?action_kouhyou_detail_004_kani=true&JigyosyoCd=1670600111-00&ServiceCd=210&Type=search", "url2": "https://care-net.biz/16/kouwakai/" }, "geometry": { "type": "Point", "coordinates": [ 137.37204220000001, 36.7925923 ] } },
{ "type": "Feature", "properties": { "内容": "特別養護老人ホーム越野荘【短期入所生活介護】富山県黒部市若栗2111", "url": "https://www.kaigokensaku.mhlw.go.jp/16/index.php?action_kouhyou_detail_004_kani=true&JigyosyoCd=1670700085-00&ServiceCd=210&Type=search", "url2": "http://koshinosou.e/294.net" }, "geometry": { "type": "Point", "coordinates": [ 137.488287, 36.8658266 ] } },
{ "type": "Feature", "properties": { "内容": "富山型デイサービスしばんばの里　こもれび【短期入所生活介護】生地芦区34番地", "url": "https://www.kaigokensaku.mhlw.go.jp/16/index.php?action_kouhyou_detail_004_kani=true&JigyosyoCd=1680700026-00&ServiceCd=210&Type=search", "url2": "http://www.webes.jp/sibanba/" }, "geometry": { "type": "Point", "coordinates": [ 137.4185738, 36.8972321 ] } },
{ "type": "Feature", "properties": { "内容": "特別養護老人ホ－ム越之湖【短期入所生活介護】富山県黒部市堀切1002番地", "url": "https://www.kaigokensaku.mhlw.go.jp/16/index.php?action_kouhyou_detail_004_kani=true&JigyosyoCd=1670700127-00&ServiceCd=210&Type=search", "url2": "http://koshinoko.e-294.net/" }, "geometry": { "type": "Point", "coordinates": [ 137.424657199999956, 36.8806373 ] } },
{ "type": "Feature", "properties": { "内容": "特別養護老人ホーム越野荘（介護予防）短期入所生活介護【短期入所生活介護】富山県黒部市若栗2111番地", "url": "https://www.kaigokensaku.mhlw.go.jp/16/index.php?action_kouhyou_detail_004_kani=true&JigyosyoCd=1670700507-00&ServiceCd=210&Type=search", "url2": "http://koshinosou.e-294.net/" }, "geometry": { "type": "Point", "coordinates": [ 137.488287, 36.8658266 ] } },
{ "type": "Feature", "properties": { "内容": "特別養護老人ホームおらはうす宇奈月【短期入所生活介護】富山県黒部市宇奈月町下立３７番地", "url": "https://www.kaigokensaku.mhlw.go.jp/16/index.php?action_kouhyou_detail_004_kani=true&JigyosyoCd=1671700159-00&ServiceCd=210&Type=search", "url2": "http://orahausu.jimdo.com/" }, "geometry": { "type": "Point", "coordinates": [ 137.526713800000039, 36.8642892 ] } },
{ "type": "Feature", "properties": { "内容": "特別養護老人ホーム　砺波ふれあいの杜【短期入所生活介護】富山県砺波市神島７５６－１", "url": "https://www.kaigokensaku.mhlw.go.jp/16/index.php?action_kouhyou_detail_004_kani=true&JigyosyoCd=1670800299-00&ServiceCd=210&Type=search", "url2": "http://www.furemori.com" }, "geometry": { "type": "Point", "coordinates": [ 136.939355400000068, 36.6358074 ] } },
{ "type": "Feature", "properties": { "内容": "特別養護老人ホームやなぜ苑【短期入所生活介護】富山県砺波市柳瀬３番地", "url": "https://www.kaigokensaku.mhlw.go.jp/16/index.php?action_kouhyou_detail_004_kani=true&JigyosyoCd=1670800240-00&ServiceCd=210&Type=search", "url2": "http://yanaze.org/" }, "geometry": { "type": "Point", "coordinates": [ 136.995847199999957, 36.6471732 ] } },
{ "type": "Feature", "properties": { "内容": "花かごショートステイ【短期入所生活介護】富山県小矢部市桜町1800番地", "url": "https://www.kaigokensaku.mhlw.go.jp/16/index.php?action_kouhyou_detail_004_kani=true&JigyosyoCd=1680900030-00&ServiceCd=210&Type=search", "url2": "http://website2.infomity.net/8280026/post_1.html" }, "geometry": { "type": "Point", "coordinates": [ 136.87268819999997, 36.6854572 ] } },
{ "type": "Feature", "properties": { "内容": "特別養護老人ホームほっとはうす千羽【短期入所生活介護】富山県小矢部市浅地121", "url": "https://www.kaigokensaku.mhlw.go.jp/16/index.php?action_kouhyou_detail_004_kani=true&JigyosyoCd=1670900537-00&ServiceCd=210&Type=search", "url2": "http://www.hot-senba.net/" }, "geometry": { "type": "Point", "coordinates": [ 136.8765158, 36.6242747 ] } },
{ "type": "Feature", "properties": { "内容": "ほっとはうす千羽短期入所生活介護【短期入所生活介護】富山県小矢部市浅地１２１", "url": "https://www.kaigokensaku.mhlw.go.jp/16/index.php?action_kouhyou_detail_004_kani=true&JigyosyoCd=1670900099-00&ServiceCd=210&Type=search", "url2": "http://www.hot-senba.net/" }, "geometry": { "type": "Point", "coordinates": [ 136.875473, 36.6233822 ] } },
{ "type": "Feature", "properties": { "内容": "特別養護老人ホーム清楽園【短期入所生活介護】富山県小矢部市法楽寺1800番地の1", "url": "https://www.kaigokensaku.mhlw.go.jp/16/index.php?action_kouhyou_detail_004_kani=true&JigyosyoCd=1670900115-00&ServiceCd=210&Type=search", "url2": "https://seirakuen.site/" }, "geometry": { "type": "Point", "coordinates": [ 136.873839112828023, 36.695008925565347 ] } },
{ "type": "Feature", "properties": { "内容": "特別養護老人ホームいなみ【短期入所生活介護】富山県南砺市井波１３１０番地１", "url": "https://www.kaigokensaku.mhlw.go.jp/16/index.php?action_kouhyou_detail_004_kani=true&JigyosyoCd=1672000286-00&ServiceCd=210&Type=search", "url2": "http://fukuju.jp" }, "geometry": { "type": "Point", "coordinates": [ 136.9760731, 36.5678305 ] } },
{ "type": "Feature", "properties": { "内容": "特別養護老人ホーム　福寿園【短期入所生活介護】富山県南砺市松原678番地1", "url": "https://www.kaigokensaku.mhlw.go.jp/16/index.php?action_kouhyou_detail_004_kani=true&JigyosyoCd=1672000146-00&ServiceCd=210&Type=search", "url2": "http://fukuju.jp/" }, "geometry": { "type": "Point", "coordinates": [ 136.928743299999951, 36.5962314 ] } },
{ "type": "Feature", "properties": { "内容": "特別養護老人ホーム　やすらぎ荘【短期入所生活介護】富山県南砺市天池１５７０番地", "url": "https://www.kaigokensaku.mhlw.go.jp/16/index.php?action_kouhyou_detail_004_kani=true&JigyosyoCd=1672100052-00&ServiceCd=210&Type=search", "url2": "http://fukuju.jp/" }, "geometry": { "type": "Point", "coordinates": [ 136.886369, 36.5400488 ] } },
{ "type": "Feature", "properties": { "内容": "特別養護老人ホームきらら【短期入所生活介護】富山県南砺市理休247番地の1", "url": "https://www.kaigokensaku.mhlw.go.jp/16/index.php?action_kouhyou_detail_004_kani=true&JigyosyoCd=1671000329-00&ServiceCd=210&Type=search", "url2": "http://fukuju.jp" }, "geometry": { "type": "Point", "coordinates": [ 136.910315920901439, 36.512119192380609 ] } },
{ "type": "Feature", "properties": { "内容": "特別養護老人ホーム　七美ことぶき苑【短期入所生活介護】富山県射水市七美８９１番地", "url": "https://www.kaigokensaku.mhlw.go.jp/16/index.php?action_kouhyou_detail_004_kani=true&JigyosyoCd=1670300092-00&ServiceCd=210&Type=search", "url2": "http://shitimi-kotobukien.com/" }, "geometry": { "type": "Point", "coordinates": [ 137.142372799999947, 36.7522429 ] } },
{ "type": "Feature", "properties": { "内容": "特別養護老人ホーム　射水万葉苑【短期入所生活介護】富山県射水市朴木２１１番地の１", "url": "https://www.kaigokensaku.mhlw.go.jp/16/index.php?action_kouhyou_detail_004_kani=true&JigyosyoCd=1670300068-00&ServiceCd=210&Type=search", "url2": "http://www.imizu-manyoukai.or.jp" }, "geometry": { "type": "Point", "coordinates": [ 137.078659900000048, 36.759302 ] } },
{ "type": "Feature", "properties": { "内容": "くるみショートケア【短期入所生活介護】富山県射水市大島北野４８", "url": "https://www.kaigokensaku.mhlw.go.jp/16/index.php?action_kouhyou_detail_004_kani=true&JigyosyoCd=1671900213-00&ServiceCd=210&Type=search", "url2": "http://www.kurumi.or.jp/" }, "geometry": { "type": "Point", "coordinates": [ 137.052226499999961, 36.7450864 ] } },
{ "type": "Feature", "properties": { "内容": "特別養護老人ホーム　こぶし園【短期入所生活介護】富山県射水市中村20番地", "url": "https://www.kaigokensaku.mhlw.go.jp/16/index.php?action_kouhyou_detail_004_kani=true&JigyosyoCd=1671900072-00&ServiceCd=210&Type=search", "url2": "https://www.kobushi-en.com" }, "geometry": { "type": "Point", "coordinates": [ 137.056160200000022, 36.7229811 ] } },
{ "type": "Feature", "properties": { "内容": "特別養護老人ホームすずらん【短期入所生活介護】富山県射水市大島北野３３", "url": "https://www.kaigokensaku.mhlw.go.jp/16/index.php?action_kouhyou_detail_004_kani=true&JigyosyoCd=1671900239-00&ServiceCd=210&Type=search", "url2": "https://suzuran-imizu.jp/" }, "geometry": { "type": "Point", "coordinates": [ 137.052923700000065, 36.7445059 ] } },
{ "type": "Feature", "properties": { "内容": "海王ショートステイ【短期入所生活介護】富山県射水市海王町25番地", "url": "https://www.kaigokensaku.mhlw.go.jp/16/index.php?action_kouhyou_detail_004_kani=true&JigyosyoCd=1671100806-00&ServiceCd=210&Type=search", "url2": "https://kaiyuukai.com" }, "geometry": { "type": "Point", "coordinates": [ 137.107070599999986, 36.7774225 ] } },
{ "type": "Feature", "properties": { "内容": "特別養護老人ホーム　大江苑【短期入所生活介護】富山県射水市大江３３３番地の１", "url": "https://www.kaigokensaku.mhlw.go.jp/16/index.php?action_kouhyou_detail_004_kani=true&JigyosyoCd=1671900114-00&ServiceCd=210&Type=search", "url2": "https://kosugifukushikai.jp/oogoen/" }, "geometry": { "type": "Point", "coordinates": [ 137.1151734, 36.7283541 ] } },
{ "type": "Feature", "properties": { "内容": "特別養護老人ホーム　太閤の杜【短期入所生活介護】富山県射水市中太閤山18丁目1番地の2", "url": "https://www.kaigokensaku.mhlw.go.jp/16/index.php?action_kouhyou_detail_004_kani=true&JigyosyoCd=1671100145-00&ServiceCd=210&Type=search", "url2": null }, "geometry": { "type": "Point", "coordinates": [ 137.089466099999981, 36.6996346 ] } },
{ "type": "Feature", "properties": { "内容": "特別養護老人ホーム　大江苑【短期入所生活介護】射水市大江３３３－１", "url": "https://www.kaigokensaku.mhlw.go.jp/16/index.php?action_kouhyou_detail_004_kani=true&JigyosyoCd=1671100467-00&ServiceCd=210&Type=search", "url2": "http://kosugifukushikai:jp/" }, "geometry": { "type": "Point", "coordinates": [ 137.115200222090124, 36.728328303159721 ] } },
{ "type": "Feature", "properties": { "内容": "特別養護老人ホームエスポワールこすぎ【短期入所生活介護】富山県射水市池多８２２いけだの里", "url": "https://www.kaigokensaku.mhlw.go.jp/16/index.php?action_kouhyou_detail_004_kani=true&JigyosyoCd=1671900098-00&ServiceCd=210&Type=search", "url2": "http://www.kosugihukushikai.jp/" }, "geometry": { "type": "Point", "coordinates": [ 137.109724799999981, 36.6847427 ] } },
{ "type": "Feature", "properties": { "内容": "特別養護老人ホームエスポワールこすぎ【短期入所生活介護】富山県射水市池多８２２白鳥の里", "url": "https://www.kaigokensaku.mhlw.go.jp/16/index.php?action_kouhyou_detail_004_kani=true&JigyosyoCd=1671100442-00&ServiceCd=210&Type=search", "url2": "http://kosugihukushikai.jp/" }, "geometry": { "type": "Point", "coordinates": [ 137.109644333729563, 36.684424357759617 ] } },
{ "type": "Feature", "properties": { "内容": "特別養護老人ホーム　ふなはし荘【短期入所生活介護】富山県中新川郡舟橋村舟橋５８番地１", "url": "https://www.kaigokensaku.mhlw.go.jp/16/index.php?action_kouhyou_detail_004_kani=true&JigyosyoCd=1671600318-00&ServiceCd=210&Type=search", "url2": "http://www.care-net.biz/16/funahashisou/" }, "geometry": { "type": "Point", "coordinates": [ 137.310915199999954, 36.709439 ] } },
{ "type": "Feature", "properties": { "内容": "特別養護老人ホーム常楽園【短期入所生活介護】富山県中新川郡上市町舘２０９", "url": "https://www.kaigokensaku.mhlw.go.jp/16/index.php?action_kouhyou_detail_004_kani=true&JigyosyoCd=1671600193-00&ServiceCd=210&Type=search", "url2": "http://www.seimaria.jp/jyorakuen/" }, "geometry": { "type": "Point", "coordinates": [ 137.363147700000013, 36.6728135 ] } },
{ "type": "Feature", "properties": { "内容": "特別養護老人ホーム竜ヶ浜荘【短期入所生活介護】富山県中新川郡立山町末上野字竜ヶ浜119番地", "url": "https://www.kaigokensaku.mhlw.go.jp/16/index.php?action_kouhyou_detail_004_kani=true&JigyosyoCd=1671600227-00&ServiceCd=210&Type=search", "url2": "http://www.ryugahama.jp" }, "geometry": { "type": "Point", "coordinates": [ 137.334689499999968, 36.650471100000011 ] } },
{ "type": "Feature", "properties": { "内容": "特別養護老人ホームおあしす新川　ユニット型【短期入所生活介護】富山県下新川郡入善町上野2803", "url": "https://www.kaigokensaku.mhlw.go.jp/16/index.php?action_kouhyou_detail_004_kani=true&JigyosyoCd=1671700563-00&ServiceCd=210&Type=search", "url2": "http://oasis-niikawa.jp/" }, "geometry": { "type": "Point", "coordinates": [ 137.502483799999936, 36.924679 ] } },
{ "type": "Feature", "properties": { "内容": "舟見寿楽苑　老人短期保護事業所【短期入所生活介護】富山県下新川郡入善町舟見１６６４番地", "url": "https://www.kaigokensaku.mhlw.go.jp/16/index.php?action_kouhyou_detail_004_kani=true&JigyosyoCd=1671700068-00&ServiceCd=210&Type=search", "url2": "http://www.funamijurakuen.jp/" }, "geometry": { "type": "Point", "coordinates": [ 137.5595303, 36.8779188 ] } },
{ "type": "Feature", "properties": { "内容": "特別養護老人ホーム　おあしす新川【短期入所生活介護】富山県下新川郡入善町上野２８０３", "url": "https://www.kaigokensaku.mhlw.go.jp/16/index.php?action_kouhyou_detail_004_kani=true&JigyosyoCd=1671700225-00&ServiceCd=210&Type=search", "url2": "http://oasis-niikawa.jp/" }, "geometry": { "type": "Point", "coordinates": [ 137.5023589, 36.9246901 ] } },
{ "type": "Feature", "properties": { "内容": "舟見寿楽苑　老人短期保護事業所【短期入所生活介護】富山県下新川郡入善町舟見１６６４番地", "url": "https://www.kaigokensaku.mhlw.go.jp/16/index.php?action_kouhyou_detail_004_kani=true&JigyosyoCd=1671700126-00&ServiceCd=210&Type=search", "url2": "http://www.funamijurakuen.jp/" }, "geometry": { "type": "Point", "coordinates": [ 137.559228600000012, 36.8780972 ] } },
{ "type": "Feature", "properties": { "内容": "特別養護老人ホーム　有磯苑【短期入所生活介護】富山県下新川郡朝日町泊555番地", "url": "https://www.kaigokensaku.mhlw.go.jp/16/index.php?action_kouhyou_detail_004_kani=true&JigyosyoCd=1671700118-00&ServiceCd=210&Type=search", "url2": "http://www.arisokai.jp/" }, "geometry": { "type": "Point", "coordinates": [ 137.5631932, 36.9620405 ] } },
{ "type": "Feature", "properties": { "内容": "特別養護老人ホーム　有磯苑（ユニット型）【短期入所生活介護】富山県下新川郡朝日町泊555", "url": "https://www.kaigokensaku.mhlw.go.jp/16/index.php?action_kouhyou_detail_004_kani=true&JigyosyoCd=1671700522-00&ServiceCd=210&Type=search", "url2": "http://www.arisokai.jp/" }, "geometry": { "type": "Point", "coordinates": [ 137.5631932, 36.9620405 ] } }
]
}
