{
"type": "FeatureCollection",
"name": "geo_16_訪問リハビリテーション",
"crs": { "type": "name", "properties": { "name": "urn:ogc:def:crs:OGC:1.3:CRS84" } },
"features": [
{ "type": "Feature", "properties": { "内容": "医療法人社団　萩野医院【訪問リハビリテーション】富山県富山市八尾町福島4-151", "url2": "https://www.kaigokensaku.mhlw.go.jp/16/index.php?action_kouhyou_detail_004_kani=true&JigyosyoCd=1610117382-00&ServiceCd=140&Type=search" }, "geometry": { "type": "Point", "coordinates": [ 137.140403399999968, 36.5922522 ] } },
{ "type": "Feature", "properties": { "内容": "波動歯科診療所【訪問リハビリテーション】富山県富山市草島63-1", "url2": "https://www.kaigokensaku.mhlw.go.jp/16/index.php?action_kouhyou_detail_004_kani=true&JigyosyoCd=1630134359-00&ServiceCd=140&Type=search" }, "geometry": { "type": "Point", "coordinates": [ 137.207990099999961, 36.7466318 ] } },
{ "type": "Feature", "properties": { "内容": "介護老人保健施設仁泉メディケア【訪問リハビリテーション】富山市手屋2丁目135-1", "url2": "https://www.kaigokensaku.mhlw.go.jp/16/index.php?action_kouhyou_detail_004_kani=true&JigyosyoCd=1650180159-00&ServiceCd=140&Type=search" }, "geometry": { "type": "Point", "coordinates": [ 137.269549200000029, 36.7211364 ] } },
{ "type": "Feature", "properties": { "内容": "特定医療法人財団博仁会　横田記念病院【訪問リハビリテーション】富山県富山市中野新町1-1-11", "url2": "https://www.kaigokensaku.mhlw.go.jp/16/index.php?action_kouhyou_detail_004_kani=true&JigyosyoCd=1610113365-00&ServiceCd=140&Type=search" }, "geometry": { "type": "Point", "coordinates": [ 137.214888400000063, 36.6837898 ] } },
{ "type": "Feature", "properties": { "内容": "清幸会島田病院【訪問リハビリテーション】富山県富山市下新北町6番52号", "url2": "https://www.kaigokensaku.mhlw.go.jp/16/index.php?action_kouhyou_detail_004_kani=true&JigyosyoCd=1610116210-00&ServiceCd=140&Type=search" }, "geometry": { "type": "Point", "coordinates": [ 137.219516800000065, 36.7169437 ] } },
{ "type": "Feature", "properties": { "内容": "介護老人保健施設アメニティ月岡【訪問リハビリテーション】富山県富山市月岡町2丁目189番地", "url2": "https://www.kaigokensaku.mhlw.go.jp/16/index.php?action_kouhyou_detail_004_kani=true&JigyosyoCd=1650180175-00&ServiceCd=140&Type=search" }, "geometry": { "type": "Point", "coordinates": [ 137.263965500000012, 36.6246094 ] } },
{ "type": "Feature", "properties": { "内容": "アルペンリハビリテーション病院　訪問リハビリテーション【訪問リハビリテーション】富山県富山市楠木300", "url2": "https://www.kaigokensaku.mhlw.go.jp/16/index.php?action_kouhyou_detail_004_kani=true&JigyosyoCd=1610118158-00&ServiceCd=140&Type=search" }, "geometry": { "type": "Point", "coordinates": [ 137.256952800000022, 36.7316903 ] } },
{ "type": "Feature", "properties": { "内容": "西能病院【訪問リハビリテーション】富山県富山市高田70番地", "url2": "https://www.kaigokensaku.mhlw.go.jp/16/index.php?action_kouhyou_detail_004_kani=true&JigyosyoCd=1610118588-00&ServiceCd=140&Type=search" }, "geometry": { "type": "Point", "coordinates": [ 137.1848357, 36.6848522 ] } },
{ "type": "Feature", "properties": { "内容": "老人保健施設シルバーケア栗山【訪問リハビリテーション】富山県富山市栗山字沢下割900", "url2": "https://www.kaigokensaku.mhlw.go.jp/16/index.php?action_kouhyou_detail_004_kani=true&JigyosyoCd=1650180076-00&ServiceCd=140&Type=search" }, "geometry": { "type": "Point", "coordinates": [ 137.206077, 36.622683 ] } },
{ "type": "Feature", "properties": { "内容": "富山医療生活協同組合　水橋診療所【訪問リハビリテーション】富山県富山市水橋舘町59-1", "url2": "https://www.kaigokensaku.mhlw.go.jp/16/index.php?action_kouhyou_detail_004_kani=true&JigyosyoCd=1610115014-00&ServiceCd=140&Type=search" }, "geometry": { "type": "Point", "coordinates": [ 137.312124400000016, 36.755442 ] } },
{ "type": "Feature", "properties": { "内容": "介護老人保健施設みどり苑訪問リハビリテーション【訪問リハビリテーション】富山県富山市秋ケ島146-1介護老人保健施設みどり苑", "url2": "https://www.kaigokensaku.mhlw.go.jp/16/index.php?action_kouhyou_detail_004_kani=true&JigyosyoCd=1670101706-00&ServiceCd=140&Type=search" }, "geometry": { "type": "Point", "coordinates": [ 137.193011299999966, 36.6446692 ] } },
{ "type": "Feature", "properties": { "内容": "富山西リハビリテーション病院【訪問リハビリテーション】富山県富山市婦中町下轡田1010", "url2": "https://www.kaigokensaku.mhlw.go.jp/16/index.php?action_kouhyou_detail_004_kani=true&JigyosyoCd=1610119248-00&ServiceCd=140&Type=search" }, "geometry": { "type": "Point", "coordinates": [ 137.173452200000042, 36.6594113 ] } },
{ "type": "Feature", "properties": { "内容": "いまいずみびょういん　ほうもんりはびりてーしょん【訪問リハビリテーション】富山県富山市今泉220番地", "url2": "https://www.kaigokensaku.mhlw.go.jp/16/index.php?action_kouhyou_detail_004_kani=true&JigyosyoCd=1610114314-00&ServiceCd=140&Type=search" }, "geometry": { "type": "Point", "coordinates": [ 137.212550099999987, 36.6688589 ] } },
{ "type": "Feature", "properties": { "内容": "うおざきファミリー病院【訪問リハビリテーション】富山県富山市千石町6-3-7", "url2": "https://www.kaigokensaku.mhlw.go.jp/16/index.php?action_kouhyou_detail_004_kani=true&JigyosyoCd=1610118513-00&ServiceCd=140&Type=search" }, "geometry": { "type": "Point", "coordinates": [ 137.2102928, 36.6834168 ] } },
{ "type": "Feature", "properties": { "内容": "佐伯病院【訪問リハビリテーション】富山県富山市中川原４３－１", "url2": "https://www.kaigokensaku.mhlw.go.jp/16/index.php?action_kouhyou_detail_004_kani=true&JigyosyoCd=1610118778-00&ServiceCd=140&Type=search" }, "geometry": { "type": "Point", "coordinates": [ 137.244631499999969, 36.6760853 ] } },
{ "type": "Feature", "properties": { "内容": "高重記念クリニック　訪問リハビリテーション事業所【訪問リハビリテーション】富山県富山市元町2丁目3番20号高重記念記念クリニック", "url2": "https://www.kaigokensaku.mhlw.go.jp/16/index.php?action_kouhyou_detail_004_kani=true&JigyosyoCd=1610118117-00&ServiceCd=140&Type=search" }, "geometry": { "type": "Point", "coordinates": [ 137.230331606745949, 36.688792588198872 ] } },
{ "type": "Feature", "properties": { "内容": "医療法人社団城南会富山城南病院【訪問リハビリテーション】富山市太郎丸本町一丁目8番1", "url2": "https://www.kaigokensaku.mhlw.go.jp/16/index.php?action_kouhyou_detail_004_kani=true&JigyosyoCd=1670114980-00&ServiceCd=140&Type=search" }, "geometry": { "type": "Point", "coordinates": [ 137.212149058137641, 36.677943931881323 ] } },
{ "type": "Feature", "properties": { "内容": "シルバーケア今泉【訪問リハビリテーション】富山市今泉218番地", "url2": "https://www.kaigokensaku.mhlw.go.jp/16/index.php?action_kouhyou_detail_004_kani=true&JigyosyoCd=1650180019-00&ServiceCd=140&Type=search" }, "geometry": { "type": "Point", "coordinates": [ 137.212167300000033, 36.6691613 ] } },
{ "type": "Feature", "properties": { "内容": "老人保健施設　チューリップ苑　訪問リハビリテーション【訪問リハビリテーション】富山県富山市長江五丁目４番３３号", "url2": "https://www.kaigokensaku.mhlw.go.jp/16/index.php?action_kouhyou_detail_004_kani=true&JigyosyoCd=1650180068-00&ServiceCd=140&Type=search" }, "geometry": { "type": "Point", "coordinates": [ 137.245369365467809, 36.687601141183968 ] } },
{ "type": "Feature", "properties": { "内容": "おおやま病院【訪問リハビリテーション】富山県富山市花崎85番地", "url2": "https://www.kaigokensaku.mhlw.go.jp/16/index.php?action_kouhyou_detail_004_kani=true&JigyosyoCd=1610117176-00&ServiceCd=140&Type=search" }, "geometry": { "type": "Point", "coordinates": [ 137.2809536, 36.6096914 ] } },
{ "type": "Feature", "properties": { "内容": "医療法人財団北聖会【訪問リハビリテーション】富山県富山市下冨居2丁目1-5", "url2": "https://www.kaigokensaku.mhlw.go.jp/16/index.php?action_kouhyou_detail_004_kani=true&JigyosyoCd=1610119362-00&ServiceCd=140&Type=search" }, "geometry": { "type": "Point", "coordinates": [ 137.234723081614675, 36.719068099905328 ] } },
{ "type": "Feature", "properties": { "内容": "介護老人保健施設シルバーケア羽根苑訪問リハビリテーション【訪問リハビリテーション】富山県富山市婦中町羽根1092番2", "url2": "https://www.kaigokensaku.mhlw.go.jp/16/index.php?action_kouhyou_detail_004_kani=true&JigyosyoCd=1650180134-00&ServiceCd=140&Type=search" }, "geometry": { "type": "Point", "coordinates": [ 137.140154419573946, 36.659256772240553 ] } },
{ "type": "Feature", "properties": { "内容": "松田内科クリニック【訪問リハビリテーション】新庄町158-1", "url2": "https://www.kaigokensaku.mhlw.go.jp/16/index.php?action_kouhyou_detail_004_kani=true&JigyosyoCd=1610117838-00&ServiceCd=140&Type=search" }, "geometry": { "type": "Point", "coordinates": [ 137.257951, 36.6958252 ] } },
{ "type": "Feature", "properties": { "内容": "富山医療生活協同組合　富山協立病院【訪問リハビリテーション】富山県富山市豊田町１丁目１－８", "url2": "https://www.kaigokensaku.mhlw.go.jp/16/index.php?action_kouhyou_detail_004_kani=true&JigyosyoCd=1610112607-00&ServiceCd=140&Type=search" }, "geometry": { "type": "Point", "coordinates": [ 137.232906960049377, 36.724467604672917 ] } },
{ "type": "Feature", "properties": { "内容": "富山市二俣３８２【訪問リハビリテーション】富山県富山市二俣３８２", "url2": "https://www.kaigokensaku.mhlw.go.jp/16/index.php?action_kouhyou_detail_004_kani=true&JigyosyoCd=1610119719-00&ServiceCd=140&Type=search" }, "geometry": { "type": "Point", "coordinates": [ 137.2147996, 36.6478517 ] } },
{ "type": "Feature", "properties": { "内容": "介護老人保健施設ささづ苑かがやき【訪問リハビリテーション】春日362ｰ1", "url2": "https://www.kaigokensaku.mhlw.go.jp/16/index.php?action_kouhyou_detail_004_kani=true&JigyosyoCd=1650180209-00&ServiceCd=140&Type=search" }, "geometry": { "type": "Point", "coordinates": [ 137.21284, 36.69451 ] } },
{ "type": "Feature", "properties": { "内容": "介護老人保健施設シルバーケア城南【訪問リハビリテーション】富山県富山市太郎丸西町一丁目6番6", "url2": "https://www.kaigokensaku.mhlw.go.jp/16/index.php?action_kouhyou_detail_004_kani=true&JigyosyoCd=1650180118-00&ServiceCd=140&Type=search" }, "geometry": { "type": "Point", "coordinates": [ 137.209456100000011, 36.677335 ] } },
{ "type": "Feature", "properties": { "内容": "介護老人保健施設おおぞら【訪問リハビリテーション】富山県高岡市京田490番地", "url2": "https://www.kaigokensaku.mhlw.go.jp/16/index.php?action_kouhyou_detail_004_kani=true&JigyosyoCd=1650280017-00&ServiceCd=140&Type=search" }, "geometry": { "type": "Point", "coordinates": [ 137.0172973, 36.728266 ] } },
{ "type": "Feature", "properties": { "内容": "老人保健施設さくら苑【訪問リハビリテーション】富山県高岡市福岡町大１４５", "url2": "https://www.kaigokensaku.mhlw.go.jp/16/index.php?action_kouhyou_detail_004_kani=true&JigyosyoCd=1652180009-00&ServiceCd=140&Type=search" }, "geometry": { "type": "Point", "coordinates": [ 136.935856, 36.719635 ] } },
{ "type": "Feature", "properties": { "内容": "老人保健施設しきのケアセンター【訪問リハビリテーション】富山県高岡市鷲北新480", "url2": "https://www.kaigokensaku.mhlw.go.jp/16/index.php?action_kouhyou_detail_004_kani=true&JigyosyoCd=1650280041-00&ServiceCd=140&Type=search" }, "geometry": { "type": "Point", "coordinates": [ 137.0373366, 36.7666303 ] } },
{ "type": "Feature", "properties": { "内容": "医療法人社団研医会高岡駅南クリニック【訪問リハビリテーション】富山県高岡市駅南3-1-8", "url2": "https://www.kaigokensaku.mhlw.go.jp/16/index.php?action_kouhyou_detail_004_kani=true&JigyosyoCd=1610212985-00&ServiceCd=140&Type=search" }, "geometry": { "type": "Point", "coordinates": [ 137.016518899999937, 36.7383676 ] } },
{ "type": "Feature", "properties": { "内容": "医療法人高岡みなみハートセンター　みなみの杜病院【訪問リハビリテーション】富山県高岡市戸出町３丁目１４番２４号", "url2": "https://www.kaigokensaku.mhlw.go.jp/16/index.php?action_kouhyou_detail_004_kani=true&JigyosyoCd=1610213876-00&ServiceCd=140&Type=search" }, "geometry": { "type": "Point", "coordinates": [ 136.977737100000013, 36.681174 ] } },
{ "type": "Feature", "properties": { "内容": "訪問リハビリ　光ヶ丘【訪問リハビリテーション】富山県高岡市西藤平蔵313", "url2": "https://www.kaigokensaku.mhlw.go.jp/16/index.php?action_kouhyou_detail_004_kani=true&JigyosyoCd=1670201506-00&ServiceCd=140&Type=search" }, "geometry": { "type": "Point", "coordinates": [ 136.985816800000066, 36.7072474 ] } },
{ "type": "Feature", "properties": { "内容": "きぼう訪問リハビリセンター【訪問リハビリテーション】富山県高岡市和田1055", "url2": "https://www.kaigokensaku.mhlw.go.jp/16/index.php?action_kouhyou_detail_004_kani=true&JigyosyoCd=1650280058-00&ServiceCd=140&Type=search" }, "geometry": { "type": "Point", "coordinates": [ 136.983398, 36.7350586 ] } },
{ "type": "Feature", "properties": { "内容": "アルカディア雨晴【訪問リハビリテーション】高岡市太田桜谷23番地1", "url2": "https://www.kaigokensaku.mhlw.go.jp/16/index.php?action_kouhyou_detail_004_kani=true&JigyosyoCd=1670201654-00&ServiceCd=140&Type=search" }, "geometry": { "type": "Point", "coordinates": [ 137.033544161268651, 36.814849699321215 ] } },
{ "type": "Feature", "properties": { "内容": "済生会高岡訪問リハビリテーション事業所【訪問リハビリテーション】二塚355-1", "url2": "https://www.kaigokensaku.mhlw.go.jp/16/index.php?action_kouhyou_detail_004_kani=true&JigyosyoCd=1610212605-00&ServiceCd=140&Type=search" }, "geometry": { "type": "Point", "coordinates": [ 137.0159435, 36.719798 ] } },
{ "type": "Feature", "properties": { "内容": "独立行政法人地域医療機能推進機構　高岡ふしき病院【訪問リハビリテーション】富山県高岡市伏木古府元町8-5", "url2": "https://www.kaigokensaku.mhlw.go.jp/16/index.php?action_kouhyou_detail_004_kani=true&JigyosyoCd=1610211987-00&ServiceCd=140&Type=search" }, "geometry": { "type": "Point", "coordinates": [ 137.045844100000011, 36.7902613 ] } },
{ "type": "Feature", "properties": { "内容": "やすらぎ訪問リハビリテーション【訪問リハビリテーション】富山県高岡市美幸町1丁目1番53号", "url2": "https://www.kaigokensaku.mhlw.go.jp/16/index.php?action_kouhyou_detail_004_kani=true&JigyosyoCd=1650280025-00&ServiceCd=140&Type=search" }, "geometry": { "type": "Point", "coordinates": [ 136.998072500000035, 36.7558292 ] } },
{ "type": "Feature", "properties": { "内容": "新川老人保健施設【訪問リハビリテーション】住吉236", "url2": "https://www.kaigokensaku.mhlw.go.jp/16/index.php?action_kouhyou_detail_004_kani=true&JigyosyoCd=1670400686-00&ServiceCd=140&Type=search" }, "geometry": { "type": "Point", "coordinates": [ 137.399404499999946, 36.8002485 ] } },
{ "type": "Feature", "properties": { "内容": "医療法人社団宮本内科小児科医院【訪問リハビリテーション】富山県魚津市新角川1-7-22", "url2": "https://www.kaigokensaku.mhlw.go.jp/16/index.php?action_kouhyou_detail_004_kani=true&JigyosyoCd=1610411025-00&ServiceCd=140&Type=search" }, "geometry": { "type": "Point", "coordinates": [ 137.3961385, 36.8122075 ] } },
{ "type": "Feature", "properties": { "内容": "魚津病院【訪問リハビリテーション】富山県魚津市友道789番地", "url2": "https://www.kaigokensaku.mhlw.go.jp/16/index.php?action_kouhyou_detail_004_kani=true&JigyosyoCd=1610410555-00&ServiceCd=140&Type=search" }, "geometry": { "type": "Point", "coordinates": [ 137.411204199999929, 36.8145575 ] } },
{ "type": "Feature", "properties": { "内容": "深川病院訪問リハビリテーション【訪問リハビリテーション】富山県魚津市東尾崎３４８４番１", "url2": "https://www.kaigokensaku.mhlw.go.jp/16/index.php?action_kouhyou_detail_004_kani=true&JigyosyoCd=1610410837-00&ServiceCd=140&Type=search" }, "geometry": { "type": "Point", "coordinates": [ 137.437997499999938, 36.8420481 ] } },
{ "type": "Feature", "properties": { "内容": "医療法人財団正友会中村記念病院【訪問リハビリテーション】富山県氷見市島尾825番地", "url2": "https://www.kaigokensaku.mhlw.go.jp/16/index.php?action_kouhyou_detail_004_kani=true&JigyosyoCd=1610510586-00&ServiceCd=140&Type=search" }, "geometry": { "type": "Point", "coordinates": [ 137.011472199999986, 36.8237881 ] } },
{ "type": "Feature", "properties": { "内容": "エルダー訪問リハビリ「ねぎらい」【訪問リハビリテーション】富山県氷見市余川南山５０", "url2": "https://www.kaigokensaku.mhlw.go.jp/16/index.php?action_kouhyou_detail_004_kani=true&JigyosyoCd=1650580010-00&ServiceCd=140&Type=search" }, "geometry": { "type": "Point", "coordinates": [ 136.951222199999961, 36.8828797 ] } },
{ "type": "Feature", "properties": { "内容": "老人保健施設　アルカディア氷見【訪問リハビリテーション】富山県氷見市鞍川1878-1", "url2": "https://www.kaigokensaku.mhlw.go.jp/16/index.php?action_kouhyou_detail_004_kani=true&JigyosyoCd=1670500535-00&ServiceCd=140&Type=search" }, "geometry": { "type": "Point", "coordinates": [ 136.958850200000029, 36.8503149 ] } },
{ "type": "Feature", "properties": { "内容": "金沢医科大学氷見市民病院【訪問リハビリテーション】富山県氷見市鞍川１１３０番地", "url2": "https://www.kaigokensaku.mhlw.go.jp/16/index.php?action_kouhyou_detail_004_kani=true&JigyosyoCd=1610510933-00&ServiceCd=140&Type=search" }, "geometry": { "type": "Point", "coordinates": [ 136.968057600000094, 36.8553644 ] } },
{ "type": "Feature", "properties": { "内容": "医療法人社団　秀林会　吉見病院【訪問リハビリテーション】富山県滑川市清水町３番２５号", "url2": "https://www.kaigokensaku.mhlw.go.jp/16/index.php?action_kouhyou_detail_004_kani=true&JigyosyoCd=1610610469-00&ServiceCd=140&Type=search" }, "geometry": { "type": "Point", "coordinates": [ 137.3437487, 36.7634206 ] } },
{ "type": "Feature", "properties": { "内容": "医療法人社団平成会桜井病院【訪問リハビリテーション】富山県黒部市荻生6675番地の5", "url2": "https://www.kaigokensaku.mhlw.go.jp/16/index.php?action_kouhyou_detail_004_kani=true&JigyosyoCd=1610710350-00&ServiceCd=140&Type=search" }, "geometry": { "type": "Point", "coordinates": [ 137.455349, 36.873269 ] } },
{ "type": "Feature", "properties": { "内容": "池田リハビリテーション病院　訪問リハビリテーション事業所【訪問リハビリテーション】富山県黒部市荻生821", "url2": "https://www.kaigokensaku.mhlw.go.jp/16/index.php?action_kouhyou_detail_004_kani=true&JigyosyoCd=1610710558-00&ServiceCd=140&Type=search" }, "geometry": { "type": "Point", "coordinates": [ 137.469502, 36.8878395 ] } },
{ "type": "Feature", "properties": { "内容": "ものがたり診療所【訪問リハビリテーション】富山県砺波市太田1382番地", "url2": "https://www.kaigokensaku.mhlw.go.jp/16/index.php?action_kouhyou_detail_004_kani=true&JigyosyoCd=1610810754-00&ServiceCd=140&Type=search" }, "geometry": { "type": "Point", "coordinates": [ 136.993070893806447, 36.627286169505489 ] } },
{ "type": "Feature", "properties": { "内容": "ものがたり診療所【訪問リハビリテーション】太田１３８２番地", "url2": "https://www.kaigokensaku.mhlw.go.jp/16/index.php?action_kouhyou_detail_004_kani=true&JigyosyoCd=1610810937-00&ServiceCd=140&Type=search" }, "geometry": { "type": "Point", "coordinates": [ 139.3760432, 36.2909373 ] } },
{ "type": "Feature", "properties": { "内容": "中川整形外科クリニック【訪問リハビリテーション】富山県小矢部市綾子3978", "url2": "https://www.kaigokensaku.mhlw.go.jp/16/index.php?action_kouhyou_detail_004_kani=true&JigyosyoCd=1610910547-00&ServiceCd=140&Type=search" }, "geometry": { "type": "Point", "coordinates": [ 136.8634978, 36.6693758 ] } },
{ "type": "Feature", "properties": { "内容": "公立学校共済組合北陸中央病院【訪問リハビリテーション】富山県小矢部市野寺123", "url2": "https://www.kaigokensaku.mhlw.go.jp/16/index.php?action_kouhyou_detail_004_kani=true&JigyosyoCd=1610910489-00&ServiceCd=140&Type=search" }, "geometry": { "type": "Point", "coordinates": [ 136.8907289, 36.6650737 ] } },
{ "type": "Feature", "properties": { "内容": "にしの老人保健施設訪問リハビリテーション【訪問リハビリテーション】富山県小矢部市本町3-38", "url2": "https://www.kaigokensaku.mhlw.go.jp/16/index.php?action_kouhyou_detail_004_kani=true&JigyosyoCd=1650980004-00&ServiceCd=140&Type=search" }, "geometry": { "type": "Point", "coordinates": [ 136.866519599999947, 36.6748251 ] } },
{ "type": "Feature", "properties": { "内容": "介護老人保健施設ゆうゆうハウス【訪問リハビリテーション】富山県小矢部市島３２２", "url2": "https://www.kaigokensaku.mhlw.go.jp/16/index.php?action_kouhyou_detail_004_kani=true&JigyosyoCd=1650980012-00&ServiceCd=140&Type=search" }, "geometry": { "type": "Point", "coordinates": [ 136.876118590213053, 36.666238437642029 ] } },
{ "type": "Feature", "properties": { "内容": "介護老人保健施設　城端うらら【訪問リハビリテーション】富山県南砺市理休270番地", "url2": "https://www.kaigokensaku.mhlw.go.jp/16/index.php?action_kouhyou_detail_004_kani=true&JigyosyoCd=1652080019-00&ServiceCd=140&Type=search" }, "geometry": { "type": "Point", "coordinates": [ 136.908439499999986, 36.5126387 ] } },
{ "type": "Feature", "properties": { "内容": "山田医院【訪問リハビリテーション】富山県射水市三ヶ835", "url2": "https://www.kaigokensaku.mhlw.go.jp/16/index.php?action_kouhyou_detail_004_kani=true&JigyosyoCd=1611910629-00&ServiceCd=140&Type=search" }, "geometry": { "type": "Point", "coordinates": [ 137.0990782, 36.7250512 ] } },
{ "type": "Feature", "properties": { "内容": "矢野神経内科医院訪問リハビリテーション【訪問リハビリテーション】富山県射水市本町1-13-1", "url2": "https://www.kaigokensaku.mhlw.go.jp/16/index.php?action_kouhyou_detail_004_kani=true&JigyosyoCd=1611911163-00&ServiceCd=140&Type=search" }, "geometry": { "type": "Point", "coordinates": [ 137.07433160000005, 36.7831467 ] } },
{ "type": "Feature", "properties": { "内容": "老人保健施設みしま野苑一穂【訪問リハビリテーション】富山県射水市三ケ508", "url2": "https://www.kaigokensaku.mhlw.go.jp/16/index.php?action_kouhyou_detail_004_kani=true&JigyosyoCd=1651980003-00&ServiceCd=140&Type=search" }, "geometry": { "type": "Point", "coordinates": [ 137.1003619, 36.7261166 ] } },
{ "type": "Feature", "properties": { "内容": "上市老人保健施設つるぎの庭訪問リハビリテーション【訪問リハビリテーション】富山県中新川郡上市町森尻704番地", "url2": "https://www.kaigokensaku.mhlw.go.jp/16/index.php?action_kouhyou_detail_004_kani=true&JigyosyoCd=1651680017-00&ServiceCd=140&Type=search" }, "geometry": { "type": "Point", "coordinates": [ 137.354818, 36.717951400000011 ] } },
{ "type": "Feature", "properties": { "内容": "かみいち総合病院【訪問リハビリテーション】富山県中新川郡上市町法音寺５１番地", "url2": "https://www.kaigokensaku.mhlw.go.jp/16/index.php?action_kouhyou_detail_004_kani=true&JigyosyoCd=1611610211-00&ServiceCd=140&Type=search" }, "geometry": { "type": "Point", "coordinates": [ 137.3612359, 36.702958 ] } },
{ "type": "Feature", "properties": { "内容": "老人保健施設　ケアホーム陽風の里【訪問リハビリテーション】富山県中新川郡立山町大石原254番地", "url2": "https://www.kaigokensaku.mhlw.go.jp/16/index.php?action_kouhyou_detail_004_kani=true&JigyosyoCd=1671600946-00&ServiceCd=140&Type=search" }, "geometry": { "type": "Point", "coordinates": [ 137.2988502, 36.6634167 ] } },
{ "type": "Feature", "properties": { "内容": "入善老人保健施設こぶしの庭【訪問リハビリテーション】富山県下新川郡入善町小杉64", "url2": "https://www.kaigokensaku.mhlw.go.jp/16/index.php?action_kouhyou_detail_004_kani=true&JigyosyoCd=1651780007-00&ServiceCd=140&Type=search" }, "geometry": { "type": "Point", "coordinates": [ 137.5260056, 36.9177867 ] } },
{ "type": "Feature", "properties": { "内容": "医療法人社団秋桜　丸川病院　訪問リハビリテーション【訪問リハビリテーション】富山県下新川郡入善町青島396番地1", "url2": "https://www.kaigokensaku.mhlw.go.jp/16/index.php?action_kouhyou_detail_004_kani=true&JigyosyoCd=1611710870-00&ServiceCd=140&Type=search" }, "geometry": { "type": "Point", "coordinates": [ 137.5105572, 36.9267707 ] } },
{ "type": "Feature", "properties": { "内容": "坂東病院【訪問リハビリテーション】富山県下新川郡朝日町道下900", "url2": "https://www.kaigokensaku.mhlw.go.jp/16/index.php?action_kouhyou_detail_004_kani=true&JigyosyoCd=1611710623-00&ServiceCd=140&Type=search" }, "geometry": { "type": "Point", "coordinates": [ 137.562328100000059, 36.9483953 ] } },
{ "type": "Feature", "properties": { "内容": "あさひ総合病院【訪問リハビリテーション】富山県下新川郡朝日町泊477", "url2": "https://www.kaigokensaku.mhlw.go.jp/16/index.php?action_kouhyou_detail_004_kani=true&JigyosyoCd=1611710839-00&ServiceCd=140&Type=search" }, "geometry": { "type": "Point", "coordinates": [ 137.5614275, 36.9601476 ] } }
]
}
