{
"type": "FeatureCollection",
"name": "geo_16_訪問入浴介護",
"crs": { "type": "name", "properties": { "name": "urn:ogc:def:crs:OGC:1.3:CRS84" } },
"features": [
{ "type": "Feature", "properties": { "内容": "訪問入浴事業所長寿の泉【訪問入浴介護】堀川町580-21", "url2": "https://www.kaigokensaku.mhlw.go.jp/16/index.php?action_kouhyou_detail_004_kani=true&JigyosyoCd=1670113347-00&ServiceCd=120&Type=search" }, "geometry": { "type": "Point", "coordinates": [ 137.219575, 36.659996 ] } },
{ "type": "Feature", "properties": { "内容": "北陸メディカルサービス株式会社八尾営業所【訪問入浴介護】富山市八尾町福島字牧野１０１番地１", "url2": "https://www.kaigokensaku.mhlw.go.jp/16/index.php?action_kouhyou_detail_004_kani=true&JigyosyoCd=1671800470-00&ServiceCd=120&Type=search" }, "geometry": { "type": "Point", "coordinates": [ 137.134187500000053, 36.5803092 ] } },
{ "type": "Feature", "properties": { "内容": "北陸メディカルサービス株式会社　介護事業部【訪問入浴介護】富山市奥井町4番36号", "url2": "https://www.kaigokensaku.mhlw.go.jp/16/index.php?action_kouhyou_detail_004_kani=true&JigyosyoCd=1670100138-00&ServiceCd=120&Type=search" }, "geometry": { "type": "Point", "coordinates": [ 137.224702799999932, 36.7048064 ] } },
{ "type": "Feature", "properties": { "内容": "アースサポート富山【訪問入浴介護】富山県富山市大町22番地14松倉ビル1F", "url2": "https://www.kaigokensaku.mhlw.go.jp/16/index.php?action_kouhyou_detail_004_kani=true&JigyosyoCd=1670103413-00&ServiceCd=120&Type=search" }, "geometry": { "type": "Point", "coordinates": [ 137.219402920484981, 36.667649633357243 ] } },
{ "type": "Feature", "properties": { "内容": "訪問入浴介護事業所バーデン【訪問入浴介護】富山県富山市大町66番地1", "url2": "https://www.kaigokensaku.mhlw.go.jp/16/index.php?action_kouhyou_detail_004_kani=true&JigyosyoCd=1670115607-00&ServiceCd=120&Type=search" }, "geometry": { "type": "Point", "coordinates": [ 137.224468635581957, 36.667244291325602 ] } },
{ "type": "Feature", "properties": { "内容": "アースサポート高岡【訪問入浴介護】富山県高岡市蓮美町4番49号山岸ビル１Ｆ", "url2": "https://www.kaigokensaku.mhlw.go.jp/16/index.php?action_kouhyou_detail_004_kani=true&JigyosyoCd=1670201696-00&ServiceCd=120&Type=search" }, "geometry": { "type": "Point", "coordinates": [ 137.006895100000065, 36.7387534 ] } },
{ "type": "Feature", "properties": { "内容": "デイサービスセンターさがの苑【訪問入浴介護】高岡市佐加野1701", "url2": "https://www.kaigokensaku.mhlw.go.jp/16/index.php?action_kouhyou_detail_004_kani=true&JigyosyoCd=1670200409-00&ServiceCd=120&Type=search" }, "geometry": { "type": "Point", "coordinates": [ 136.971300299999939, 36.7563841 ] } },
{ "type": "Feature", "properties": { "内容": "魚津病院ふれあい訪問入浴介護事業所【訪問入浴介護】富山県魚津市友道789番地", "url2": "https://www.kaigokensaku.mhlw.go.jp/16/index.php?action_kouhyou_detail_004_kani=true&JigyosyoCd=1670400702-00&ServiceCd=120&Type=search" }, "geometry": { "type": "Point", "coordinates": [ 137.411361599999964, 36.8145605 ] } },
{ "type": "Feature", "properties": { "内容": "社会福祉法人　氷見市社会福祉協議会【訪問入浴介護】富山県氷見市鞍川967", "url2": "https://www.kaigokensaku.mhlw.go.jp/16/index.php?action_kouhyou_detail_004_kani=true&JigyosyoCd=1670500147-00&ServiceCd=120&Type=search" }, "geometry": { "type": "Point", "coordinates": [ 136.974046368647777, 36.855356252542734 ] } },
{ "type": "Feature", "properties": { "内容": "氷見ケアサービス【訪問入浴介護】富山県氷見市窪552-1", "url2": "https://www.kaigokensaku.mhlw.go.jp/16/index.php?action_kouhyou_detail_004_kani=true&JigyosyoCd=1670500063-00&ServiceCd=120&Type=search" }, "geometry": { "type": "Point", "coordinates": [ 136.99055050000004, 36.8362625 ] } },
{ "type": "Feature", "properties": { "内容": "笑顔の会【訪問入浴介護】氷見市谷屋２２０１", "url2": "https://www.kaigokensaku.mhlw.go.jp/16/index.php?action_kouhyou_detail_004_kani=true&JigyosyoCd=1670500154-00&ServiceCd=120&Type=search" }, "geometry": { "type": "Point", "coordinates": [ 136.923203100000023, 36.8666428 ] } },
{ "type": "Feature", "properties": { "内容": "訪問入浴サービスＰｉｅｃｅ＆Ｐｅａｃｅ【訪問入浴介護】富山県滑川市大町１７８６番地４", "url2": "https://www.kaigokensaku.mhlw.go.jp/16/index.php?action_kouhyou_detail_004_kani=true&JigyosyoCd=1670600491-00&ServiceCd=120&Type=search" }, "geometry": { "type": "Point", "coordinates": [ 137.336219300000039, 36.764815 ] } },
{ "type": "Feature", "properties": { "内容": "北陸メディカルサービス株式会社となみ営業所【訪問入浴介護】砺波市中央町4番1号", "url2": "https://www.kaigokensaku.mhlw.go.jp/16/index.php?action_kouhyou_detail_004_kani=true&JigyosyoCd=1670800018-00&ServiceCd=120&Type=search" }, "geometry": { "type": "Point", "coordinates": [ 136.9546868, 36.638449 ] } },
{ "type": "Feature", "properties": { "内容": "ふく満訪問入浴介護事業所【訪問入浴介護】富山県南砺市福光１０４５番地", "url2": "https://www.kaigokensaku.mhlw.go.jp/16/index.php?action_kouhyou_detail_004_kani=true&JigyosyoCd=1672100201-00&ServiceCd=120&Type=search" }, "geometry": { "type": "Point", "coordinates": [ 136.867542, 36.5548104 ] } },
{ "type": "Feature", "properties": { "内容": "射水ライフ・サポート株式会社【訪問入浴介護】赤井77番地1", "url2": "https://www.kaigokensaku.mhlw.go.jp/16/index.php?action_kouhyou_detail_004_kani=true&JigyosyoCd=1671100293-00&ServiceCd=120&Type=search" }, "geometry": { "type": "Point", "coordinates": [ 139.999304199999983, 37.496247500000017 ] } },
{ "type": "Feature", "properties": { "内容": "訪問入浴サービス湯楽【訪問入浴介護】富山県射水市手崎182-1", "url2": "https://www.kaigokensaku.mhlw.go.jp/16/index.php?action_kouhyou_detail_004_kani=true&JigyosyoCd=1671100913-00&ServiceCd=120&Type=search" }, "geometry": { "type": "Point", "coordinates": [ 137.1178836, 36.7177404 ] } },
{ "type": "Feature", "properties": { "内容": "デイサービス樹（訪問入浴　みよちゃん号）【訪問入浴介護】富山県下新川郡入善町横山842-1", "url2": "https://www.kaigokensaku.mhlw.go.jp/16/index.php?action_kouhyou_detail_004_kani=true&JigyosyoCd=1671700688-00&ServiceCd=120&Type=search" }, "geometry": { "type": "Point", "coordinates": [ 137.5132294, 36.9547035 ] } }
]
}
