{
"type": "FeatureCollection",
"name": "geo_16_地域密着型特定施設入居者生活介護（有料老人ホーム（サービス付き高齢者向け住宅））",
"crs": { "type": "name", "properties": { "name": "urn:ogc:def:crs:OGC:1.3:CRS84" } },
"features": [
{ "type": "Feature", "properties": { "内容": "大町らん【地域密着型特定施設入居者生活介護（有料老人ホーム（サービス付き高齢者向け住宅））】富山県富山市大町66番1", "url": "https://www.kaigokensaku.mhlw.go.jp/16/index.php?action_kouhyou_detail_004_kani=true&JigyosyoCd=1690101462-00&ServiceCd=&Type=search", "url2": null }, "geometry": { "type": "Point", "coordinates": [ 137.224474, 36.6672572 ] } }
]
}
