{
"type": "FeatureCollection",
"name": "geo_16_認知症対応型共同生活介護",
"crs": { "type": "name", "properties": { "name": "urn:ogc:def:crs:OGC:1.3:CRS84" } },
"features": [
{ "type": "Feature", "properties": { "内容": "グループホームひかり苑【認知症対応型共同生活介護】西田地方町2丁目10番11", "url2": "https://www.kaigokensaku.mhlw.go.jp/16/index.php?action_kouhyou_detail_004_kani=true&JigyosyoCd=1690100522-00&ServiceCd=320&Type=search" }, "geometry": { "type": "Point", "coordinates": [ 137.2054842, 36.682623 ] } },
{ "type": "Feature", "properties": { "内容": "グループホームえにし岩瀬【認知症対応型共同生活介護】富山県富山市西宮1番地１", "url2": "https://www.kaigokensaku.mhlw.go.jp/16/index.php?action_kouhyou_detail_004_kani=true&JigyosyoCd=1670101573-00&ServiceCd=320&Type=search" }, "geometry": { "type": "Point", "coordinates": [ 137.223268599999983, 36.7503847 ] } },
{ "type": "Feature", "properties": { "内容": "グル－プホ－ムめぐみ【認知症対応型共同生活介護】富山市塚原195-1", "url2": "https://www.kaigokensaku.mhlw.go.jp/16/index.php?action_kouhyou_detail_004_kani=true&JigyosyoCd=1670102613-00&ServiceCd=320&Type=search" }, "geometry": { "type": "Point", "coordinates": [ 137.193608400000016, 36.6586481 ] } },
{ "type": "Feature", "properties": { "内容": "グループホームなかまち【認知症対応型共同生活介護】富山県富山市針原中町415-1", "url2": "https://www.kaigokensaku.mhlw.go.jp/16/index.php?action_kouhyou_detail_004_kani=true&JigyosyoCd=1690100050-00&ServiceCd=320&Type=search" }, "geometry": { "type": "Point", "coordinates": [ 137.265202199999976, 36.7253746 ] } },
{ "type": "Feature", "properties": { "内容": "グループホーム　やまだ【認知症対応型共同生活介護】富山市山田沼又88", "url2": "https://www.kaigokensaku.mhlw.go.jp/16/index.php?action_kouhyou_detail_004_kani=true&JigyosyoCd=1690100787-00&ServiceCd=320&Type=search" }, "geometry": { "type": "Point", "coordinates": [ 137.067970800000012, 36.5998976 ] } },
{ "type": "Feature", "properties": { "内容": "グループホームつばさ【認知症対応型共同生活介護】富山県富山市春日368-1", "url2": "https://www.kaigokensaku.mhlw.go.jp/16/index.php?action_kouhyou_detail_004_kani=true&JigyosyoCd=1671500294-00&ServiceCd=320&Type=search" }, "geometry": { "type": "Point", "coordinates": [ 137.2049932, 36.5626318 ] } },
{ "type": "Feature", "properties": { "内容": "グループホームおわら【認知症対応型共同生活介護】富山市八尾町西町2386", "url2": "https://www.kaigokensaku.mhlw.go.jp/16/index.php?action_kouhyou_detail_004_kani=true&JigyosyoCd=1690100118-00&ServiceCd=320&Type=search" }, "geometry": { "type": "Point", "coordinates": [ 137.134529199999946, 36.5774845 ] } },
{ "type": "Feature", "properties": { "内容": "グループホーム　やつお【認知症対応型共同生活介護】富山市八尾町井田610-1", "url2": "https://www.kaigokensaku.mhlw.go.jp/16/index.php?action_kouhyou_detail_004_kani=true&JigyosyoCd=1671800447-00&ServiceCd=320&Type=search" }, "geometry": { "type": "Point", "coordinates": [ 137.149133, 36.60139 ] } },
{ "type": "Feature", "properties": { "内容": "グループホームしおんの家・望【認知症対応型共同生活介護】水橋辻ヶ堂777", "url2": "https://www.kaigokensaku.mhlw.go.jp/16/index.php?action_kouhyou_detail_004_kani=true&JigyosyoCd=1670102647-00&ServiceCd=320&Type=search" }, "geometry": { "type": "Point", "coordinates": [ 137.295730014155538, 36.753986892150259 ] } },
{ "type": "Feature", "properties": { "内容": "グループホームいずみの家【認知症対応型共同生活介護】富山市今泉２０９番地", "url2": "https://www.kaigokensaku.mhlw.go.jp/16/index.php?action_kouhyou_detail_004_kani=true&JigyosyoCd=1670102209-00&ServiceCd=320&Type=search" }, "geometry": { "type": "Point", "coordinates": [ 137.212325599999986, 36.6682225 ] } },
{ "type": "Feature", "properties": { "内容": "グループホーム城南【認知症対応型共同生活介護】富山県富山市太郎丸西町1-7-2", "url2": "https://www.kaigokensaku.mhlw.go.jp/16/index.php?action_kouhyou_detail_004_kani=true&JigyosyoCd=1670102233-00&ServiceCd=320&Type=search" }, "geometry": { "type": "Point", "coordinates": [ 137.208839500000067, 36.6770989 ] } },
{ "type": "Feature", "properties": { "内容": "とやまケアセンターそよ風【認知症対応型共同生活介護】富山市上袋５１８－１", "url2": "https://www.kaigokensaku.mhlw.go.jp/16/index.php?action_kouhyou_detail_004_kani=true&JigyosyoCd=1670102225-00&ServiceCd=320&Type=search" }, "geometry": { "type": "Point", "coordinates": [ 137.216744699999907, 36.6598903 ] } },
{ "type": "Feature", "properties": { "内容": "グループホーム中川原の家【認知症対応型共同生活介護】富山市中川原399-1", "url2": "https://www.kaigokensaku.mhlw.go.jp/16/index.php?action_kouhyou_detail_004_kani=true&JigyosyoCd=1670102654-00&ServiceCd=320&Type=search" }, "geometry": { "type": "Point", "coordinates": [ 137.246477599999906, 36.6753192 ] } },
{ "type": "Feature", "properties": { "内容": "ひより【認知症対応型共同生活介護】富山市蜷川11-11", "url2": "https://www.kaigokensaku.mhlw.go.jp/16/index.php?action_kouhyou_detail_004_kani=true&JigyosyoCd=1670102050-00&ServiceCd=320&Type=search" }, "geometry": { "type": "Point", "coordinates": [ 137.2118484, 36.6435449 ] } },
{ "type": "Feature", "properties": { "内容": "あさひホーム吉作【認知症対応型共同生活介護】富山県富山市吉作４２６１－５", "url2": "https://www.kaigokensaku.mhlw.go.jp/16/index.php?action_kouhyou_detail_004_kani=true&JigyosyoCd=1670103579-00&ServiceCd=320&Type=search" }, "geometry": { "type": "Point", "coordinates": [ 137.162047199999961, 36.7043831 ] } },
{ "type": "Feature", "properties": { "内容": "あさひホーム【認知症対応型共同生活介護】富山市北代１８９", "url2": "https://www.kaigokensaku.mhlw.go.jp/16/index.php?action_kouhyou_detail_004_kani=true&JigyosyoCd=1670102183-00&ServiceCd=320&Type=search" }, "geometry": { "type": "Point", "coordinates": [ 137.1756507, 36.7199866 ] } },
{ "type": "Feature", "properties": { "内容": "グループホームやまゆり【認知症対応型共同生活介護】富山県富山市中布目163", "url2": "https://www.kaigokensaku.mhlw.go.jp/16/index.php?action_kouhyou_detail_004_kani=true&JigyosyoCd=1670103561-00&ServiceCd=320&Type=search" }, "geometry": { "type": "Point", "coordinates": [ 137.251615, 36.6164179 ] } },
{ "type": "Feature", "properties": { "内容": "グループホームしおんの家・愛【認知症対応型共同生活介護】水橋辻ヶ堂842番地1共生型グループホームしおんの家・愛", "url2": "https://www.kaigokensaku.mhlw.go.jp/16/index.php?action_kouhyou_detail_004_kani=true&JigyosyoCd=1670100369-00&ServiceCd=320&Type=search" }, "geometry": { "type": "Point", "coordinates": [ 137.295326796924201, 36.75374350795267 ] } },
{ "type": "Feature", "properties": { "内容": "グループホーム　このゆびとーまれ茶屋【認知症対応型共同生活介護】富山市茶屋町441番地３", "url2": "https://www.kaigokensaku.mhlw.go.jp/16/index.php?action_kouhyou_detail_004_kani=true&JigyosyoCd=1670102779-00&ServiceCd=320&Type=search" }, "geometry": { "type": "Point", "coordinates": [ 137.178811799999949, 36.7065106 ] } },
{ "type": "Feature", "properties": { "内容": "グループホーム水橋の家【認知症対応型共同生活介護】富山県富山市水橋上桜木３８", "url2": "https://www.kaigokensaku.mhlw.go.jp/16/index.php?action_kouhyou_detail_004_kani=true&JigyosyoCd=1670102332-00&ServiceCd=320&Type=search" }, "geometry": { "type": "Point", "coordinates": [ 137.32451109326783, 36.741686112713616 ] } },
{ "type": "Feature", "properties": { "内容": "グループホーム花芙蓉【認知症対応型共同生活介護】富山市掛尾町５４０－１", "url2": "https://www.kaigokensaku.mhlw.go.jp/16/index.php?action_kouhyou_detail_004_kani=true&JigyosyoCd=1690100407-00&ServiceCd=320&Type=search" }, "geometry": { "type": "Point", "coordinates": [ 137.208081799999945, 36.6621148 ] } },
{ "type": "Feature", "properties": { "内容": "グループホーム　コスモスの里【認知症対応型共同生活介護】富山市大江干３２番地１", "url2": "https://www.kaigokensaku.mhlw.go.jp/16/index.php?action_kouhyou_detail_004_kani=true&JigyosyoCd=1690100357-00&ServiceCd=320&Type=search" }, "geometry": { "type": "Point", "coordinates": [ 137.265008800000032, 36.6918731 ] } },
{ "type": "Feature", "properties": { "内容": "グループホーム　笑美寿【認知症対応型共同生活介護】富山県富山市中島2丁目1-43ケアセンター笑美寿", "url2": "https://www.kaigokensaku.mhlw.go.jp/16/index.php?action_kouhyou_detail_004_kani=true&JigyosyoCd=1690100035-00&ServiceCd=320&Type=search" }, "geometry": { "type": "Point", "coordinates": [ 137.220363700000036, 36.7253177 ] } },
{ "type": "Feature", "properties": { "内容": "グループホーム笑美寿東【認知症対応型共同生活介護】田畑852-３ケアセンター笑美寿東", "url2": "https://www.kaigokensaku.mhlw.go.jp/16/index.php?action_kouhyou_detail_004_kani=true&JigyosyoCd=1690100662-00&ServiceCd=320&Type=search" }, "geometry": { "type": "Point", "coordinates": [ 137.254624493254113, 36.744166788846805 ] } },
{ "type": "Feature", "properties": { "内容": "グループホームあざみ【認知症対応型共同生活介護】富山市辰巳町2丁目4番12号", "url2": "https://www.kaigokensaku.mhlw.go.jp/16/index.php?action_kouhyou_detail_004_kani=true&JigyosyoCd=1690100183-00&ServiceCd=320&Type=search" }, "geometry": { "type": "Point", "coordinates": [ 137.221848899999941, 36.6843721 ] } },
{ "type": "Feature", "properties": { "内容": "認知症高齢者グループホーム　至宝館【認知症対応型共同生活介護】堀川町４６５－１", "url2": "https://www.kaigokensaku.mhlw.go.jp/16/index.php?action_kouhyou_detail_004_kani=true&JigyosyoCd=1690100498-00&ServiceCd=320&Type=search" }, "geometry": { "type": "Point", "coordinates": [ 137.217261300000018, 36.6611902 ] } },
{ "type": "Feature", "properties": { "内容": "グループホームにながわ【認知症対応型共同生活介護】二俣３２７番地４", "url2": "https://www.kaigokensaku.mhlw.go.jp/16/index.php?action_kouhyou_detail_004_kani=true&JigyosyoCd=1690100431-00&ServiceCd=320&Type=search" }, "geometry": { "type": "Point", "coordinates": [ 137.216331299999979, 36.6454421 ] } },
{ "type": "Feature", "properties": { "内容": "グループホームせいふう【認知症対応型共同生活介護】富山県富山市水橋辻", "url2": "https://www.kaigokensaku.mhlw.go.jp/16/index.php?action_kouhyou_detail_004_kani=true&JigyosyoCd=1690100464-00&ServiceCd=320&Type=search" }, "geometry": { "type": "Point", "coordinates": [ 137.2982902, 36.7468705 ] } },
{ "type": "Feature", "properties": { "内容": "射水万葉会天正寺サポートーセンター認知症対応型共同生活介護【認知症対応型共同生活介護】天正寺484-1", "url2": "https://www.kaigokensaku.mhlw.go.jp/16/index.php?action_kouhyou_detail_004_kani=true&JigyosyoCd=1690100282-00&ServiceCd=320&Type=search" }, "geometry": { "type": "Point", "coordinates": [ 137.249285200000031, 36.6870483 ] } },
{ "type": "Feature", "properties": { "内容": "グループホーム　さくら【認知症対応型共同生活介護】富山県富山市市田袋127番地", "url2": "https://www.kaigokensaku.mhlw.go.jp/16/index.php?action_kouhyou_detail_004_kani=true&JigyosyoCd=1690101181-00&ServiceCd=320&Type=search" }, "geometry": { "type": "Point", "coordinates": [ 137.281966399999988, 36.7338764 ] } },
{ "type": "Feature", "properties": { "内容": "グループホームみのり【認知症対応型共同生活介護】富山市城川原一丁目17-14", "url2": "https://www.kaigokensaku.mhlw.go.jp/16/index.php?action_kouhyou_detail_004_kani=true&JigyosyoCd=1690100563-00&ServiceCd=320&Type=search" }, "geometry": { "type": "Point", "coordinates": [ 137.228190700000027, 36.73126450000003 ] } },
{ "type": "Feature", "properties": { "内容": "グループホームなごみ【認知症対応型共同生活介護】富山市飯1-1", "url2": "https://www.kaigokensaku.mhlw.go.jp/16/index.php?action_kouhyou_detail_004_kani=true&JigyosyoCd=1690100225-00&ServiceCd=320&Type=search" }, "geometry": { "type": "Point", "coordinates": [ 136.96243979999997, 36.8141815 ] } },
{ "type": "Feature", "properties": { "内容": "認知症対応型グループホームくれは陽光苑【認知症対応型共同生活介護】富山県富山市中老田844－1", "url2": "https://www.kaigokensaku.mhlw.go.jp/16/index.php?action_kouhyou_detail_004_kani=true&JigyosyoCd=1690100597-00&ServiceCd=320&Type=search" }, "geometry": { "type": "Point", "coordinates": [ 137.130061500000011, 36.7004662 ] } },
{ "type": "Feature", "properties": { "内容": "グループホーム日和野【認知症対応型共同生活介護】富山市下野１７８４－６", "url2": "https://www.kaigokensaku.mhlw.go.jp/16/index.php?action_kouhyou_detail_004_kani=true&JigyosyoCd=1690100142-00&ServiceCd=320&Type=search" }, "geometry": { "type": "Point", "coordinates": [ 137.180828600000041, 36.6932903 ] } },
{ "type": "Feature", "properties": { "内容": "グループホームときわ木の里【認知症対応型共同生活介護】富山県富山市中大浦１６８ー２", "url2": "https://www.kaigokensaku.mhlw.go.jp/16/index.php?action_kouhyou_detail_004_kani=true&JigyosyoCd=1671500310-00&ServiceCd=320&Type=search" }, "geometry": { "type": "Point", "coordinates": [ 137.268158099999937, 36.6110936 ] } },
{ "type": "Feature", "properties": { "内容": "ケアホーム春らんまん五福【認知症対応型共同生活介護】富山市五福5993-1", "url2": "https://www.kaigokensaku.mhlw.go.jp/16/index.php?action_kouhyou_detail_004_kani=true&JigyosyoCd=1690100944-00&ServiceCd=320&Type=search" }, "geometry": { "type": "Point", "coordinates": [ 137.198223880734275, 36.701302034318367 ] } },
{ "type": "Feature", "properties": { "内容": "グループホームきぼう【認知症対応型共同生活介護】富山県富山市上大久保1581-1希望ヶ丘ハウス", "url2": "https://www.kaigokensaku.mhlw.go.jp/16/index.php?action_kouhyou_detail_004_kani=true&JigyosyoCd=1690100951-00&ServiceCd=320&Type=search" }, "geometry": { "type": "Point", "coordinates": [ 137.211477699999932, 36.5912144 ] } },
{ "type": "Feature", "properties": { "内容": "ぐるーぷほーむ楽笑【認知症対応型共同生活介護】富山県富山市千原崎2-4-30", "url2": "https://www.kaigokensaku.mhlw.go.jp/16/index.php?action_kouhyou_detail_004_kani=true&JigyosyoCd=1690101306-00&ServiceCd=320&Type=search" }, "geometry": { "type": "Point", "coordinates": [ 137.2306993, 36.745599 ] } },
{ "type": "Feature", "properties": { "内容": "グループホーム山室の家【認知症対応型共同生活介護】富山県富山市山室63", "url2": "https://www.kaigokensaku.mhlw.go.jp/16/index.php?action_kouhyou_detail_004_kani=true&JigyosyoCd=1690101322-00&ServiceCd=320&Type=search" }, "geometry": { "type": "Point", "coordinates": [ 137.237012099999987, 36.6733937 ] } },
{ "type": "Feature", "properties": { "内容": "グループホームコスモスの里中間島【認知症対応型共同生活介護】富山市中間島2丁目1-10", "url2": "https://www.kaigokensaku.mhlw.go.jp/16/index.php?action_kouhyou_detail_004_kani=true&JigyosyoCd=1690101330-00&ServiceCd=320&Type=search" }, "geometry": { "type": "Point", "coordinates": [ 137.264994800000011, 36.6907156 ] } },
{ "type": "Feature", "properties": { "内容": "グループホーム「ふる里の風」【認知症対応型共同生活介護】富山市新庄町2-9-43", "url2": "https://www.kaigokensaku.mhlw.go.jp/16/index.php?action_kouhyou_detail_004_kani=true&JigyosyoCd=1690100936-00&ServiceCd=320&Type=search" }, "geometry": { "type": "Point", "coordinates": [ 137.259561699999949, 36.7029494 ] } },
{ "type": "Feature", "properties": { "内容": "グループホームささづ苑つばさ【認知症対応型共同生活介護】春日368-1", "url2": "https://www.kaigokensaku.mhlw.go.jp/16/index.php?action_kouhyou_detail_004_kani=true&JigyosyoCd=1690101652-00&ServiceCd=320&Type=search" }, "geometry": { "type": "Point", "coordinates": [ 137.204992, 36.562631 ] } },
{ "type": "Feature", "properties": { "内容": "高齢者支援施設せせらぎの郷【認知症対応型共同生活介護】富山県富山市小原屋202", "url2": "https://www.kaigokensaku.mhlw.go.jp/16/index.php?action_kouhyou_detail_004_kani=true&JigyosyoCd=1690101249-00&ServiceCd=320&Type=search" }, "geometry": { "type": "Point", "coordinates": [ 137.284035723942566, 36.611620672182966 ] } },
{ "type": "Feature", "properties": { "内容": "グループホーム婦中の家【認知症対応型共同生活介護】富山県富山市婦中町添島字正仙５４７－４", "url2": "https://www.kaigokensaku.mhlw.go.jp/16/index.php?action_kouhyou_detail_004_kani=true&JigyosyoCd=1671800306-00&ServiceCd=320&Type=search" }, "geometry": { "type": "Point", "coordinates": [ 137.178252101188718, 36.641470336308522 ] } },
{ "type": "Feature", "properties": { "内容": "グループホームあっとほーむ婦中【認知症対応型共同生活介護】富山県富山市婦中町中名1077-7", "url2": "https://www.kaigokensaku.mhlw.go.jp/16/index.php?action_kouhyou_detail_004_kani=true&JigyosyoCd=1671800280-00&ServiceCd=320&Type=search" }, "geometry": { "type": "Point", "coordinates": [ 137.1663254, 36.6459072 ] } },
{ "type": "Feature", "properties": { "内容": "グループホームこちどり【認知症対応型共同生活介護】月岡町四丁目１５９－２", "url2": "https://www.kaigokensaku.mhlw.go.jp/16/index.php?action_kouhyou_detail_004_kani=true&JigyosyoCd=1690100373-00&ServiceCd=320&Type=search" }, "geometry": { "type": "Point", "coordinates": [ 137.2546423, 36.6251697 ] } },
{ "type": "Feature", "properties": { "内容": "グループホームつばめ野【認知症対応型共同生活介護】富山県富山市つばめ野2-78", "url2": "https://www.kaigokensaku.mhlw.go.jp/16/index.php?action_kouhyou_detail_004_kani=true&JigyosyoCd=1690101611-00&ServiceCd=320&Type=search" }, "geometry": { "type": "Point", "coordinates": [ 137.189943699999986, 36.7528407 ] } },
{ "type": "Feature", "properties": { "内容": "株式会社　ウェルサポート　グループホーム　黄金の愉【認知症対応型共同生活介護】富山県富山市田尻西56番地3", "url2": "https://www.kaigokensaku.mhlw.go.jp/16/index.php?action_kouhyou_detail_004_kani=true&JigyosyoCd=1690100795-00&ServiceCd=320&Type=search" }, "geometry": { "type": "Point", "coordinates": [ 137.20005249999997, 36.7369491 ] } },
{ "type": "Feature", "properties": { "内容": "グループホームみどりの丘【認知症対応型共同生活介護】開発２４６番地", "url2": "https://www.kaigokensaku.mhlw.go.jp/16/index.php?action_kouhyou_detail_004_kani=true&JigyosyoCd=1670103496-00&ServiceCd=320&Type=search" }, "geometry": { "type": "Point", "coordinates": [ 137.248823200000061, 36.6285803 ] } },
{ "type": "Feature", "properties": { "内容": "ツクイ富山萩原グループホーム【認知症対応型共同生活介護】富山市萩原179-1", "url2": "https://www.kaigokensaku.mhlw.go.jp/16/index.php?action_kouhyou_detail_004_kani=true&JigyosyoCd=1670102456-00&ServiceCd=320&Type=search" }, "geometry": { "type": "Point", "coordinates": [ 137.196741400000064, 36.6640615 ] } },
{ "type": "Feature", "properties": { "内容": "あっとほーむ雨晴【認知症対応型共同生活介護】高岡市太田桜谷23-1", "url2": "https://www.kaigokensaku.mhlw.go.jp/16/index.php?action_kouhyou_detail_004_kani=true&JigyosyoCd=1670200516-00&ServiceCd=320&Type=search" }, "geometry": { "type": "Point", "coordinates": [ 137.030191400000035, 36.8182252 ] } },
{ "type": "Feature", "properties": { "内容": "グループホーム森の住まい【認知症対応型共同生活介護】富山県高岡市福岡町江尻219-1", "url2": "https://www.kaigokensaku.mhlw.go.jp/16/index.php?action_kouhyou_detail_004_kani=true&JigyosyoCd=1690200769-00&ServiceCd=320&Type=search" }, "geometry": { "type": "Point", "coordinates": [ 136.939656, 36.700356 ] } },
{ "type": "Feature", "properties": { "内容": "ケアホーム　なかそね【認知症対応型共同生活介護】高岡市中曽根2374", "url2": "https://www.kaigokensaku.mhlw.go.jp/16/index.php?action_kouhyou_detail_004_kani=true&JigyosyoCd=1690200330-00&ServiceCd=320&Type=search" }, "geometry": { "type": "Point", "coordinates": [ 137.077673364418047, 36.769499302832322 ] } },
{ "type": "Feature", "properties": { "内容": "はぴねすグループホーム高岡南【認知症対応型共同生活介護】高岡市戸出町4丁目12番88号", "url2": "https://www.kaigokensaku.mhlw.go.jp/16/index.php?action_kouhyou_detail_004_kani=true&JigyosyoCd=1690200066-00&ServiceCd=320&Type=search" }, "geometry": { "type": "Point", "coordinates": [ 136.975932, 36.6762543 ] } },
{ "type": "Feature", "properties": { "内容": "かざぐるま　グループホーム【認知症対応型共同生活介護】高岡市熊野町2-2", "url2": "https://www.kaigokensaku.mhlw.go.jp/16/index.php?action_kouhyou_detail_004_kani=true&JigyosyoCd=1670201266-00&ServiceCd=320&Type=search" }, "geometry": { "type": "Point", "coordinates": [ 137.01921440000001, 36.7621982 ] } },
{ "type": "Feature", "properties": { "内容": "緑彩館【認知症対応型共同生活介護】富山県高岡市戸出市野瀬393-3", "url2": "https://www.kaigokensaku.mhlw.go.jp/16/index.php?action_kouhyou_detail_004_kani=true&JigyosyoCd=1670200763-00&ServiceCd=320&Type=search" }, "geometry": { "type": "Point", "coordinates": [ 136.9817868, 36.6997371 ] } },
{ "type": "Feature", "properties": { "内容": "ケアホームみどり【認知症対応型共同生活介護】富山県高岡市横田町1丁目2番25号", "url2": "https://www.kaigokensaku.mhlw.go.jp/16/index.php?action_kouhyou_detail_004_kani=true&JigyosyoCd=1670201118-00&ServiceCd=320&Type=search" }, "geometry": { "type": "Point", "coordinates": [ 137.002031100000067, 36.7474052 ] } },
{ "type": "Feature", "properties": { "内容": "グループホームひだまり高岡【認知症対応型共同生活介護】富山県高岡市蓮花寺１－１", "url2": "https://www.kaigokensaku.mhlw.go.jp/16/index.php?action_kouhyou_detail_004_kani=true&JigyosyoCd=1670201357-00&ServiceCd=320&Type=search" }, "geometry": { "type": "Point", "coordinates": [ 137.037594899999931, 36.7336656 ] } },
{ "type": "Feature", "properties": { "内容": "ローカルセンター高岡【認知症対応型共同生活介護】富山県高岡市野村１４７４－１－２", "url2": "https://www.kaigokensaku.mhlw.go.jp/16/index.php?action_kouhyou_detail_004_kani=true&JigyosyoCd=1670200730-00&ServiceCd=320&Type=search" }, "geometry": { "type": "Point", "coordinates": [ 137.036779799999977, 36.7579419 ] } },
{ "type": "Feature", "properties": { "内容": "ローカルセンター野村【認知症対応型共同生活介護】富山県高岡市野村６０１－１", "url2": "https://www.kaigokensaku.mhlw.go.jp/16/index.php?action_kouhyou_detail_004_kani=true&JigyosyoCd=1670201233-00&ServiceCd=320&Type=search" }, "geometry": { "type": "Point", "coordinates": [ 137.037688900000035, 36.7445642 ] } },
{ "type": "Feature", "properties": { "内容": "ケアホーム国吉あいの風【認知症対応型共同生活介護】国吉７５２番地１", "url2": "https://www.kaigokensaku.mhlw.go.jp/16/index.php?action_kouhyou_detail_004_kani=true&JigyosyoCd=1690200108-00&ServiceCd=320&Type=search" }, "geometry": { "type": "Point", "coordinates": [ 136.969364600000063, 36.7530177 ] } },
{ "type": "Feature", "properties": { "内容": "グループホーム　あっとほーむ米島【認知症対応型共同生活介護】富山県高岡市米島329-3", "url2": "https://www.kaigokensaku.mhlw.go.jp/16/index.php?action_kouhyou_detail_004_kani=true&JigyosyoCd=1690200546-00&ServiceCd=320&Type=search" }, "geometry": { "type": "Point", "coordinates": [ 137.039812200000028, 36.7765383 ] } },
{ "type": "Feature", "properties": { "内容": "ケアタウンふくおか【認知症対応型共同生活介護】高岡市福岡町上蓑７８－１", "url2": "https://www.kaigokensaku.mhlw.go.jp/16/index.php?action_kouhyou_detail_004_kani=true&JigyosyoCd=1690200280-00&ServiceCd=320&Type=search" }, "geometry": { "type": "Point", "coordinates": [ 136.937087, 36.7021895 ] } },
{ "type": "Feature", "properties": { "内容": "グループホームかたかごの郷【認知症対応型共同生活介護】高岡市伏木矢田上町１３４－５", "url2": "https://www.kaigokensaku.mhlw.go.jp/16/index.php?action_kouhyou_detail_004_kani=true&JigyosyoCd=1690200397-00&ServiceCd=320&Type=search" }, "geometry": { "type": "Point", "coordinates": [ 137.047788800000035, 36.7869623 ] } },
{ "type": "Feature", "properties": { "内容": "はぴねすグループホーム太陽【認知症対応型共同生活介護】神田新町２７番地", "url2": "https://www.kaigokensaku.mhlw.go.jp/16/index.php?action_kouhyou_detail_004_kani=true&JigyosyoCd=1690200355-00&ServiceCd=320&Type=search" }, "geometry": { "type": "Point", "coordinates": [ 137.01116449999995, 36.7319987 ] } },
{ "type": "Feature", "properties": { "内容": "グループホーム如意の里【認知症対応型共同生活介護】富山県高岡市伏木本町10番8号如意の里", "url2": "https://www.kaigokensaku.mhlw.go.jp/16/index.php?action_kouhyou_detail_004_kani=true&JigyosyoCd=1690200520-00&ServiceCd=320&Type=search" }, "geometry": { "type": "Point", "coordinates": [ 137.0544099, 36.7996252 ] } },
{ "type": "Feature", "properties": { "内容": "グループホームひだまり南星【認知症対応型共同生活介護】高岡市佐野1095番地2", "url2": "https://www.kaigokensaku.mhlw.go.jp/16/index.php?action_kouhyou_detail_004_kani=true&JigyosyoCd=1690200314-00&ServiceCd=320&Type=search" }, "geometry": { "type": "Point", "coordinates": [ 136.996639499999986, 36.7198383 ] } },
{ "type": "Feature", "properties": { "内容": "グループホームひだまり御車山【認知症対応型共同生活介護】富山県高岡市木津675-1", "url2": "https://www.kaigokensaku.mhlw.go.jp/16/index.php?action_kouhyou_detail_004_kani=true&JigyosyoCd=1690200496-00&ServiceCd=320&Type=search" }, "geometry": { "type": "Point", "coordinates": [ 136.9959632, 36.7370671 ] } },
{ "type": "Feature", "properties": { "内容": "グループホームひだまり街なか【認知症対応型共同生活介護】富山県高岡市博労町5-13", "url2": "https://www.kaigokensaku.mhlw.go.jp/16/index.php?action_kouhyou_detail_004_kani=true&JigyosyoCd=1690200702-00&ServiceCd=320&Type=search" }, "geometry": { "type": "Point", "coordinates": [ 137.005428100000017, 36.7454776 ] } },
{ "type": "Feature", "properties": { "内容": "医療法人社団　昂尚会　グループホーム戸出リスペクト【認知症対応型共同生活介護】富山県高岡市戸出町３丁目１９－５０医療法人社団　昂尚会　グループホーム戸出リスペクト", "url2": "https://www.kaigokensaku.mhlw.go.jp/16/index.php?action_kouhyou_detail_004_kani=true&JigyosyoCd=1690200413-00&ServiceCd=320&Type=search" }, "geometry": { "type": "Point", "coordinates": [ 136.9769513, 36.6806981 ] } },
{ "type": "Feature", "properties": { "内容": "グループホームあゆみ【認知症対応型共同生活介護】富山県高岡市福岡町一歩二歩465", "url2": "https://www.kaigokensaku.mhlw.go.jp/16/index.php?action_kouhyou_detail_004_kani=true&JigyosyoCd=1690200132-00&ServiceCd=320&Type=search" }, "geometry": { "type": "Point", "coordinates": [ 136.948218900000029, 36.7039227 ] } },
{ "type": "Feature", "properties": { "内容": "ニチイケアセンター高岡【認知症対応型共同生活介護】富山県高岡市中川栄町5番13号", "url2": "https://www.kaigokensaku.mhlw.go.jp/16/index.php?action_kouhyou_detail_004_kani=true&JigyosyoCd=1690200199-00&ServiceCd=320&Type=search" }, "geometry": { "type": "Point", "coordinates": [ 137.028111358860798, 36.744938560773605 ] } },
{ "type": "Feature", "properties": { "内容": "はぴねすグループホームいずみ【認知症対応型共同生活介護】富山県高岡市泉町９番３５号", "url2": "https://www.kaigokensaku.mhlw.go.jp/16/index.php?action_kouhyou_detail_004_kani=true&JigyosyoCd=1690200181-00&ServiceCd=320&Type=search" }, "geometry": { "type": "Point", "coordinates": [ 137.005417599999987, 36.7366397 ] } },
{ "type": "Feature", "properties": { "内容": "藤園苑グループホームひびき【認知症対応型共同生活介護】高岡市早川390-1", "url2": "https://www.kaigokensaku.mhlw.go.jp/16/index.php?action_kouhyou_detail_004_kani=true&JigyosyoCd=1690200215-00&ServiceCd=320&Type=search" }, "geometry": { "type": "Point", "coordinates": [ 136.987990299999979, 36.75482920000001 ] } },
{ "type": "Feature", "properties": { "内容": "福祉コミュニティ高岡あいの風【認知症対応型共同生活介護】富山県高岡市内免5丁目50番1", "url2": "https://www.kaigokensaku.mhlw.go.jp/16/index.php?action_kouhyou_detail_004_kani=true&JigyosyoCd=1690200595-00&ServiceCd=320&Type=search" }, "geometry": { "type": "Point", "coordinates": [ 137.004441526528154, 36.754423448302759 ] } },
{ "type": "Feature", "properties": { "内容": "グループホーム中田館【認知症対応型共同生活介護】富山県高岡市下麻生89番地2", "url2": "https://www.kaigokensaku.mhlw.go.jp/16/index.php?action_kouhyou_detail_004_kani=true&JigyosyoCd=1690200462-00&ServiceCd=320&Type=search" }, "geometry": { "type": "Point", "coordinates": [ 137.019161558999599, 36.693351027294867 ] } },
{ "type": "Feature", "properties": { "内容": "グループホームむら花【認知症対応型共同生活介護】富山県高岡市富岡町2-40", "url2": "https://www.kaigokensaku.mhlw.go.jp/16/index.php?action_kouhyou_detail_004_kani=true&JigyosyoCd=1690200819-00&ServiceCd=320&Type=search" }, "geometry": { "type": "Point", "coordinates": [ 137.059563700000012, 36.7838801 ] } },
{ "type": "Feature", "properties": { "内容": "愛の家グループホーム高岡美幸【認知症対応型共同生活介護】富山県高岡市美幸町1丁目4番47号", "url2": "https://www.kaigokensaku.mhlw.go.jp/16/index.php?action_kouhyou_detail_004_kani=true&JigyosyoCd=1690200678-00&ServiceCd=320&Type=search" }, "geometry": { "type": "Point", "coordinates": [ 136.996414413105754, 36.75711096853923 ] } },
{ "type": "Feature", "properties": { "内容": "こふの希【認知症対応型共同生活介護】富山県高岡市伏木矢田上町201-10", "url2": "https://www.kaigokensaku.mhlw.go.jp/16/index.php?action_kouhyou_detail_004_kani=true&JigyosyoCd=1690200637-00&ServiceCd=320&Type=search" }, "geometry": { "type": "Point", "coordinates": [ 137.047788800000035, 36.7869623 ] } },
{ "type": "Feature", "properties": { "内容": "グループホームひだまり泉【認知症対応型共同生活介護】富山県高岡市佐野845番地1グループホームひだまり泉", "url2": "https://www.kaigokensaku.mhlw.go.jp/16/index.php?action_kouhyou_detail_004_kani=true&JigyosyoCd=1690200934-00&ServiceCd=320&Type=search" }, "geometry": { "type": "Point", "coordinates": [ 136.989496203704846, 36.731358659381229 ] } },
{ "type": "Feature", "properties": { "内容": "のんのさんの家よりどころ【認知症対応型共同生活介護】富山県高岡市二塚1155-1", "url2": "https://www.kaigokensaku.mhlw.go.jp/16/index.php?action_kouhyou_detail_004_kani=true&JigyosyoCd=1690200405-00&ServiceCd=320&Type=search" }, "geometry": { "type": "Point", "coordinates": [ 137.005603, 36.708047 ] } },
{ "type": "Feature", "properties": { "内容": "ｸﾞﾙｰﾌﾟﾎｰﾑ白寿戸出【認知症対応型共同生活介護】富山県高岡市戸出吉住新14番1", "url2": "https://www.kaigokensaku.mhlw.go.jp/16/index.php?action_kouhyou_detail_004_kani=true&JigyosyoCd=1690200785-00&ServiceCd=320&Type=search" }, "geometry": { "type": "Point", "coordinates": [ 136.987808800000039, 36.6717524 ] } },
{ "type": "Feature", "properties": { "内容": "ケアホーム二上あいの風【認知症対応型共同生活介護】富山県高岡市二上町１１４４－１", "url2": "https://www.kaigokensaku.mhlw.go.jp/16/index.php?action_kouhyou_detail_004_kani=true&JigyosyoCd=1690200264-00&ServiceCd=320&Type=search" }, "geometry": { "type": "Point", "coordinates": [ 137.005220300000019, 36.7759548 ] } },
{ "type": "Feature", "properties": { "内容": "グループホーム白寿園　能町【認知症対応型共同生活介護】富山県高岡市能町南2丁目21番地ｸﾞﾙｰﾌﾟﾎｰﾑ白寿園能町", "url2": "https://www.kaigokensaku.mhlw.go.jp/16/index.php?action_kouhyou_detail_004_kani=true&JigyosyoCd=1690200488-00&ServiceCd=320&Type=search" }, "geometry": { "type": "Point", "coordinates": [ 137.04287005877265, 36.764233056138416 ] } },
{ "type": "Feature", "properties": { "内容": "はなみずき【認知症対応型共同生活介護】富山県高岡市中曽根500", "url2": "https://www.kaigokensaku.mhlw.go.jp/16/index.php?action_kouhyou_detail_004_kani=true&JigyosyoCd=1690200447-00&ServiceCd=320&Type=search" }, "geometry": { "type": "Point", "coordinates": [ 137.072528564340246, 36.77049938130672 ] } },
{ "type": "Feature", "properties": { "内容": "パティオ　しらゆり【認知症対応型共同生活介護】富山県魚津市本江1090", "url2": "https://www.kaigokensaku.mhlw.go.jp/16/index.php?action_kouhyou_detail_004_kani=true&JigyosyoCd=1670400322-00&ServiceCd=320&Type=search" }, "geometry": { "type": "Point", "coordinates": [ 137.411945699999933, 36.8167129 ] } },
{ "type": "Feature", "properties": { "内容": "グループホームちょうろく【認知症対応型共同生活介護】富山県魚津市石垣３８９番地", "url2": "https://www.kaigokensaku.mhlw.go.jp/16/index.php?action_kouhyou_detail_004_kani=true&JigyosyoCd=1670400355-00&ServiceCd=320&Type=search" }, "geometry": { "type": "Point", "coordinates": [ 137.4426906, 36.8050837 ] } },
{ "type": "Feature", "properties": { "内容": "グループホーム　しんきろうハウス【認知症対応型共同生活介護】富山県魚津市東町12番1号", "url2": "https://www.kaigokensaku.mhlw.go.jp/16/index.php?action_kouhyou_detail_004_kani=true&JigyosyoCd=1670400082-00&ServiceCd=320&Type=search" }, "geometry": { "type": "Point", "coordinates": [ 137.4149721, 36.8545625 ] } },
{ "type": "Feature", "properties": { "内容": "グループホーム　ちゅうりっぷ【認知症対応型共同生活介護】富山県魚津市新金屋2丁目6番2号", "url2": "https://www.kaigokensaku.mhlw.go.jp/16/index.php?action_kouhyou_detail_004_kani=true&JigyosyoCd=1690400070-00&ServiceCd=320&Type=search" }, "geometry": { "type": "Point", "coordinates": [ 137.407988100000011, 36.8204366 ] } },
{ "type": "Feature", "properties": { "内容": "グループホーム天神金さん銀さん【認知症対応型共同生活介護】天神野新６７１", "url2": "https://www.kaigokensaku.mhlw.go.jp/16/index.php?action_kouhyou_detail_004_kani=true&JigyosyoCd=1690400047-00&ServiceCd=320&Type=search" }, "geometry": { "type": "Point", "coordinates": [ 137.439954101852436, 36.831792891375216 ] } },
{ "type": "Feature", "properties": { "内容": "パティオ　しらゆり【認知症対応型共同生活介護】富山県魚津市本江1090", "url2": "https://www.kaigokensaku.mhlw.go.jp/16/index.php?action_kouhyou_detail_004_kani=true&JigyosyoCd=1690400088-00&ServiceCd=320&Type=search" }, "geometry": { "type": "Point", "coordinates": [ 137.411968373818979, 36.816720535765491 ] } },
{ "type": "Feature", "properties": { "内容": "認知症対応型グループホームすずらん【認知症対応型共同生活介護】朝日丘8-20", "url2": "https://www.kaigokensaku.mhlw.go.jp/16/index.php?action_kouhyou_detail_004_kani=true&JigyosyoCd=1690500176-00&ServiceCd=320&Type=search" }, "geometry": { "type": "Point", "coordinates": [ 136.9821677, 36.8458079 ] } },
{ "type": "Feature", "properties": { "内容": "グループホーム　堀田の家【認知症対応型共同生活介護】富山県氷見市堀田４６５－３", "url2": "https://www.kaigokensaku.mhlw.go.jp/16/index.php?action_kouhyou_detail_004_kani=true&JigyosyoCd=1670500238-00&ServiceCd=320&Type=search" }, "geometry": { "type": "Point", "coordinates": [ 136.973846800000047, 36.8135958 ] } },
{ "type": "Feature", "properties": { "内容": "グループホーム島尾の家【認知症対応型共同生活介護】富山県氷見市島尾５９９番地", "url2": "https://www.kaigokensaku.mhlw.go.jp/16/index.php?action_kouhyou_detail_004_kani=true&JigyosyoCd=1670500196-00&ServiceCd=320&Type=search" }, "geometry": { "type": "Point", "coordinates": [ 137.008870800000068, 36.824204 ] } },
{ "type": "Feature", "properties": { "内容": "ありがとうホーム氷見【認知症対応型共同生活介護】十二町１３５番地", "url2": "https://www.kaigokensaku.mhlw.go.jp/16/index.php?action_kouhyou_detail_004_kani=true&JigyosyoCd=1690500119-00&ServiceCd=320&Type=search" }, "geometry": { "type": "Point", "coordinates": [ 136.9690746, 36.841236 ] } },
{ "type": "Feature", "properties": { "内容": "グループホーム宮田の家【認知症対応型共同生活介護】富山県氷見市島尾548－1", "url2": "https://www.kaigokensaku.mhlw.go.jp/16/index.php?action_kouhyou_detail_004_kani=true&JigyosyoCd=1690500143-00&ServiceCd=320&Type=search" }, "geometry": { "type": "Point", "coordinates": [ 137.004981771692997, 36.821166286312767 ] } },
{ "type": "Feature", "properties": { "内容": "グループホーム　ひまわり【認知症対応型共同生活介護】富山県氷見市余川1153-2", "url2": "https://www.kaigokensaku.mhlw.go.jp/16/index.php?action_kouhyou_detail_004_kani=true&JigyosyoCd=1690500135-00&ServiceCd=320&Type=search" }, "geometry": { "type": "Point", "coordinates": [ 136.963576390426852, 36.881812307803855 ] } },
{ "type": "Feature", "properties": { "内容": "ケアホームまどか【認知症対応型共同生活介護】富山県氷見市栄町18－12ケアホームまどか", "url2": "https://www.kaigokensaku.mhlw.go.jp/16/index.php?action_kouhyou_detail_004_kani=true&JigyosyoCd=1690500184-00&ServiceCd=320&Type=search" }, "geometry": { "type": "Point", "coordinates": [ 136.978942299999972, 36.868385 ] } },
{ "type": "Feature", "properties": { "内容": "そよ風ホーム【認知症対応型共同生活介護】氷見市窪２０７３", "url2": "https://www.kaigokensaku.mhlw.go.jp/16/index.php?action_kouhyou_detail_004_kani=true&JigyosyoCd=1690500051-00&ServiceCd=320&Type=search" }, "geometry": { "type": "Point", "coordinates": [ 137.001410299999947, 36.8394181 ] } },
{ "type": "Feature", "properties": { "内容": "ケアホームあお【認知症対応型共同生活介護】氷見市阿尾860-1", "url2": "https://www.kaigokensaku.mhlw.go.jp/16/index.php?action_kouhyou_detail_004_kani=true&JigyosyoCd=1690500044-00&ServiceCd=320&Type=search" }, "geometry": { "type": "Point", "coordinates": [ 136.989407300000039, 36.8815028 ] } },
{ "type": "Feature", "properties": { "内容": "グループホーム　粋交舎・滑川【認知症対応型共同生活介護】富山県滑川市野町1687-5", "url2": "https://www.kaigokensaku.mhlw.go.jp/16/index.php?action_kouhyou_detail_004_kani=true&JigyosyoCd=1670600095-00&ServiceCd=320&Type=search" }, "geometry": { "type": "Point", "coordinates": [ 137.367691299999933, 36.7633926 ] } },
{ "type": "Feature", "properties": { "内容": "グループホーム　ほたるの里【認知症対応型共同生活介護】滑川市下梅沢424", "url2": "https://www.kaigokensaku.mhlw.go.jp/16/index.php?action_kouhyou_detail_004_kani=true&JigyosyoCd=1670600186-00&ServiceCd=320&Type=search" }, "geometry": { "type": "Point", "coordinates": [ 137.334203399999979, 36.7468991 ] } },
{ "type": "Feature", "properties": { "内容": "グループホーム沖田金さん銀さん【認知症対応型共同生活介護】富山県滑川市沖田新４１", "url2": "https://www.kaigokensaku.mhlw.go.jp/16/index.php?action_kouhyou_detail_004_kani=true&JigyosyoCd=1690600042-00&ServiceCd=320&Type=search" }, "geometry": { "type": "Point", "coordinates": [ 137.34577969999998, 36.7538764 ] } },
{ "type": "Feature", "properties": { "内容": "グループホーム柳原金さん銀さん【認知症対応型共同生活介護】富山県滑川市柳原３３－１", "url2": "https://www.kaigokensaku.mhlw.go.jp/16/index.php?action_kouhyou_detail_004_kani=true&JigyosyoCd=1690600059-00&ServiceCd=320&Type=search" }, "geometry": { "type": "Point", "coordinates": [ 137.353314299999965, 36.7671 ] } },
{ "type": "Feature", "properties": { "内容": "滑川グループホームそよ風【認知症対応型共同生活介護】富山県滑川市上小泉1491-5", "url2": "https://www.kaigokensaku.mhlw.go.jp/16/index.php?action_kouhyou_detail_004_kani=true&JigyosyoCd=1690600075-00&ServiceCd=320&Type=search" }, "geometry": { "type": "Point", "coordinates": [ 137.3499133, 36.758292 ] } },
{ "type": "Feature", "properties": { "内容": "ホームさくらい【認知症対応型共同生活介護】富山県黒部市堀高27-1", "url2": "https://www.kaigokensaku.mhlw.go.jp/16/index.php?action_kouhyou_detail_004_kani=true&JigyosyoCd=1670700226-00&ServiceCd=320&Type=search" }, "geometry": { "type": "Point", "coordinates": [ 137.4414471, 36.8809123 ] } },
{ "type": "Feature", "properties": { "内容": "宇奈月グループホーム【認知症対応型共同生活介護】富山県黒部市宇奈月町下立３７", "url2": "https://www.kaigokensaku.mhlw.go.jp/16/index.php?action_kouhyou_detail_004_kani=true&JigyosyoCd=1671700191-00&ServiceCd=320&Type=search" }, "geometry": { "type": "Point", "coordinates": [ 137.526713800000039, 36.8642892 ] } },
{ "type": "Feature", "properties": { "内容": "グループホームくぬぎの里【認知症対応型共同生活介護】富山県黒部市宇奈月町下立５０－１", "url2": "https://www.kaigokensaku.mhlw.go.jp/16/index.php?action_kouhyou_detail_004_kani=true&JigyosyoCd=1690700032-00&ServiceCd=320&Type=search" }, "geometry": { "type": "Point", "coordinates": [ 137.527649800000063, 36.8641475 ] } },
{ "type": "Feature", "properties": { "内容": "グループホーム木ここち【認知症対応型共同生活介護】黒部市立野１２９－１", "url2": "https://www.kaigokensaku.mhlw.go.jp/16/index.php?action_kouhyou_detail_004_kani=true&JigyosyoCd=1690700057-00&ServiceCd=320&Type=search" }, "geometry": { "type": "Point", "coordinates": [ 137.422699200000011, 36.8760269 ] } },
{ "type": "Feature", "properties": { "内容": "グループホーム荻生金さん銀さん【認知症対応型共同生活介護】黒部市荻生２６７３－２", "url2": "https://www.kaigokensaku.mhlw.go.jp/16/index.php?action_kouhyou_detail_004_kani=true&JigyosyoCd=1690700065-00&ServiceCd=320&Type=search" }, "geometry": { "type": "Point", "coordinates": [ 137.467527799999971, 36.8770299 ] } },
{ "type": "Feature", "properties": { "内容": "グループホームしばんばの里【認知症対応型共同生活介護】生地芦区34番地", "url2": "https://www.kaigokensaku.mhlw.go.jp/16/index.php?action_kouhyou_detail_004_kani=true&JigyosyoCd=1690700099-00&ServiceCd=320&Type=search" }, "geometry": { "type": "Point", "coordinates": [ 137.4185738, 36.8972321 ] } },
{ "type": "Feature", "properties": { "内容": "グループホーム黒部【認知症対応型共同生活介護】富山県黒部市吉田４６０－１", "url2": "https://www.kaigokensaku.mhlw.go.jp/16/index.php?action_kouhyou_detail_004_kani=true&JigyosyoCd=1690700131-00&ServiceCd=320&Type=search" }, "geometry": { "type": "Point", "coordinates": [ 137.421812400000022, 36.9001261 ] } },
{ "type": "Feature", "properties": { "内容": "富山県黒部市生地神区183－1【認知症対応型共同生活介護】富山県黒部市生地神区183－1", "url2": "https://www.kaigokensaku.mhlw.go.jp/16/index.php?action_kouhyou_detail_004_kani=true&JigyosyoCd=1690700198-00&ServiceCd=320&Type=search" }, "geometry": { "type": "Point", "coordinates": [ 137.422101, 36.8856908 ] } },
{ "type": "Feature", "properties": { "内容": "ニチイケアセンター黒部【認知症対応型共同生活介護】富山県黒部市荻生2897-1", "url2": "https://www.kaigokensaku.mhlw.go.jp/16/index.php?action_kouhyou_detail_004_kani=true&JigyosyoCd=1690700115-00&ServiceCd=320&Type=search" }, "geometry": { "type": "Point", "coordinates": [ 137.461628651342835, 36.878641145673797 ] } },
{ "type": "Feature", "properties": { "内容": "グループホームすまいる【認知症対応型共同生活介護】富山県砺波市寿町2番38号", "url2": "https://www.kaigokensaku.mhlw.go.jp/16/index.php?action_kouhyou_detail_004_kani=true&JigyosyoCd=1670800216-00&ServiceCd=320&Type=search" }, "geometry": { "type": "Point", "coordinates": [ 136.956399552114817, 36.643298763483074 ] } },
{ "type": "Feature", "properties": { "内容": "グループホーム　あっとほーむ砺波【認知症対応型共同生活介護】砺波市鷹栖1973-1", "url2": "https://www.kaigokensaku.mhlw.go.jp/16/index.php?action_kouhyou_detail_004_kani=true&JigyosyoCd=1670800281-00&ServiceCd=320&Type=search" }, "geometry": { "type": "Point", "coordinates": [ 136.920565900000042, 36.6221279 ] } },
{ "type": "Feature", "properties": { "内容": "グループホーム柳瀬の家【認知症対応型共同生活介護】柳瀬６０１番３", "url2": "https://www.kaigokensaku.mhlw.go.jp/16/index.php?action_kouhyou_detail_004_kani=true&JigyosyoCd=1690800030-00&ServiceCd=320&Type=search" }, "geometry": { "type": "Point", "coordinates": [ 136.994669700000031, 36.644443 ] } },
{ "type": "Feature", "properties": { "内容": "グループホームひだまり絆【認知症対応型共同生活介護】砺波市宮森460-1", "url2": "https://www.kaigokensaku.mhlw.go.jp/16/index.php?action_kouhyou_detail_004_kani=true&JigyosyoCd=1690800071-00&ServiceCd=320&Type=search" }, "geometry": { "type": "Point", "coordinates": [ 137.01681205663067, 36.646421125732275 ] } },
{ "type": "Feature", "properties": { "内容": "グループホームひだまり砺波【認知症対応型共同生活介護】富山県砺波市千代３２３－１すいれん、モクレン、さくら、ツバキ、うめ、ユリ、つつじ、朝顔、富士、あやめ、スミレ、紫陽花、コスモス、推薦、ひまわり、チューリップ、ききょう、すずらん、", "url2": "https://www.kaigokensaku.mhlw.go.jp/16/index.php?action_kouhyou_detail_004_kani=true&JigyosyoCd=1690800022-00&ServiceCd=320&Type=search" }, "geometry": { "type": "Point", "coordinates": [ 136.966065928744911, 36.663023532866042 ] } },
{ "type": "Feature", "properties": { "内容": "グループホーム庄の里【認知症対応型共同生活介護】頼成６０５", "url2": "https://www.kaigokensaku.mhlw.go.jp/16/index.php?action_kouhyou_detail_004_kani=true&JigyosyoCd=1690800048-00&ServiceCd=320&Type=search" }, "geometry": { "type": "Point", "coordinates": [ 137.00840119999998, 36.6366867 ] } },
{ "type": "Feature", "properties": { "内容": "イエローガーデンとなみ【認知症対応型共同生活介護】富山県砺波市五郎丸23-1", "url2": "https://www.kaigokensaku.mhlw.go.jp/16/index.php?action_kouhyou_detail_004_kani=true&JigyosyoCd=1690800196-00&ServiceCd=320&Type=search" }, "geometry": { "type": "Point", "coordinates": [ 136.963993, 36.6089002 ] } },
{ "type": "Feature", "properties": { "内容": "グループホームあゆみ　となみ野【認知症対応型共同生活介護】富山県砺波市中野３４０", "url2": "https://www.kaigokensaku.mhlw.go.jp/16/index.php?action_kouhyou_detail_004_kani=true&JigyosyoCd=1690800055-00&ServiceCd=320&Type=search" }, "geometry": { "type": "Point", "coordinates": [ 136.983477, 36.6127612 ] } },
{ "type": "Feature", "properties": { "内容": "ニチイケアセンター石丸【認知症対応型共同生活介護】富山県砺波市石丸401番", "url2": "https://www.kaigokensaku.mhlw.go.jp/16/index.php?action_kouhyou_detail_004_kani=true&JigyosyoCd=1690800162-00&ServiceCd=320&Type=search" }, "geometry": { "type": "Point", "coordinates": [ 136.979809700000033, 36.6646616 ] } },
{ "type": "Feature", "properties": { "内容": "ケアタウンとなみ【認知症対応型共同生活介護】富山県砺波市庄川町青島208-1", "url2": "https://www.kaigokensaku.mhlw.go.jp/16/index.php?action_kouhyou_detail_004_kani=true&JigyosyoCd=1690800139-00&ServiceCd=320&Type=search" }, "geometry": { "type": "Point", "coordinates": [ 136.983763093254026, 36.582722370616686 ] } },
{ "type": "Feature", "properties": { "内容": "イエローガーデン庄川【認知症対応型共同生活介護】富山県砺波市庄川町五ケ５３番地", "url2": "https://www.kaigokensaku.mhlw.go.jp/16/index.php?action_kouhyou_detail_004_kani=true&JigyosyoCd=1690800089-00&ServiceCd=320&Type=search" }, "geometry": { "type": "Point", "coordinates": [ 136.977686400000039, 36.5873254 ] } },
{ "type": "Feature", "properties": { "内容": "はぴねすグループホームすぎのき【認知症対応型共同生活介護】富山県砺波市杉木1丁目131番地", "url2": "https://www.kaigokensaku.mhlw.go.jp/16/index.php?action_kouhyou_detail_004_kani=true&JigyosyoCd=1690800097-00&ServiceCd=320&Type=search" }, "geometry": { "type": "Point", "coordinates": [ 136.952406286894188, 36.644144636686882 ] } },
{ "type": "Feature", "properties": { "内容": "グループホームたかのす【認知症対応型共同生活介護】富山県砺波市鷹栖1014-1グループホームたかのす", "url2": "https://www.kaigokensaku.mhlw.go.jp/16/index.php?action_kouhyou_detail_004_kani=true&JigyosyoCd=1690800220-00&ServiceCd=320&Type=search" }, "geometry": { "type": "Point", "coordinates": [ 136.927273276700703, 36.629552144308605 ] } },
{ "type": "Feature", "properties": { "内容": "グループホーム小矢部藤森【認知症対応型共同生活介護】藤森５００８番地１", "url2": "https://www.kaigokensaku.mhlw.go.jp/16/index.php?action_kouhyou_detail_004_kani=true&JigyosyoCd=1690900038-00&ServiceCd=320&Type=search" }, "geometry": { "type": "Point", "coordinates": [ 136.856005, 36.6390489 ] } },
{ "type": "Feature", "properties": { "内容": "グループホームはっちょうとんぼ【認知症対応型共同生活介護】富山県小矢部市臼谷字岡ノ城6520番地", "url2": "https://www.kaigokensaku.mhlw.go.jp/16/index.php?action_kouhyou_detail_004_kani=true&JigyosyoCd=1670900255-00&ServiceCd=320&Type=search" }, "geometry": { "type": "Point", "coordinates": [ 136.820569177587515, 36.623796628413366 ] } },
{ "type": "Feature", "properties": { "内容": "ケアサポートいろどり【認知症対応型共同生活介護】浅地５８３番地", "url2": "https://www.kaigokensaku.mhlw.go.jp/16/index.php?action_kouhyou_detail_004_kani=true&JigyosyoCd=1690900145-00&ServiceCd=320&Type=search" }, "geometry": { "type": "Point", "coordinates": [ 136.877708699999971, 36.6324115 ] } },
{ "type": "Feature", "properties": { "内容": "サンケア小矢部【認知症対応型共同生活介護】小矢部市今石動町1-2-9", "url2": "https://www.kaigokensaku.mhlw.go.jp/16/index.php?action_kouhyou_detail_004_kani=true&JigyosyoCd=1690900053-00&ServiceCd=320&Type=search" }, "geometry": { "type": "Point", "coordinates": [ 136.8769853, 36.6768332 ] } },
{ "type": "Feature", "properties": { "内容": "ローカルセンター小矢部【認知症対応型共同生活介護】小矢部市新西９２－１", "url2": "https://www.kaigokensaku.mhlw.go.jp/16/index.php?action_kouhyou_detail_004_kani=true&JigyosyoCd=1670900198-00&ServiceCd=320&Type=search" }, "geometry": { "type": "Point", "coordinates": [ 136.896637599999963, 36.6306763 ] } },
{ "type": "Feature", "properties": { "内容": "はぁとふるケアあさがお【認知症対応型共同生活介護】小矢部市西中野694-1", "url2": "https://www.kaigokensaku.mhlw.go.jp/16/index.php?action_kouhyou_detail_004_kani=true&JigyosyoCd=1690900095-00&ServiceCd=320&Type=search" }, "geometry": { "type": "Point", "coordinates": [ 136.877712699999961, 36.6852822 ] } },
{ "type": "Feature", "properties": { "内容": "ケアタウンおやべ【認知症対応型共同生活介護】小矢部市埴生2-47", "url2": "https://www.kaigokensaku.mhlw.go.jp/16/index.php?action_kouhyou_detail_004_kani=true&JigyosyoCd=1690900020-00&ServiceCd=320&Type=search" }, "geometry": { "type": "Point", "coordinates": [ 136.848274400000037, 36.6672009 ] } },
{ "type": "Feature", "properties": { "内容": "イエローガーデン小矢部【認知症対応型共同生活介護】富山県小矢部市観音町5番44号", "url2": "https://www.kaigokensaku.mhlw.go.jp/16/index.php?action_kouhyou_detail_004_kani=true&JigyosyoCd=1690900061-00&ServiceCd=320&Type=search" }, "geometry": { "type": "Point", "coordinates": [ 136.86424149510654, 36.677084318740739 ] } },
{ "type": "Feature", "properties": { "内容": "愛寿乃里【認知症対応型共同生活介護】富山県小矢部市福上362-1", "url2": "https://www.kaigokensaku.mhlw.go.jp/16/index.php?action_kouhyou_detail_004_kani=true&JigyosyoCd=1690900129-00&ServiceCd=320&Type=search" }, "geometry": { "type": "Point", "coordinates": [ 136.878461, 36.647765 ] } },
{ "type": "Feature", "properties": { "内容": "福祉コミュニティ小矢部あいの風【認知症対応型共同生活介護】富山県小矢部市茄子島２２６", "url2": "https://www.kaigokensaku.mhlw.go.jp/16/index.php?action_kouhyou_detail_004_kani=true&JigyosyoCd=1690900046-00&ServiceCd=320&Type=search" }, "geometry": { "type": "Point", "coordinates": [ 136.8748468, 36.6694897 ] } },
{ "type": "Feature", "properties": { "内容": "地域密着型サービス事業共生型グループホームらぶあけぼの【認知症対応型共同生活介護】小矢部市綾子5599", "url2": "https://www.kaigokensaku.mhlw.go.jp/16/index.php?action_kouhyou_detail_004_kani=true&JigyosyoCd=1690900087-00&ServiceCd=320&Type=search" }, "geometry": { "type": "Point", "coordinates": [ 136.861826738484183, 36.671272530952486 ] } },
{ "type": "Feature", "properties": { "内容": "グループホーム　福光ほほえみの家【認知症対応型共同生活介護】富山県南砺市法林寺４２４", "url2": "https://www.kaigokensaku.mhlw.go.jp/16/index.php?action_kouhyou_detail_004_kani=true&JigyosyoCd=1672100151-00&ServiceCd=320&Type=search" }, "geometry": { "type": "Point", "coordinates": [ 136.857394800000066, 36.5707276 ] } },
{ "type": "Feature", "properties": { "内容": "グループホーム　葵の園・かいにょ【認知症対応型共同生活介護】富山県南砺市天池字二番野島1555番3", "url2": "https://www.kaigokensaku.mhlw.go.jp/16/index.php?action_kouhyou_detail_004_kani=true&JigyosyoCd=1672100144-00&ServiceCd=320&Type=search" }, "geometry": { "type": "Point", "coordinates": [ 136.90378080000005, 36.5425379 ] } },
{ "type": "Feature", "properties": { "内容": "グループホーム　こもれび【認知症対応型共同生活介護】富山県南砺市野田２１３－１", "url2": "https://www.kaigokensaku.mhlw.go.jp/16/index.php?action_kouhyou_detail_004_kani=true&JigyosyoCd=1691000127-00&ServiceCd=320&Type=search" }, "geometry": { "type": "Point", "coordinates": [ 136.892694, 36.5204787 ] } },
{ "type": "Feature", "properties": { "内容": "グループホーム柿の華【認知症対応型共同生活介護】富山県南砺市高宮５１０６", "url2": "https://www.kaigokensaku.mhlw.go.jp/16/index.php?action_kouhyou_detail_004_kani=true&JigyosyoCd=1691000028-00&ServiceCd=320&Type=search" }, "geometry": { "type": "Point", "coordinates": [ 136.872911599999952, 36.5437424 ] } },
{ "type": "Feature", "properties": { "内容": "ケアタウン・なんと【認知症対応型共同生活介護】南砺市新邸11-1", "url2": "https://www.kaigokensaku.mhlw.go.jp/16/index.php?action_kouhyou_detail_004_kani=true&JigyosyoCd=1691000051-00&ServiceCd=320&Type=search" }, "geometry": { "type": "Point", "coordinates": [ 136.893852700000025, 36.5685928 ] } },
{ "type": "Feature", "properties": { "内容": "ケアタウン福野【認知症対応型共同生活介護】南砺市柴田屋396-11", "url2": "https://www.kaigokensaku.mhlw.go.jp/16/index.php?action_kouhyou_detail_004_kani=true&JigyosyoCd=1691000192-00&ServiceCd=320&Type=search" }, "geometry": { "type": "Point", "coordinates": [ 136.9044685, 36.5981153 ] } },
{ "type": "Feature", "properties": { "内容": "はぴねす　グループホーム松と春【認知症対応型共同生活介護】富山県南砺市年代172番地2", "url2": "https://www.kaigokensaku.mhlw.go.jp/16/index.php?action_kouhyou_detail_004_kani=true&JigyosyoCd=1691000036-00&ServiceCd=320&Type=search" }, "geometry": { "type": "Point", "coordinates": [ 136.9391316, 36.5893465 ] } },
{ "type": "Feature", "properties": { "内容": "イエローガーデンいのくち【認知症対応型共同生活介護】南砺市蛇喰１２６１番地", "url2": "https://www.kaigokensaku.mhlw.go.jp/16/index.php?action_kouhyou_detail_004_kani=true&JigyosyoCd=1691000044-00&ServiceCd=320&Type=search" }, "geometry": { "type": "Point", "coordinates": [ 136.933739, 36.5338312 ] } },
{ "type": "Feature", "properties": { "内容": "イエローガーデン城端【認知症対応型共同生活介護】富山県南砺市是安1151番1", "url2": "https://www.kaigokensaku.mhlw.go.jp/16/index.php?action_kouhyou_detail_004_kani=true&JigyosyoCd=1691000234-00&ServiceCd=320&Type=search" }, "geometry": { "type": "Point", "coordinates": [ 136.9028899, 36.5224456 ] } },
{ "type": "Feature", "properties": { "内容": "グループホーム五箇山【認知症対応型共同生活介護】富山県南砺市東赤尾字横平５７７－１", "url2": "https://www.kaigokensaku.mhlw.go.jp/16/index.php?action_kouhyou_detail_004_kani=true&JigyosyoCd=1691000093-00&ServiceCd=320&Type=search" }, "geometry": { "type": "Point", "coordinates": [ 136.875355300000024, 36.3820444 ] } },
{ "type": "Feature", "properties": { "内容": "ぐる～ぷほ～む城端【認知症対応型共同生活介護】富山県南砺市細木108番1", "url2": "https://www.kaigokensaku.mhlw.go.jp/16/index.php?action_kouhyou_detail_004_kani=true&JigyosyoCd=1691000150-00&ServiceCd=320&Type=search" }, "geometry": { "type": "Point", "coordinates": [ 136.89529349999998, 36.5253867 ] } },
{ "type": "Feature", "properties": { "内容": "ニチイケアセンター山見【認知症対応型共同生活介護】富山県南砺市山見330-2", "url2": "https://www.kaigokensaku.mhlw.go.jp/16/index.php?action_kouhyou_detail_004_kani=true&JigyosyoCd=1691000077-00&ServiceCd=320&Type=search" }, "geometry": { "type": "Point", "coordinates": [ 139.94244690000005, 37.5057933 ] } },
{ "type": "Feature", "properties": { "内容": "はぴねすグループホーム福野【認知症対応型共同生活介護】富山県南砺市二日町２０７７番地７", "url2": "https://www.kaigokensaku.mhlw.go.jp/16/index.php?action_kouhyou_detail_004_kani=true&JigyosyoCd=1691000010-00&ServiceCd=320&Type=search" }, "geometry": { "type": "Point", "coordinates": [ 136.920238299999937, 36.6005139 ] } },
{ "type": "Feature", "properties": { "内容": "愛の家グループホーム南砺福光【認知症対応型共同生活介護】富山県南砺市福光777番1", "url2": "https://www.kaigokensaku.mhlw.go.jp/16/index.php?action_kouhyou_detail_004_kani=true&JigyosyoCd=1691000119-00&ServiceCd=320&Type=search" }, "geometry": { "type": "Point", "coordinates": [ 136.86421578630825, 36.555514561562411 ] } },
{ "type": "Feature", "properties": { "内容": "グループホーム南砺星【認知症対応型共同生活介護】富山県南砺市中ノ江195-1", "url2": "https://www.kaigokensaku.mhlw.go.jp/16/index.php?action_kouhyou_detail_004_kani=true&JigyosyoCd=1691000184-00&ServiceCd=320&Type=search" }, "geometry": { "type": "Point", "coordinates": [ 136.866019199999982, 36.566345 ] } },
{ "type": "Feature", "properties": { "内容": "イエローガーデン高瀬【認知症対応型共同生活介護】北市256番1", "url2": "https://www.kaigokensaku.mhlw.go.jp/16/index.php?action_kouhyou_detail_004_kani=true&JigyosyoCd=1691000135-00&ServiceCd=320&Type=search" }, "geometry": { "type": "Point", "coordinates": [ 136.679802099999961, 36.5947129 ] } },
{ "type": "Feature", "properties": { "内容": "射水ハッピーホーム【認知症対応型共同生活介護】富山県射水市上条299－1", "url2": "https://www.kaigokensaku.mhlw.go.jp/16/index.php?action_kouhyou_detail_004_kani=true&JigyosyoCd=1691100067-00&ServiceCd=320&Type=search" }, "geometry": { "type": "Point", "coordinates": [ 137.032618700000057, 36.712771 ] } },
{ "type": "Feature", "properties": { "内容": "おうちととなり【認知症対応型共同生活介護】富山県射水市黒河３２５２番地１", "url2": "https://www.kaigokensaku.mhlw.go.jp/16/index.php?action_kouhyou_detail_004_kani=true&JigyosyoCd=1691100190-00&ServiceCd=320&Type=search" }, "geometry": { "type": "Point", "coordinates": [ 137.107480600000031, 36.7021931 ] } },
{ "type": "Feature", "properties": { "内容": "りらいあんす【認知症対応型共同生活介護】富山県射水市寺塚原188", "url2": "https://www.kaigokensaku.mhlw.go.jp/16/index.php?action_kouhyou_detail_004_kani=true&JigyosyoCd=1670300217-00&ServiceCd=320&Type=search" }, "geometry": { "type": "Point", "coordinates": [ 137.06239770000002, 36.7496416 ] } },
{ "type": "Feature", "properties": { "内容": "グループホーム風乃里水戸田【認知症対応型共同生活介護】富山県射水市水戸田966-1", "url2": "https://www.kaigokensaku.mhlw.go.jp/16/index.php?action_kouhyou_detail_004_kani=true&JigyosyoCd=1691100307-00&ServiceCd=320&Type=search" }, "geometry": { "type": "Point", "coordinates": [ 137.0690846, 36.7043784 ] } },
{ "type": "Feature", "properties": { "内容": "福祉プラザ七美　認知症対応型共同生活介護【認知症対応型共同生活介護】射水市七美879-1", "url2": "https://www.kaigokensaku.mhlw.go.jp/16/index.php?action_kouhyou_detail_004_kani=true&JigyosyoCd=1691100158-00&ServiceCd=320&Type=search" }, "geometry": { "type": "Point", "coordinates": [ 137.14075349999996, 36.7522095 ] } },
{ "type": "Feature", "properties": { "内容": "射水万葉苑　本町サポートセンター　認知症対応型共同生活介護事業所【認知症対応型共同生活介護】富山県射水市本町3-17-8", "url2": "https://www.kaigokensaku.mhlw.go.jp/16/index.php?action_kouhyou_detail_004_kani=true&JigyosyoCd=1691100059-00&ServiceCd=320&Type=search" }, "geometry": { "type": "Point", "coordinates": [ 137.080697800000053, 36.7813887 ] } },
{ "type": "Feature", "properties": { "内容": "生活支援ハウスふるさと【認知症対応型共同生活介護】富山県射水市小島607-1", "url2": "https://www.kaigokensaku.mhlw.go.jp/16/index.php?action_kouhyou_detail_004_kani=true&JigyosyoCd=1691100315-00&ServiceCd=320&Type=search" }, "geometry": { "type": "Point", "coordinates": [ 137.065275700000029, 36.7346824 ] } },
{ "type": "Feature", "properties": { "内容": "ケアホーム春らんまん【認知症対応型共同生活介護】富山県射水市小島21－1", "url2": "https://www.kaigokensaku.mhlw.go.jp/16/index.php?action_kouhyou_detail_004_kani=true&JigyosyoCd=1691100117-00&ServiceCd=320&Type=search" }, "geometry": { "type": "Point", "coordinates": [ 137.059067700000014, 36.7414675 ] } },
{ "type": "Feature", "properties": { "内容": "ケアホーム新湊あいの風【認知症対応型共同生活介護】射水市海王町２１－５", "url2": "https://www.kaigokensaku.mhlw.go.jp/16/index.php?action_kouhyou_detail_004_kani=true&JigyosyoCd=1691100240-00&ServiceCd=320&Type=search" }, "geometry": { "type": "Point", "coordinates": [ 137.104798100000039, 36.7784477 ] } },
{ "type": "Feature", "properties": { "内容": "グループホームさんが【認知症対応型共同生活介護】富山県　射水市　三ヶ８３５", "url2": "https://www.kaigokensaku.mhlw.go.jp/16/index.php?action_kouhyou_detail_004_kani=true&JigyosyoCd=1671900221-00&ServiceCd=320&Type=search" }, "geometry": { "type": "Point", "coordinates": [ 137.0990782, 36.7250512 ] } },
{ "type": "Feature", "properties": { "内容": "ふれあいホーム小泉【認知症対応型共同生活介護】富山県射水市小泉310-1", "url2": "https://www.kaigokensaku.mhlw.go.jp/16/index.php?action_kouhyou_detail_004_kani=true&JigyosyoCd=1691100083-00&ServiceCd=320&Type=search" }, "geometry": { "type": "Point", "coordinates": [ 137.030123300000014, 36.7024573 ] } },
{ "type": "Feature", "properties": { "内容": "有限会社リアン　グループホーム北高木【認知症対応型共同生活介護】富山県射水市北高木255番地グループホーム北高木", "url2": "https://www.kaigokensaku.mhlw.go.jp/16/index.php?action_kouhyou_detail_004_kani=true&JigyosyoCd=1691100422-00&ServiceCd=320&Type=search" }, "geometry": { "type": "Point", "coordinates": [ 137.0717617, 36.7421991 ] } },
{ "type": "Feature", "properties": { "内容": "イエローガーデン作道【認知症対応型共同生活介護】射水市作道９０９－２", "url2": "https://www.kaigokensaku.mhlw.go.jp/16/index.php?action_kouhyou_detail_004_kani=true&JigyosyoCd=1671100020-00&ServiceCd=320&Type=search" }, "geometry": { "type": "Point", "coordinates": [ 137.08962310000004, 36.7482315 ] } },
{ "type": "Feature", "properties": { "内容": "イエローガーデン射水【認知症対応型共同生活介護】射水市七美中野140", "url2": "https://www.kaigokensaku.mhlw.go.jp/16/index.php?action_kouhyou_detail_004_kani=true&JigyosyoCd=1670300316-00&ServiceCd=320&Type=search" }, "geometry": { "type": "Point", "coordinates": [ 137.138806299999942, 36.7583309 ] } },
{ "type": "Feature", "properties": { "内容": "グループホームぬくもり【認知症対応型共同生活介護】富山県射水市朴木244番地", "url2": "https://www.kaigokensaku.mhlw.go.jp/16/index.php?action_kouhyou_detail_004_kani=true&JigyosyoCd=1670300274-00&ServiceCd=320&Type=search" }, "geometry": { "type": "Point", "coordinates": [ 137.076998900000035, 36.7588826 ] } },
{ "type": "Feature", "properties": { "内容": "ケアホームほりおか【認知症対応型共同生活介護】射水市射水町1丁目18", "url2": "https://www.kaigokensaku.mhlw.go.jp/16/index.php?action_kouhyou_detail_004_kani=true&JigyosyoCd=1691100141-00&ServiceCd=320&Type=search" }, "geometry": { "type": "Point", "coordinates": [ 137.124311047885129, 36.768491543453727 ] } },
{ "type": "Feature", "properties": { "内容": "ケアホームハシゲジョウテラス【認知症対応型共同生活介護】射水市橋下条850-1", "url2": "https://www.kaigokensaku.mhlw.go.jp/16/index.php?action_kouhyou_detail_004_kani=true&JigyosyoCd=1691100026-00&ServiceCd=320&Type=search" }, "geometry": { "type": "Point", "coordinates": [ 137.083680299999969, 36.7091861 ] } },
{ "type": "Feature", "properties": { "内容": "ケアホーム舟橋あいの風【認知症対応型共同生活介護】富山県中新川郡舟橋村舟橋６７－１", "url2": "https://www.kaigokensaku.mhlw.go.jp/16/index.php?action_kouhyou_detail_004_kani=true&JigyosyoCd=1691600090-00&ServiceCd=320&Type=search" }, "geometry": { "type": "Point", "coordinates": [ 137.310234280642703, 36.707130356466877 ] } },
{ "type": "Feature", "properties": { "内容": "グループホーム　かみいち福祉の里【認知症対応型共同生活介護】富山県中新川郡上市町東江上２８８番地", "url2": "https://www.kaigokensaku.mhlw.go.jp/16/index.php?action_kouhyou_detail_004_kani=true&JigyosyoCd=1691600041-00&ServiceCd=320&Type=search" }, "geometry": { "type": "Point", "coordinates": [ 137.347611599999937, 36.7213692 ] } },
{ "type": "Feature", "properties": { "内容": "グループホーム逢の希【認知症対応型共同生活介護】中新川郡上市町上経田5-1", "url2": "https://www.kaigokensaku.mhlw.go.jp/16/index.php?action_kouhyou_detail_004_kani=true&JigyosyoCd=1691600108-00&ServiceCd=320&Type=search" }, "geometry": { "type": "Point", "coordinates": [ 137.335773333143635, 36.702862441154686 ] } },
{ "type": "Feature", "properties": { "内容": "ありがとうホーム上市【認知症対応型共同生活介護】富山県中新川郡上市町旭町1282番地", "url2": "https://www.kaigokensaku.mhlw.go.jp/16/index.php?action_kouhyou_detail_004_kani=true&JigyosyoCd=1691600165-00&ServiceCd=320&Type=search" }, "geometry": { "type": "Point", "coordinates": [ 137.36733490000006, 36.707563 ] } },
{ "type": "Feature", "properties": { "内容": "グループホーム　あおぞら【認知症対応型共同生活介護】富山県中新川郡上市町若杉三丁目522番地", "url2": "https://www.kaigokensaku.mhlw.go.jp/16/index.php?action_kouhyou_detail_004_kani=true&JigyosyoCd=1691600033-00&ServiceCd=320&Type=search" }, "geometry": { "type": "Point", "coordinates": [ 137.349450700000034, 36.707982 ] } },
{ "type": "Feature", "properties": { "内容": "グループホーム利田の家【認知症対応型共同生活介護】富山県中新川郡立山町利田672-12", "url2": "https://www.kaigokensaku.mhlw.go.jp/16/index.php?action_kouhyou_detail_004_kani=true&JigyosyoCd=1691600116-00&ServiceCd=320&Type=search" }, "geometry": { "type": "Point", "coordinates": [ 137.2927307, 36.6843417 ] } },
{ "type": "Feature", "properties": { "内容": "ケアホーム立山あいの風【認知症対応型共同生活介護】富山県中新川郡立山町寺田３８２－1", "url2": "https://www.kaigokensaku.mhlw.go.jp/16/index.php?action_kouhyou_detail_004_kani=true&JigyosyoCd=1691600074-00&ServiceCd=320&Type=search" }, "geometry": { "type": "Point", "coordinates": [ 137.321012099999962, 36.6921247 ] } },
{ "type": "Feature", "properties": { "内容": "赤いふうせんクレヨン【認知症対応型共同生活介護】中新川郡立山町前沢新町301番地", "url2": "https://www.kaigokensaku.mhlw.go.jp/16/index.php?action_kouhyou_detail_004_kani=true&JigyosyoCd=1691600124-00&ServiceCd=320&Type=search" }, "geometry": { "type": "Point", "coordinates": [ 137.311297, 36.6656358 ] } },
{ "type": "Feature", "properties": { "内容": "福来老・米沢【認知症対応型共同生活介護】中新川郡立山町米沢32番1", "url2": "https://www.kaigokensaku.mhlw.go.jp/16/index.php?action_kouhyou_detail_004_kani=true&JigyosyoCd=1691600017-00&ServiceCd=320&Type=search" }, "geometry": { "type": "Point", "coordinates": [ 137.3195184, 36.6682942 ] } },
{ "type": "Feature", "properties": { "内容": "福来老【認知症対応型共同生活介護】富山県中新川郡立山町日中上野１９１", "url2": "https://www.kaigokensaku.mhlw.go.jp/16/index.php?action_kouhyou_detail_004_kani=true&JigyosyoCd=1671600300-00&ServiceCd=320&Type=search" }, "geometry": { "type": "Point", "coordinates": [ 137.351201899999978, 36.6602313 ] } },
{ "type": "Feature", "properties": { "内容": "グループホーム春日の郷【認知症対応型共同生活介護】下新川郡入善町春日４５０－２ケアセンター春日の郷", "url2": "https://www.kaigokensaku.mhlw.go.jp/16/index.php?action_kouhyou_detail_004_kani=true&JigyosyoCd=1691700098-00&ServiceCd=320&Type=search" }, "geometry": { "type": "Point", "coordinates": [ 137.525432799999976, 36.9566565 ] } },
{ "type": "Feature", "properties": { "内容": "グループホーム雅　春日の郷【認知症対応型共同生活介護】富山県下新川郡入善町春日450-2", "url2": "https://www.kaigokensaku.mhlw.go.jp/16/index.php?action_kouhyou_detail_004_kani=true&JigyosyoCd=1691700361-00&ServiceCd=320&Type=search" }, "geometry": { "type": "Point", "coordinates": [ 137.5263426, 36.9530629 ] } },
{ "type": "Feature", "properties": { "内容": "グループホームうわの【認知症対応型共同生活介護】富山県下新川郡入善町上野818-3", "url2": "https://www.kaigokensaku.mhlw.go.jp/16/index.php?action_kouhyou_detail_004_kani=true&JigyosyoCd=1691700270-00&ServiceCd=320&Type=search" }, "geometry": { "type": "Point", "coordinates": [ 137.493589300000025, 36.934951300000016 ] } },
{ "type": "Feature", "properties": { "内容": "グループホーム温森【認知症対応型共同生活介護】富山県下新川郡入善町入膳4199-1", "url2": "https://www.kaigokensaku.mhlw.go.jp/16/index.php?action_kouhyou_detail_004_kani=true&JigyosyoCd=1691700130-00&ServiceCd=320&Type=search" }, "geometry": { "type": "Point", "coordinates": [ 137.507704699999977, 36.9323586 ] } },
{ "type": "Feature", "properties": { "内容": "富山型共生グループホーム双葉【認知症対応型共同生活介護】富山県下新川郡入善町入膳7936番地1", "url2": "https://www.kaigokensaku.mhlw.go.jp/16/index.php?action_kouhyou_detail_004_kani=true&JigyosyoCd=1691700056-00&ServiceCd=320&Type=search" }, "geometry": { "type": "Point", "coordinates": [ 137.496758900000032, 36.9396513 ] } },
{ "type": "Feature", "properties": { "内容": "共生型グループホーム　華のれん【認知症対応型共同生活介護】富山県下新川郡入善町入膳4716-5", "url2": "https://www.kaigokensaku.mhlw.go.jp/16/index.php?action_kouhyou_detail_004_kani=true&JigyosyoCd=1691700148-00&ServiceCd=320&Type=search" }, "geometry": { "type": "Point", "coordinates": [ 137.505063, 36.9393657 ] } },
{ "type": "Feature", "properties": { "内容": "グループホーム東狐金さん銀さん【認知症対応型共同生活介護】入善町東狐６０３", "url2": "https://www.kaigokensaku.mhlw.go.jp/16/index.php?action_kouhyou_detail_004_kani=true&JigyosyoCd=1691700015-00&ServiceCd=320&Type=search" }, "geometry": { "type": "Point", "coordinates": [ 137.458173200000033, 36.9273276 ] } },
{ "type": "Feature", "properties": { "内容": "グループホームとわ【認知症対応型共同生活介護】富山県下新川郡入善町上野６８", "url2": "https://www.kaigokensaku.mhlw.go.jp/16/index.php?action_kouhyou_detail_004_kani=true&JigyosyoCd=1691700262-00&ServiceCd=320&Type=search" }, "geometry": { "type": "Point", "coordinates": [ 137.488734, 36.9247911 ] } },
{ "type": "Feature", "properties": { "内容": "グループホーム入善【認知症対応型共同生活介護】富山県下新川郡入善町上野818-2", "url2": "https://www.kaigokensaku.mhlw.go.jp/16/index.php?action_kouhyou_detail_004_kani=true&JigyosyoCd=1691700213-00&ServiceCd=320&Type=search" }, "geometry": { "type": "Point", "coordinates": [ 137.493693099999973, 36.9349656 ] } },
{ "type": "Feature", "properties": { "内容": "富山型共生の里あさひ　グループホーム大樹【認知症対応型共同生活介護】富山県下新川郡朝日町大家庄705番地1", "url2": "https://www.kaigokensaku.mhlw.go.jp/16/index.php?action_kouhyou_detail_004_kani=true&JigyosyoCd=1691700064-00&ServiceCd=320&Type=search" }, "geometry": { "type": "Point", "coordinates": [ 137.547351299999946, 36.9281502 ] } },
{ "type": "Feature", "properties": { "内容": "グループホーム　あさひ【認知症対応型共同生活介護】富山県朝日町桜町104-3", "url2": "https://www.kaigokensaku.mhlw.go.jp/16/index.php?action_kouhyou_detail_004_kani=true&JigyosyoCd=1691700049-00&ServiceCd=320&Type=search" }, "geometry": { "type": "Point", "coordinates": [ 137.560059899999942, 36.9386661 ] } },
{ "type": "Feature", "properties": { "内容": "富山型共生グループホーム翼【認知症対応型共同生活介護】富山県下新川郡朝日町大家庄705番地1", "url2": "https://www.kaigokensaku.mhlw.go.jp/16/index.php?action_kouhyou_detail_004_kani=true&JigyosyoCd=1691700114-00&ServiceCd=320&Type=search" }, "geometry": { "type": "Point", "coordinates": [ 137.5473485, 36.9282058 ] } },
{ "type": "Feature", "properties": { "内容": "グループホームあさひ【認知症対応型共同生活介護】富山県朝日町桜町104-3", "url2": "https://www.kaigokensaku.mhlw.go.jp/16/index.php?action_kouhyou_detail_004_kani=true&JigyosyoCd=1691700288-00&ServiceCd=320&Type=search" }, "geometry": { "type": "Point", "coordinates": [ 137.560031400000014, 36.938673399999985 ] } },
{ "type": "Feature", "properties": { "内容": "グループホームあさひ【認知症対応型共同生活介護】富山県下新川郡朝日町桜町１０４－３", "url2": "https://www.kaigokensaku.mhlw.go.jp/16/index.php?action_kouhyou_detail_004_kani=true&JigyosyoCd=1691700395-00&ServiceCd=320&Type=search" }, "geometry": { "type": "Point", "coordinates": [ 137.560031400000014, 36.938673399999985 ] } }
]
}
