{
"type": "FeatureCollection",
"name": "geo_16_看護小規模多機能型居宅介護（複合型サービス）",
"crs": { "type": "name", "properties": { "name": "urn:ogc:def:crs:OGC:1.3:CRS84" } },
"features": [
{ "type": "Feature", "properties": { "内容": "看護小規模多機能型居宅介護ゲーテ【看護小規模多機能型居宅介護（複合型サービス）】富山県富山市八尾町福島4-86", "url2": "https://www.kaigokensaku.mhlw.go.jp/16/index.php?action_kouhyou_detail_004_kani=true&JigyosyoCd=1690100811-00&ServiceCd=&Type=search" }, "geometry": { "type": "Point", "coordinates": [ 137.1350569, 36.580423 ] } },
{ "type": "Feature", "properties": { "内容": "看護小規模多機能型居宅介護事業所おきな【看護小規模多機能型居宅介護（複合型サービス）】富山市石金１丁目２番３０号総合福祉施設おきな", "url2": "https://www.kaigokensaku.mhlw.go.jp/16/index.php?action_kouhyou_detail_004_kani=true&JigyosyoCd=1690100902-00&ServiceCd=&Type=search" }, "geometry": { "type": "Point", "coordinates": [ 137.234269499999982, 36.6910447 ] } },
{ "type": "Feature", "properties": { "内容": "ナーシングホーム　希望のひかり【看護小規模多機能型居宅介護（複合型サービス）】富山市上大久保1581-1", "url2": "https://www.kaigokensaku.mhlw.go.jp/16/index.php?action_kouhyou_detail_004_kani=true&JigyosyoCd=1690100969-00&ServiceCd=&Type=search" }, "geometry": { "type": "Point", "coordinates": [ 137.211477699999932, 36.5912144 ] } },
{ "type": "Feature", "properties": { "内容": "看護小規模多機能型居宅介護笑美寿東【看護小規模多機能型居宅介護（複合型サービス）】富山県富山市田畑852-3ケアセンター笑美寿東", "url2": "https://www.kaigokensaku.mhlw.go.jp/16/index.php?action_kouhyou_detail_004_kani=true&JigyosyoCd=1690101389-00&ServiceCd=&Type=search" }, "geometry": { "type": "Point", "coordinates": [ 137.2545476, 36.7440769 ] } },
{ "type": "Feature", "properties": { "内容": "富山医療生活協同組合　看護小規模多機能型居宅介護　わたぼうし【看護小規模多機能型居宅介護（複合型サービス）】粟島町2丁目２－１", "url2": "https://www.kaigokensaku.mhlw.go.jp/16/index.php?action_kouhyou_detail_004_kani=true&JigyosyoCd=1690100845-00&ServiceCd=&Type=search" }, "geometry": { "type": "Point", "coordinates": [ 137.231179600000019, 36.724432 ] } },
{ "type": "Feature", "properties": { "内容": "ケアホーム二上あいの風【看護小規模多機能型居宅介護（複合型サービス）】富山県高岡市二上町1144-1", "url2": "https://www.kaigokensaku.mhlw.go.jp/16/index.php?action_kouhyou_detail_004_kani=true&JigyosyoCd=1690200868-00&ServiceCd=&Type=search" }, "geometry": { "type": "Point", "coordinates": [ 137.0051959, 36.7759891 ] } },
{ "type": "Feature", "properties": { "内容": "サンケア下関【看護小規模多機能型居宅介護（複合型サービス）】富山県高岡市赤祖父166番地", "url2": "https://www.kaigokensaku.mhlw.go.jp/16/index.php?action_kouhyou_detail_004_kani=true&JigyosyoCd=1690200892-00&ServiceCd=&Type=search" }, "geometry": { "type": "Point", "coordinates": [ 137.024264543336017, 36.732440593706883 ] } },
{ "type": "Feature", "properties": { "内容": "福祉コミュニティ高岡あいの風【看護小規模多機能型居宅介護（複合型サービス）】富山県高岡市内免5丁目50番１", "url2": "https://www.kaigokensaku.mhlw.go.jp/16/index.php?action_kouhyou_detail_004_kani=true&JigyosyoCd=1690200843-00&ServiceCd=&Type=search" }, "geometry": { "type": "Point", "coordinates": [ 137.004822600000011, 36.7547581 ] } },
{ "type": "Feature", "properties": { "内容": "看護小規模多機能型居宅介護ナースホーム木の葉【看護小規模多機能型居宅介護（複合型サービス）】富山県高岡市石瀬6-1", "url2": "https://www.kaigokensaku.mhlw.go.jp/16/index.php?action_kouhyou_detail_004_kani=true&JigyosyoCd=1690200876-00&ServiceCd=&Type=search" }, "geometry": { "type": "Point", "coordinates": [ 137.0405365, 36.7464069 ] } },
{ "type": "Feature", "properties": { "内容": "ケアホーム新湊あいの風　看護小規模多機能型居宅介護【看護小規模多機能型居宅介護（複合型サービス）】富山県射水市海王町２１－５ケアホーム新湊あいの風", "url2": "https://www.kaigokensaku.mhlw.go.jp/16/index.php?action_kouhyou_detail_004_kani=true&JigyosyoCd=1691100398-00&ServiceCd=&Type=search" }, "geometry": { "type": "Point", "coordinates": [ 137.103637099999986, 36.7790976 ] } },
{ "type": "Feature", "properties": { "内容": "医療法人真生会看護小規模多機能型居宅介護こころの家【看護小規模多機能型居宅介護（複合型サービス）】富山県射水市橋下条1564番地", "url2": "https://www.kaigokensaku.mhlw.go.jp/16/index.php?action_kouhyou_detail_004_kani=true&JigyosyoCd=1691100430-00&ServiceCd=&Type=search" }, "geometry": { "type": "Point", "coordinates": [ 137.0821484, 36.7072612 ] } },
{ "type": "Feature", "properties": { "内容": "介護ナーシングセンターささや木【看護小規模多機能型居宅介護（複合型サービス）】富山県下新川郡入善町青島402番地7", "url2": "https://www.kaigokensaku.mhlw.go.jp/16/index.php?action_kouhyou_detail_004_kani=true&JigyosyoCd=1691700197-00&ServiceCd=&Type=search" }, "geometry": { "type": "Point", "coordinates": [ 137.510359699999981, 36.9329808 ] } }
]
}
