{
"type": "FeatureCollection",
"name": "geo_16_短期入所療養介護(療養病床を有する病院等）",
"crs": { "type": "name", "properties": { "name": "urn:ogc:def:crs:OGC:1.3:CRS84" } },
"features": [
{ "type": "Feature", "properties": { "内容": "介護医療院　せいわ【短期入所療養介護(療養病床を有する病院等）】針原中町336", "url2": "https://www.kaigokensaku.mhlw.go.jp/16/index.php?action_kouhyou_detail_004_kani=true&JigyosyoCd=16B0100030-00&ServiceCd=&Type=search" }, "geometry": { "type": "Point", "coordinates": [ 137.2650961, 36.7244814 ] } },
{ "type": "Feature", "properties": { "内容": "医療法人　光ヶ丘病院【短期入所療養介護(療養病床を有する病院等）】富山県高岡市西藤平蔵313", "url2": "https://www.kaigokensaku.mhlw.go.jp/16/index.php?action_kouhyou_detail_004_kani=true&JigyosyoCd=1610211995-00&ServiceCd=&Type=search" }, "geometry": { "type": "Point", "coordinates": [ 136.985936873016385, 36.706839279447642 ] } },
{ "type": "Feature", "properties": { "内容": "医療法人社団　高陵クリニック【短期入所療養介護(療養病床を有する病院等）】富山県高岡市野村２３番地１", "url2": "https://www.kaigokensaku.mhlw.go.jp/16/index.php?action_kouhyou_detail_004_kani=true&JigyosyoCd=1670200532-00&ServiceCd=&Type=search" }, "geometry": { "type": "Point", "coordinates": [ 137.027401199999986, 36.7378317 ] } },
{ "type": "Feature", "properties": { "内容": "医療法人社団　秀林会　吉見病院【短期入所療養介護(療養病床を有する病院等）】富山県滑川市清水町３番２５号", "url2": "https://www.kaigokensaku.mhlw.go.jp/16/index.php?action_kouhyou_detail_004_kani=true&JigyosyoCd=1610610469-00&ServiceCd=&Type=search" }, "geometry": { "type": "Point", "coordinates": [ 137.3437487, 36.7634206 ] } },
{ "type": "Feature", "properties": { "内容": "医療法人社団平成会桜井病院【短期入所療養介護(療養病床を有する病院等）】富山県黒部市荻生６６７５番地の５", "url2": "https://www.kaigokensaku.mhlw.go.jp/16/index.php?action_kouhyou_detail_004_kani=true&JigyosyoCd=1670700358-00&ServiceCd=&Type=search" }, "geometry": { "type": "Point", "coordinates": [ 137.455349, 36.873269 ] } },
{ "type": "Feature", "properties": { "内容": "となみ三輪病院【短期入所療養介護(療養病床を有する病院等）】砺波市頼成605", "url2": "https://www.kaigokensaku.mhlw.go.jp/16/index.php?action_kouhyou_detail_004_kani=true&JigyosyoCd=1610810523-00&ServiceCd=&Type=search" }, "geometry": { "type": "Point", "coordinates": [ 137.00840119999998, 36.6366867 ] } },
{ "type": "Feature", "properties": { "内容": "あおい病院【短期入所療養介護(療養病床を有する病院等）】砺波市堀内18番1", "url2": "https://www.kaigokensaku.mhlw.go.jp/16/index.php?action_kouhyou_detail_004_kani=true&JigyosyoCd=1610810515-00&ServiceCd=&Type=search" }, "geometry": { "type": "Point", "coordinates": [ 136.970771799999966, 36.6493889 ] } }
]
}
