{
"type": "FeatureCollection",
"name": "geo_16_訪問看護",
"crs": { "type": "name", "properties": { "name": "urn:ogc:def:crs:OGC:1.3:CRS84" } },
"features": [
{ "type": "Feature", "properties": { "内容": "訪問看護ステーション呉羽【訪問看護】呉羽町3732", "url2": "https://www.kaigokensaku.mhlw.go.jp/16/index.php?action_kouhyou_detail_004_kani=true&JigyosyoCd=1660190180-00&ServiceCd=130&Type=search" }, "geometry": { "type": "Point", "coordinates": [ 137.1689821, 36.7180674 ] } },
{ "type": "Feature", "properties": { "内容": "波動歯科診療所【訪問看護】富山県富山市草島63-1", "url2": "https://www.kaigokensaku.mhlw.go.jp/16/index.php?action_kouhyou_detail_004_kani=true&JigyosyoCd=1630134359-00&ServiceCd=130&Type=search" }, "geometry": { "type": "Point", "coordinates": [ 137.208059837434348, 36.746623203101514 ] } },
{ "type": "Feature", "properties": { "内容": "常願寺訪問看護ステーション【訪問看護】富山県富山市水橋肘崎438番地", "url2": "https://www.kaigokensaku.mhlw.go.jp/16/index.php?action_kouhyou_detail_004_kani=true&JigyosyoCd=1660190487-00&ServiceCd=130&Type=search" }, "geometry": { "type": "Point", "coordinates": [ 137.293394400000011, 36.7300917 ] } },
{ "type": "Feature", "properties": { "内容": "いき内科クリニック訪問看護室【訪問看護】富山県富山市呉羽町6302-8", "url2": "https://www.kaigokensaku.mhlw.go.jp/16/index.php?action_kouhyou_detail_004_kani=true&JigyosyoCd=1610116277-00&ServiceCd=130&Type=search" }, "geometry": { "type": "Point", "coordinates": [ 137.1688331, 36.7126318 ] } },
{ "type": "Feature", "properties": { "内容": "訪問看護ステーション　デューン富山【訪問看護】富山県　富山市　愛宕町2丁目5-7アーデルテラス芝園101号室", "url2": "https://www.kaigokensaku.mhlw.go.jp/16/index.php?action_kouhyou_detail_004_kani=true&JigyosyoCd=1660190354-00&ServiceCd=130&Type=search" }, "geometry": { "type": "Point", "coordinates": [ 137.206525, 36.6979346 ] } },
{ "type": "Feature", "properties": { "内容": "サンウェルズ富山訪問看護ステーション【訪問看護】富山県富山市才覚寺259太陽のプリズム　才覚寺", "url2": "https://www.kaigokensaku.mhlw.go.jp/16/index.php?action_kouhyou_detail_004_kani=true&JigyosyoCd=1660190339-00&ServiceCd=130&Type=search" }, "geometry": { "type": "Point", "coordinates": [ 137.193914, 36.654132 ] } },
{ "type": "Feature", "properties": { "内容": "うちくる訪問看護ステーション【訪問看護】富山県富山市西野新47番", "url2": "https://www.kaigokensaku.mhlw.go.jp/16/index.php?action_kouhyou_detail_004_kani=true&JigyosyoCd=1660190529-00&ServiceCd=130&Type=search" }, "geometry": { "type": "Point", "coordinates": [ 137.264279764526378, 36.663222737405448 ] } },
{ "type": "Feature", "properties": { "内容": "アルペン室谷訪問看護ステーション【訪問看護】富山市東岩瀬町275番地アルペン室谷クリニック　・　２階フロアー", "url2": "https://www.kaigokensaku.mhlw.go.jp/16/index.php?action_kouhyou_detail_004_kani=true&JigyosyoCd=1660190164-00&ServiceCd=130&Type=search" }, "geometry": { "type": "Point", "coordinates": [ 137.2290127, 36.7551234 ] } },
{ "type": "Feature", "properties": { "内容": "特定非営利活動法人HOT【訪問看護】富山市婦中町分田88-1コンチネンタル鵜坂104", "url2": "https://www.kaigokensaku.mhlw.go.jp/16/index.php?action_kouhyou_detail_004_kani=true&JigyosyoCd=1660190420-00&ServiceCd=130&Type=search" }, "geometry": { "type": "Point", "coordinates": [ 137.223123900000019, 36.5893508 ] } },
{ "type": "Feature", "properties": { "内容": "訪問看護ステーションステップ【訪問看護】富山県富山市婦中町砂子田８１-２７９カーサデフローラⅡ２０２", "url2": "https://www.kaigokensaku.mhlw.go.jp/16/index.php?action_kouhyou_detail_004_kani=true&JigyosyoCd=1660190552-00&ServiceCd=130&Type=search" }, "geometry": { "type": "Point", "coordinates": [ 137.1626675, 36.653039 ] } },
{ "type": "Feature", "properties": { "内容": "サリーナ訪問看護ステーション【訪問看護】富山県富山市下堀51番地1号", "url2": "https://www.kaigokensaku.mhlw.go.jp/16/index.php?action_kouhyou_detail_004_kani=true&JigyosyoCd=1660190586-00&ServiceCd=130&Type=search" }, "geometry": { "type": "Point", "coordinates": [ 137.22629901868001, 36.661362973094754 ] } },
{ "type": "Feature", "properties": { "内容": "おおやま病院　訪問看護【訪問看護】富山県富山市花崎　85", "url2": "https://www.kaigokensaku.mhlw.go.jp/16/index.php?action_kouhyou_detail_004_kani=true&JigyosyoCd=1610117176-00&ServiceCd=130&Type=search" }, "geometry": { "type": "Point", "coordinates": [ 137.280629200000021, 36.6096965 ] } },
{ "type": "Feature", "properties": { "内容": "富山医療生活協同組合在宅福祉総合センタ－ひまわり訪問看護ステ－ション【訪問看護】富山市粟島2丁目2番1号", "url2": "https://www.kaigokensaku.mhlw.go.jp/16/index.php?action_kouhyou_detail_004_kani=true&JigyosyoCd=1660190016-00&ServiceCd=130&Type=search" }, "geometry": { "type": "Point", "coordinates": [ 137.231179600000019, 36.724432 ] } },
{ "type": "Feature", "properties": { "内容": "訪問看護ステーション　ふれあいの里【訪問看護】富山県富山市鍋田17番27号", "url2": "https://www.kaigokensaku.mhlw.go.jp/16/index.php?action_kouhyou_detail_004_kani=true&JigyosyoCd=1660190693-00&ServiceCd=130&Type=search" }, "geometry": { "type": "Point", "coordinates": [ 137.244811, 36.7143682 ] } },
{ "type": "Feature", "properties": { "内容": "ソワン訪問看護ステーション【訪問看護】富山県富山市西荒屋546番地スカイビル1階102号", "url2": "https://www.kaigokensaku.mhlw.go.jp/16/index.php?action_kouhyou_detail_004_kani=true&JigyosyoCd=1660190735-00&ServiceCd=130&Type=search" }, "geometry": { "type": "Point", "coordinates": [ 137.1952441, 36.6553137 ] } },
{ "type": "Feature", "properties": { "内容": "訪問看護ステーションだこた【訪問看護】富山県富山市婦中町分田175-3", "url2": "https://www.kaigokensaku.mhlw.go.jp/16/index.php?action_kouhyou_detail_004_kani=true&JigyosyoCd=1660190768-00&ServiceCd=130&Type=search" }, "geometry": { "type": "Point", "coordinates": [ 137.1820889, 36.6665221 ] } },
{ "type": "Feature", "properties": { "内容": "訪問看護ステーションここいく【訪問看護】富山県富山市不二越町１番8号", "url2": "https://www.kaigokensaku.mhlw.go.jp/16/index.php?action_kouhyou_detail_004_kani=true&JigyosyoCd=1660190776-00&ServiceCd=130&Type=search" }, "geometry": { "type": "Point", "coordinates": [ 137.2427588, 36.6852362 ] } },
{ "type": "Feature", "properties": { "内容": "メディカル訪問看護ステーション【訪問看護】富山県富山市西野新４７番地", "url2": "https://www.kaigokensaku.mhlw.go.jp/16/index.php?action_kouhyou_detail_004_kani=true&JigyosyoCd=1660190610-00&ServiceCd=130&Type=search" }, "geometry": { "type": "Point", "coordinates": [ 137.264358574868766, 36.663149484348075 ] } },
{ "type": "Feature", "properties": { "内容": "アクア富山訪問介護【訪問看護】富山県富山市中冨居15-73", "url2": "https://www.kaigokensaku.mhlw.go.jp/16/index.php?action_kouhyou_detail_004_kani=true&JigyosyoCd=1660190685-00&ServiceCd=130&Type=search" }, "geometry": { "type": "Point", "coordinates": [ 137.246925052914378, 36.709918305926834 ] } },
{ "type": "Feature", "properties": { "内容": "ソフィアメディ訪問看護ステーション富山北【訪問看護】富山県富山市鍋田4-30", "url2": "https://www.kaigokensaku.mhlw.go.jp/16/index.php?action_kouhyou_detail_004_kani=true&JigyosyoCd=1660190602-00&ServiceCd=130&Type=search" }, "geometry": { "type": "Point", "coordinates": [ 137.2422077, 36.7136918 ] } },
{ "type": "Feature", "properties": { "内容": "ソフィアメディ訪問看護ステーション富山【訪問看護】富山県富山市二口町3-1-18", "url2": "https://www.kaigokensaku.mhlw.go.jp/16/index.php?action_kouhyou_detail_004_kani=true&JigyosyoCd=1660190479-00&ServiceCd=130&Type=search" }, "geometry": { "type": "Point", "coordinates": [ 137.2070048, 36.6695957 ] } },
{ "type": "Feature", "properties": { "内容": "五省会訪問看護ステーション【訪問看護】富山県富山市高田70番地西能病院内", "url2": "https://www.kaigokensaku.mhlw.go.jp/16/index.php?action_kouhyou_detail_004_kani=true&JigyosyoCd=1660190537-00&ServiceCd=130&Type=search" }, "geometry": { "type": "Point", "coordinates": [ 137.185226869631293, 36.684794909087486 ] } },
{ "type": "Feature", "properties": { "内容": "おれんじ訪問看護ステーション【訪問看護】富山県富山市高屋敷65番地1", "url2": "https://www.kaigokensaku.mhlw.go.jp/16/index.php?action_kouhyou_detail_004_kani=true&JigyosyoCd=1660190446-00&ServiceCd=130&Type=search" }, "geometry": { "type": "Point", "coordinates": [ 137.249733200000037, 36.665962 ] } },
{ "type": "Feature", "properties": { "内容": "訪問看護ステーションむつらぼし【訪問看護】富山県富山市千石町６丁目３－７", "url2": "https://www.kaigokensaku.mhlw.go.jp/16/index.php?action_kouhyou_detail_004_kani=true&JigyosyoCd=1660190651-00&ServiceCd=130&Type=search" }, "geometry": { "type": "Point", "coordinates": [ 137.2103023, 36.6833985 ] } },
{ "type": "Feature", "properties": { "内容": "さくらニューロ訪問看護ステーション【訪問看護】富山県富山市下新本町3-5", "url2": "https://www.kaigokensaku.mhlw.go.jp/16/index.php?action_kouhyou_detail_004_kani=true&JigyosyoCd=1660190461-00&ServiceCd=130&Type=search" }, "geometry": { "type": "Point", "coordinates": [ 137.219335699999988, 36.715608 ] } },
{ "type": "Feature", "properties": { "内容": "東岩瀬訪問看護ステーション【訪問看護】富山県富山市高畠町一丁目13番35号", "url2": "https://www.kaigokensaku.mhlw.go.jp/16/index.php?action_kouhyou_detail_004_kani=true&JigyosyoCd=1660190198-00&ServiceCd=130&Type=search" }, "geometry": { "type": "Point", "coordinates": [ 137.230837599999973, 36.749407300000016 ] } },
{ "type": "Feature", "properties": { "内容": "医療法人社団　親和会　チューリップ訪問看護ステーション【訪問看護】富山県富山市長江5丁目4番33号チューリップ長江病院内", "url2": "https://www.kaigokensaku.mhlw.go.jp/16/index.php?action_kouhyou_detail_004_kani=true&JigyosyoCd=1660190503-00&ServiceCd=130&Type=search" }, "geometry": { "type": "Point", "coordinates": [ 137.2452811, 36.6876805 ] } },
{ "type": "Feature", "properties": { "内容": "訪問看護ステーション　希望のひかり【訪問看護】富山県富山市上大久保1581-1", "url2": "https://www.kaigokensaku.mhlw.go.jp/16/index.php?action_kouhyou_detail_004_kani=true&JigyosyoCd=1660190271-00&ServiceCd=130&Type=search" }, "geometry": { "type": "Point", "coordinates": [ 137.202669325595025, 36.599425523476562 ] } },
{ "type": "Feature", "properties": { "内容": "訪問看護ステーションPlus.1【訪問看護】富山県富山市堀川町303-1PLAZA堀川312号室", "url2": "https://www.kaigokensaku.mhlw.go.jp/16/index.php?action_kouhyou_detail_004_kani=true&JigyosyoCd=1660190305-00&ServiceCd=130&Type=search" }, "geometry": { "type": "Point", "coordinates": [ 137.216558959528868, 36.664284457662525 ] } },
{ "type": "Feature", "properties": { "内容": "訪問看護ステーションジョジョ【訪問看護】富山県富山市藤木1542-1", "url2": "https://www.kaigokensaku.mhlw.go.jp/16/index.php?action_kouhyou_detail_004_kani=true&JigyosyoCd=1660190206-00&ServiceCd=130&Type=search" }, "geometry": { "type": "Point", "coordinates": [ 137.271238119459554, 36.686598850511402 ] } },
{ "type": "Feature", "properties": { "内容": "訪問看護ステーションなないろ南【訪問看護】富山県富山市大栗30番地11", "url2": "https://www.kaigokensaku.mhlw.go.jp/16/index.php?action_kouhyou_detail_004_kani=true&JigyosyoCd=1660190669-00&ServiceCd=130&Type=search" }, "geometry": { "type": "Point", "coordinates": [ 137.2788065, 36.612125 ] } },
{ "type": "Feature", "properties": { "内容": "訪問看護ステーションなないろ【訪問看護】富山県富山市長江本町18番1号有料老人ホームなないろ内", "url2": "https://www.kaigokensaku.mhlw.go.jp/16/index.php?action_kouhyou_detail_004_kani=true&JigyosyoCd=1660190362-00&ServiceCd=130&Type=search" }, "geometry": { "type": "Point", "coordinates": [ 137.242241076234791, 36.685964713982216 ] } },
{ "type": "Feature", "properties": { "内容": "訪問看護ステーションおうちへ帰ろう【訪問看護】富山県富山市藤木1632番地　202号", "url2": "https://www.kaigokensaku.mhlw.go.jp/16/index.php?action_kouhyou_detail_004_kani=true&JigyosyoCd=1660190388-00&ServiceCd=130&Type=search" }, "geometry": { "type": "Point", "coordinates": [ 137.266309199999966, 36.6844074 ] } },
{ "type": "Feature", "properties": { "内容": "ナーシングケアさくら【訪問看護】富山市石坂3322-1", "url2": "https://www.kaigokensaku.mhlw.go.jp/16/index.php?action_kouhyou_detail_004_kani=true&JigyosyoCd=1660190396-00&ServiceCd=130&Type=search" }, "geometry": { "type": "Point", "coordinates": [ 137.200269389508748, 36.717214031041294 ] } },
{ "type": "Feature", "properties": { "内容": "訪問看護リハビリステーション　ゆうきの輪【訪問看護】根塚町1-1-7P.SONE　1階-D", "url2": "https://www.kaigokensaku.mhlw.go.jp/16/index.php?action_kouhyou_detail_004_kani=true&JigyosyoCd=1660190289-00&ServiceCd=130&Type=search" }, "geometry": { "type": "Point", "coordinates": [ 137.206285, 36.6764495 ] } },
{ "type": "Feature", "properties": { "内容": "訪問看護ステーション　ゆりかご【訪問看護】富山県富山市布瀬町南2-1-9", "url2": "https://www.kaigokensaku.mhlw.go.jp/16/index.php?action_kouhyou_detail_004_kani=true&JigyosyoCd=1660190321-00&ServiceCd=130&Type=search" }, "geometry": { "type": "Point", "coordinates": [ 137.202062599999977, 36.6765405 ] } },
{ "type": "Feature", "properties": { "内容": "アイリス訪問看護ステーション【訪問看護】富山県富山市新保33番地1", "url2": "https://www.kaigokensaku.mhlw.go.jp/16/index.php?action_kouhyou_detail_004_kani=true&JigyosyoCd=1660190594-00&ServiceCd=130&Type=search" }, "geometry": { "type": "Point", "coordinates": [ 137.214095400000019, 36.6781052 ] } },
{ "type": "Feature", "properties": { "内容": "訪問看護ステーション翼【訪問看護】富山県富山市下堀7番地", "url2": "https://www.kaigokensaku.mhlw.go.jp/16/index.php?action_kouhyou_detail_004_kani=true&JigyosyoCd=1660190560-00&ServiceCd=130&Type=search" }, "geometry": { "type": "Point", "coordinates": [ 137.227153059995715, 36.661559369163442 ] } },
{ "type": "Feature", "properties": { "内容": "富山県看護協会訪問看護ステーションひよどり富山【訪問看護】富山市鵯島字川原１９０７－１", "url2": "https://www.kaigokensaku.mhlw.go.jp/16/index.php?action_kouhyou_detail_004_kani=true&JigyosyoCd=1660190081-00&ServiceCd=130&Type=search" }, "geometry": { "type": "Point", "coordinates": [ 137.1951795, 36.6939988 ] } },
{ "type": "Feature", "properties": { "内容": "光風会訪問看護ステーション【訪問看護】富山県富山市南金屋111番地", "url2": "https://www.kaigokensaku.mhlw.go.jp/16/index.php?action_kouhyou_detail_004_kani=true&JigyosyoCd=1660190065-00&ServiceCd=130&Type=search" }, "geometry": { "type": "Point", "coordinates": [ 137.231574599999931, 36.6343102 ] } },
{ "type": "Feature", "properties": { "内容": "しみずまち敬寿苑訪問看護ステーション【訪問看護】富山市清水町二丁目6－23", "url2": "https://www.kaigokensaku.mhlw.go.jp/16/index.php?action_kouhyou_detail_004_kani=true&JigyosyoCd=1660190131-00&ServiceCd=130&Type=search" }, "geometry": { "type": "Point", "coordinates": [ 137.225907320346067, 36.688877391486201 ] } },
{ "type": "Feature", "properties": { "内容": "あいの風訪問看護ステーション富山【訪問看護】富山県富山市野々上340", "url2": "https://www.kaigokensaku.mhlw.go.jp/16/index.php?action_kouhyou_detail_004_kani=true&JigyosyoCd=1660190578-00&ServiceCd=130&Type=search" }, "geometry": { "type": "Point", "coordinates": [ 137.138567593924421, 36.723182595831311 ] } },
{ "type": "Feature", "properties": { "内容": "済生会富山訪問看護ステーション【訪問看護】富山県富山市楠木33番地1", "url2": "https://www.kaigokensaku.mhlw.go.jp/16/index.php?action_kouhyou_detail_004_kani=true&JigyosyoCd=1660190404-00&ServiceCd=130&Type=search" }, "geometry": { "type": "Point", "coordinates": [ 137.255182366795339, 36.738452683118872 ] } },
{ "type": "Feature", "properties": { "内容": "富山赤十字訪問看護ステーション【訪問看護】富山市牛島本町２－１－５８", "url2": "https://www.kaigokensaku.mhlw.go.jp/16/index.php?action_kouhyou_detail_004_kani=true&JigyosyoCd=1660190032-00&ServiceCd=130&Type=search" }, "geometry": { "type": "Point", "coordinates": [ 137.2089492, 36.708375 ] } },
{ "type": "Feature", "properties": { "内容": "在宅福祉総合センターきずな　訪問看護ステーション【訪問看護】富山市柳町１丁目2-18", "url2": "https://www.kaigokensaku.mhlw.go.jp/16/index.php?action_kouhyou_detail_004_kani=true&JigyosyoCd=1660190107-00&ServiceCd=130&Type=search" }, "geometry": { "type": "Point", "coordinates": [ 137.222117499999968, 36.692847 ] } },
{ "type": "Feature", "properties": { "内容": "高志訪問看護ステーション【訪問看護】富山県富山市下飯野36番地", "url2": "https://www.kaigokensaku.mhlw.go.jp/16/index.php?action_kouhyou_detail_004_kani=true&JigyosyoCd=1660190453-00&ServiceCd=130&Type=search" }, "geometry": { "type": "Point", "coordinates": [ 137.267059900000049, 36.7430118 ] } },
{ "type": "Feature", "properties": { "内容": "ナースステーション　マーガレット【訪問看護】富山県富山市小泉町11", "url2": "https://www.kaigokensaku.mhlw.go.jp/16/index.php?action_kouhyou_detail_004_kani=true&JigyosyoCd=1660190222-00&ServiceCd=130&Type=search" }, "geometry": { "type": "Point", "coordinates": [ 137.218967650262442, 36.676687564571274 ] } },
{ "type": "Feature", "properties": { "内容": "医心館訪問看護ステーション富山【訪問看護】富山県富山市今泉185番地1", "url2": "https://www.kaigokensaku.mhlw.go.jp/16/index.php?action_kouhyou_detail_004_kani=true&JigyosyoCd=1660190792-00&ServiceCd=130&Type=search" }, "geometry": { "type": "Point", "coordinates": [ 137.2123784, 36.6672366 ] } },
{ "type": "Feature", "properties": { "内容": "つぐ葉訪問看護ステーション【訪問看護】呉羽町6757番地1シティハイムふじ201号", "url2": "https://www.kaigokensaku.mhlw.go.jp/16/index.php?action_kouhyou_detail_004_kani=true&JigyosyoCd=1660190800-00&ServiceCd=130&Type=search" }, "geometry": { "type": "Point", "coordinates": [ 137.166055868881472, 36.710805607577349 ] } },
{ "type": "Feature", "properties": { "内容": "あんじゅ訪問看護ステーション【訪問看護】富山県富山市大島2丁目596-19", "url2": "https://www.kaigokensaku.mhlw.go.jp/16/index.php?action_kouhyou_detail_004_kani=true&JigyosyoCd=1660190826-00&ServiceCd=130&Type=search" }, "geometry": { "type": "Point", "coordinates": [ 137.2733287, 36.6725886 ] } },
{ "type": "Feature", "properties": { "内容": "訪問看護ステーション悠ライフ富山奥【訪問看護】奥井町1番7号", "url2": "https://www.kaigokensaku.mhlw.go.jp/16/index.php?action_kouhyou_detail_004_kani=true&JigyosyoCd=1660190834-00&ServiceCd=130&Type=search" }, "geometry": { "type": "Point", "coordinates": [ 137.2253201, 36.7037246 ] } },
{ "type": "Feature", "properties": { "内容": "訪問看護ステーションコアラ【訪問看護】富山県富山市音羽町1丁目4番7号", "url2": "https://www.kaigokensaku.mhlw.go.jp/16/index.php?action_kouhyou_detail_004_kani=true&JigyosyoCd=1660190875-00&ServiceCd=130&Type=search" }, "geometry": { "type": "Point", "coordinates": [ 137.228563637573217, 36.690046592536383 ] } },
{ "type": "Feature", "properties": { "内容": "アモール訪問看護ステーション【訪問看護】富山県富山市黒瀬北町2丁目7-8キャルム102", "url2": "https://www.kaigokensaku.mhlw.go.jp/16/index.php?action_kouhyou_detail_004_kani=true&JigyosyoCd=1660190255-00&ServiceCd=130&Type=search" }, "geometry": { "type": "Point", "coordinates": [ 137.204936491540593, 36.665110500110515 ] } },
{ "type": "Feature", "properties": { "内容": "ツクイ富山訪問看護ステーション【訪問看護】富山県富山市本町9-10大同生命富山ビル6階", "url2": "https://www.kaigokensaku.mhlw.go.jp/16/index.php?action_kouhyou_detail_004_kani=true&JigyosyoCd=1660190818-00&ServiceCd=130&Type=search" }, "geometry": { "type": "Point", "coordinates": [ 137.2156262, 36.6938843 ] } },
{ "type": "Feature", "properties": { "内容": "訪問看護ステーションまめなけ【訪問看護】富山県富山市婦中町下轡田1019", "url2": "https://www.kaigokensaku.mhlw.go.jp/16/index.php?action_kouhyou_detail_004_kani=true&JigyosyoCd=1660190248-00&ServiceCd=130&Type=search" }, "geometry": { "type": "Point", "coordinates": [ 137.174461, 36.6598157 ] } },
{ "type": "Feature", "properties": { "内容": "株式会社　ほの字　ライラック訪問看護ステーション【訪問看護】黒瀬北町2丁目13番地12号プレジント高陽101号室", "url2": "https://www.kaigokensaku.mhlw.go.jp/16/index.php?action_kouhyou_detail_004_kani=true&JigyosyoCd=1660190743-00&ServiceCd=130&Type=search" }, "geometry": { "type": "Point", "coordinates": [ 137.2011123, 36.6651541 ] } },
{ "type": "Feature", "properties": { "内容": "訪問看護ステーションホームナース陽なた【訪問看護】富山県富山市城村371番地", "url2": "https://www.kaigokensaku.mhlw.go.jp/16/index.php?action_kouhyou_detail_004_kani=true&JigyosyoCd=1660190677-00&ServiceCd=130&Type=search" }, "geometry": { "type": "Point", "coordinates": [ 137.2652041, 36.6473657 ] } },
{ "type": "Feature", "properties": { "内容": "訪問看護ステーション　福禄寿【訪問看護】富山県富山市森１丁目９－６", "url2": "https://www.kaigokensaku.mhlw.go.jp/16/index.php?action_kouhyou_detail_004_kani=true&JigyosyoCd=1660190859-00&ServiceCd=130&Type=search" }, "geometry": { "type": "Point", "coordinates": [ 137.235264199999989, 36.7483454 ] } },
{ "type": "Feature", "properties": { "内容": "訪問看護リベル　富山3rd【訪問看護】富山県富山市町村69番地5", "url2": "https://www.kaigokensaku.mhlw.go.jp/16/index.php?action_kouhyou_detail_004_kani=true&JigyosyoCd=1660190891-00&ServiceCd=130&Type=search" }, "geometry": { "type": "Point", "coordinates": [ 137.193002300000018, 36.6188001 ] } },
{ "type": "Feature", "properties": { "内容": "不二越病院　訪問看護ステーション【訪問看護】富山県富山市東石金町11番65号", "url2": "https://www.kaigokensaku.mhlw.go.jp/16/index.php?action_kouhyou_detail_004_kani=true&JigyosyoCd=1660190909-00&ServiceCd=130&Type=search" }, "geometry": { "type": "Point", "coordinates": [ 137.237149199999976, 36.6843121 ] } },
{ "type": "Feature", "properties": { "内容": "訪問看護ステーションアーチ新庄【訪問看護】富山県富山市向新庄４丁目14-48新庄ヒルズⅡ内", "url2": "https://www.kaigokensaku.mhlw.go.jp/16/index.php?action_kouhyou_detail_004_kani=true&JigyosyoCd=1660190701-00&ServiceCd=130&Type=search" }, "geometry": { "type": "Point", "coordinates": [ 137.2670309, 36.703692 ] } },
{ "type": "Feature", "properties": { "内容": "訪問看護ステーション悠ライフ富山【訪問看護】山室250-7", "url2": "https://www.kaigokensaku.mhlw.go.jp/16/index.php?action_kouhyou_detail_004_kani=true&JigyosyoCd=1660190719-00&ServiceCd=130&Type=search" }, "geometry": { "type": "Point", "coordinates": [ 137.239788, 36.6758438 ] } },
{ "type": "Feature", "properties": { "内容": "訪問看護ステーション　さわやか【訪問看護】富山県富山市上二杉４２０－２", "url2": "https://www.kaigokensaku.mhlw.go.jp/16/index.php?action_kouhyou_detail_004_kani=true&JigyosyoCd=1661590008-00&ServiceCd=130&Type=search" }, "geometry": { "type": "Point", "coordinates": [ 137.202661900000066, 36.5910172 ] } },
{ "type": "Feature", "properties": { "内容": "訪問看護ステーションサンケア高岡【訪問看護】富山県高岡市赤祖父636", "url2": "https://www.kaigokensaku.mhlw.go.jp/16/index.php?action_kouhyou_detail_004_kani=true&JigyosyoCd=1660290121-00&ServiceCd=130&Type=search" }, "geometry": { "type": "Point", "coordinates": [ 137.021741099999986, 36.7284634 ] } },
{ "type": "Feature", "properties": { "内容": "雨晴クリニック【訪問看護】富山県高岡市太田桜谷23-1", "url2": "https://www.kaigokensaku.mhlw.go.jp/16/index.php?action_kouhyou_detail_004_kani=true&JigyosyoCd=1610212944-00&ServiceCd=130&Type=search" }, "geometry": { "type": "Point", "coordinates": [ 137.033718110893005, 36.81502535332713 ] } },
{ "type": "Feature", "properties": { "内容": "訪問看護ステーションほのぼの【訪問看護】富山県高岡市西藤平蔵313", "url2": "https://www.kaigokensaku.mhlw.go.jp/16/index.php?action_kouhyou_detail_004_kani=true&JigyosyoCd=1660290030-00&ServiceCd=130&Type=search" }, "geometry": { "type": "Point", "coordinates": [ 136.985800706746005, 36.707023765658015 ] } },
{ "type": "Feature", "properties": { "内容": "ほまれ訪問看護富山【訪問看護】富山県高岡市戸出西部金屋310-2事業所棟2階", "url2": "https://www.kaigokensaku.mhlw.go.jp/16/index.php?action_kouhyou_detail_004_kani=true&JigyosyoCd=1660290220-00&ServiceCd=130&Type=search" }, "geometry": { "type": "Point", "coordinates": [ 136.992891899999989, 36.664917 ] } },
{ "type": "Feature", "properties": { "内容": "高岡内科クリニック【訪問看護】高岡市能町南3丁目41番", "url2": "https://www.kaigokensaku.mhlw.go.jp/16/index.php?action_kouhyou_detail_004_kani=true&JigyosyoCd=1610212514-00&ServiceCd=130&Type=search" }, "geometry": { "type": "Point", "coordinates": [ 137.044318, 36.7663422 ] } },
{ "type": "Feature", "properties": { "内容": "医心館訪問看護ステーション高岡【訪問看護】富山県高岡市羽広一丁目９番５号", "url2": "https://www.kaigokensaku.mhlw.go.jp/16/index.php?action_kouhyou_detail_004_kani=true&JigyosyoCd=1660290246-00&ServiceCd=130&Type=search" }, "geometry": { "type": "Point", "coordinates": [ 136.98873660000001, 36.7392157 ] } },
{ "type": "Feature", "properties": { "内容": "訪問看護ステーションひだまり【訪問看護】富山県高岡市佐野845-1", "url2": "https://www.kaigokensaku.mhlw.go.jp/16/index.php?action_kouhyou_detail_004_kani=true&JigyosyoCd=1660290105-00&ServiceCd=130&Type=search" }, "geometry": { "type": "Point", "coordinates": [ 136.994457865129107, 36.728913639497854 ] } },
{ "type": "Feature", "properties": { "内容": "うらら訪問看護ステーション【訪問看護】高岡市中曽根2373セントラルパーク牧野1F", "url2": "https://www.kaigokensaku.mhlw.go.jp/16/index.php?action_kouhyou_detail_004_kani=true&JigyosyoCd=1660290097-00&ServiceCd=130&Type=search" }, "geometry": { "type": "Point", "coordinates": [ 137.07768930887903, 36.769613271931121 ] } },
{ "type": "Feature", "properties": { "内容": "あさなぎ訪問看護ステーション【訪問看護】富山県高岡市五福町10番28号", "url2": "https://www.kaigokensaku.mhlw.go.jp/16/index.php?action_kouhyou_detail_004_kani=true&JigyosyoCd=1660290188-00&ServiceCd=130&Type=search" }, "geometry": { "type": "Point", "coordinates": [ 137.0145029, 36.757085 ] } },
{ "type": "Feature", "properties": { "内容": "サンケア下関【訪問看護】富山県高岡市赤祖父166番地", "url2": "https://www.kaigokensaku.mhlw.go.jp/16/index.php?action_kouhyou_detail_004_kani=true&JigyosyoCd=1660290212-00&ServiceCd=130&Type=search" }, "geometry": { "type": "Point", "coordinates": [ 137.024237101312764, 36.732400311246543 ] } },
{ "type": "Feature", "properties": { "内容": "もみじ訪問看護ステーション【訪問看護】富山県高岡市中保１３８９－１", "url2": "https://www.kaigokensaku.mhlw.go.jp/16/index.php?action_kouhyou_detail_004_kani=true&JigyosyoCd=1660290071-00&ServiceCd=130&Type=search" }, "geometry": { "type": "Point", "coordinates": [ 136.96173669097675, 36.72124229454792 ] } },
{ "type": "Feature", "properties": { "内容": "訪問看護ステーションわか木【訪問看護】富山県高岡市石瀬6番地1", "url2": "https://www.kaigokensaku.mhlw.go.jp/16/index.php?action_kouhyou_detail_004_kani=true&JigyosyoCd=1660290147-00&ServiceCd=130&Type=search" }, "geometry": { "type": "Point", "coordinates": [ 137.040784772352595, 36.746384589246411 ] } },
{ "type": "Feature", "properties": { "内容": "高岡市民病院【訪問看護】富山県高岡市宝町4番1号", "url2": "https://www.kaigokensaku.mhlw.go.jp/16/index.php?action_kouhyou_detail_004_kani=true&JigyosyoCd=1610210914-00&ServiceCd=130&Type=search" }, "geometry": { "type": "Point", "coordinates": [ 137.02793, 36.7561293 ] } },
{ "type": "Feature", "properties": { "内容": "訪問看護ステーション十色【訪問看護】荻布347-1", "url2": "https://www.kaigokensaku.mhlw.go.jp/16/index.php?action_kouhyou_detail_004_kani=true&JigyosyoCd=1660290154-00&ServiceCd=130&Type=search" }, "geometry": { "type": "Point", "coordinates": [ 137.0361852, 36.7670757 ] } },
{ "type": "Feature", "properties": { "内容": "訪問看護ステーション　かけはし【訪問看護】富山県高岡市高陵町9-26", "url2": "https://www.kaigokensaku.mhlw.go.jp/16/index.php?action_kouhyou_detail_004_kani=true&JigyosyoCd=1660290204-00&ServiceCd=130&Type=search" }, "geometry": { "type": "Point", "coordinates": [ 137.02172830594327, 36.741277230005565 ] } },
{ "type": "Feature", "properties": { "内容": "済生会高岡訪問看護ステーション【訪問看護】富山県高岡市二塚355-1済生会高岡福祉・保育総合センター内", "url2": "https://www.kaigokensaku.mhlw.go.jp/16/index.php?action_kouhyou_detail_004_kani=true&JigyosyoCd=1660290139-00&ServiceCd=130&Type=search" }, "geometry": { "type": "Point", "coordinates": [ 137.015944057147181, 36.719690328786328 ] } },
{ "type": "Feature", "properties": { "内容": "訪問看護ステーション　やべの里【訪問看護】富山県高岡市福岡町矢部1088", "url2": "https://www.kaigokensaku.mhlw.go.jp/16/index.php?action_kouhyou_detail_004_kani=true&JigyosyoCd=1660290196-00&ServiceCd=130&Type=search" }, "geometry": { "type": "Point", "coordinates": [ 136.9326903, 36.6877409 ] } },
{ "type": "Feature", "properties": { "内容": "独立行政法人地域医療機能推進機構高岡ふしき病院附属訪問看護ステーション【訪問看護】富山県高岡市伏木古府元町8-5", "url2": "https://www.kaigokensaku.mhlw.go.jp/16/index.php?action_kouhyou_detail_004_kani=true&JigyosyoCd=1660290063-00&ServiceCd=130&Type=search" }, "geometry": { "type": "Point", "coordinates": [ 137.045755399999962, 36.7902536 ] } },
{ "type": "Feature", "properties": { "内容": "厚生連高岡訪問看護ステーション【訪問看護】富山県高岡市永楽町5番10号厚生連高岡病院", "url2": "https://www.kaigokensaku.mhlw.go.jp/16/index.php?action_kouhyou_detail_004_kani=true&JigyosyoCd=1660290048-00&ServiceCd=130&Type=search" }, "geometry": { "type": "Point", "coordinates": [ 136.995621, 36.7433637 ] } },
{ "type": "Feature", "properties": { "内容": "訪問看護ステーションよつばのクローバー【訪問看護】野村846-1", "url2": "https://www.kaigokensaku.mhlw.go.jp/16/index.php?action_kouhyou_detail_004_kani=true&JigyosyoCd=1660290261-00&ServiceCd=130&Type=search" }, "geometry": { "type": "Point", "coordinates": [ 137.040117, 36.749125 ] } },
{ "type": "Feature", "properties": { "内容": "ソフィアメディ訪問看護ステーション高岡【訪問看護】高岡市本町2-1北日本高岡本町ビル3F", "url2": "https://www.kaigokensaku.mhlw.go.jp/16/index.php?action_kouhyou_detail_004_kani=true&JigyosyoCd=1660290238-00&ServiceCd=130&Type=search" }, "geometry": { "type": "Point", "coordinates": [ 137.0170123, 36.7494134 ] } },
{ "type": "Feature", "properties": { "内容": "高岡市医師会訪問看護ステーション【訪問看護】高岡市本丸町7-1高岡市急患医療センター２階", "url2": "https://www.kaigokensaku.mhlw.go.jp/16/index.php?action_kouhyou_detail_004_kani=true&JigyosyoCd=1660290006-00&ServiceCd=130&Type=search" }, "geometry": { "type": "Point", "coordinates": [ 137.018783044705174, 36.750402806163656 ] } },
{ "type": "Feature", "properties": { "内容": "浦田クリニック【訪問看護】富山県魚津市本江1-26番地", "url2": "https://www.kaigokensaku.mhlw.go.jp/16/index.php?action_kouhyou_detail_004_kani=true&JigyosyoCd=1610410936-00&ServiceCd=130&Type=search" }, "geometry": { "type": "Point", "coordinates": [ 137.407573700000057, 36.8172266 ] } },
{ "type": "Feature", "properties": { "内容": "魚津病院ふれあい訪問看護ステーション【訪問看護】富山県魚津市友道789番地", "url2": "https://www.kaigokensaku.mhlw.go.jp/16/index.php?action_kouhyou_detail_004_kani=true&JigyosyoCd=1660490036-00&ServiceCd=130&Type=search" }, "geometry": { "type": "Point", "coordinates": [ 137.411361599999964, 36.8145605 ] } },
{ "type": "Feature", "properties": { "内容": "訪問看護ステーション美来【訪問看護】富山県魚津市吉野390番", "url2": "https://www.kaigokensaku.mhlw.go.jp/16/index.php?action_kouhyou_detail_004_kani=true&JigyosyoCd=1660490044-00&ServiceCd=130&Type=search" }, "geometry": { "type": "Point", "coordinates": [ 137.407691184608126, 36.790570454020795 ] } },
{ "type": "Feature", "properties": { "内容": "リハ・ハウス来夢訪問看護ステーション【訪問看護】富山県氷見市窪385番地1DREAMER106号室", "url2": "https://www.kaigokensaku.mhlw.go.jp/16/index.php?action_kouhyou_detail_004_kani=true&JigyosyoCd=1660590058-00&ServiceCd=130&Type=search" }, "geometry": { "type": "Point", "coordinates": [ 136.987852696618347, 36.835837123789581 ] } },
{ "type": "Feature", "properties": { "内容": "訪問看護ステーションみんわ【訪問看護】富山県氷見市窪65-3", "url2": "https://www.kaigokensaku.mhlw.go.jp/16/index.php?action_kouhyou_detail_004_kani=true&JigyosyoCd=1660590041-00&ServiceCd=130&Type=search" }, "geometry": { "type": "Point", "coordinates": [ 136.982211900000038, 36.8411038 ] } },
{ "type": "Feature", "properties": { "内容": "ファミリーケア訪問看護ステーション【訪問看護】富山県氷見市柳田934番地1アラックスビル2階", "url2": "https://www.kaigokensaku.mhlw.go.jp/16/index.php?action_kouhyou_detail_004_kani=true&JigyosyoCd=1660590025-00&ServiceCd=130&Type=search" }, "geometry": { "type": "Point", "coordinates": [ 136.994219599999951, 36.8269501 ] } },
{ "type": "Feature", "properties": { "内容": "氷見訪問看護ステーション【訪問看護】富山県氷見市鞍川1130番地金沢医科大学氷見市民病院6階", "url2": "https://www.kaigokensaku.mhlw.go.jp/16/index.php?action_kouhyou_detail_004_kani=true&JigyosyoCd=1660590017-00&ServiceCd=130&Type=search" }, "geometry": { "type": "Point", "coordinates": [ 136.967977099999985, 36.85532 ] } },
{ "type": "Feature", "properties": { "内容": "訪問看護ステーション　ひまわり【訪問看護】富山県氷見市大野1255-1", "url2": "https://www.kaigokensaku.mhlw.go.jp/16/index.php?action_kouhyou_detail_004_kani=true&JigyosyoCd=1660590033-00&ServiceCd=130&Type=search" }, "geometry": { "type": "Point", "coordinates": [ 136.960305721534723, 36.859384454857533 ] } },
{ "type": "Feature", "properties": { "内容": "訪問看護ステーション　むゆうじゅ【訪問看護】吾妻町426-31", "url2": "https://www.kaigokensaku.mhlw.go.jp/16/index.php?action_kouhyou_detail_004_kani=true&JigyosyoCd=1660690031-00&ServiceCd=130&Type=search" }, "geometry": { "type": "Point", "coordinates": [ 137.358231100000012, 36.758679 ] } },
{ "type": "Feature", "properties": { "内容": "一般社団法人滑川市医師会訪問看護ステーション【訪問看護】富山県滑川市寺家町１０４滑川市庁舎東別館２階", "url2": "https://www.kaigokensaku.mhlw.go.jp/16/index.php?action_kouhyou_detail_004_kani=true&JigyosyoCd=1660690015-00&ServiceCd=130&Type=search" }, "geometry": { "type": "Point", "coordinates": [ 137.341849303813177, 36.764548096775165 ] } },
{ "type": "Feature", "properties": { "内容": "厚生連滑川訪問看護ステーション【訪問看護】富山県滑川市常盤町119厚生連滑川病院・訪問看護ステーション", "url2": "https://www.kaigokensaku.mhlw.go.jp/16/index.php?action_kouhyou_detail_004_kani=true&JigyosyoCd=1660690049-00&ServiceCd=130&Type=search" }, "geometry": { "type": "Point", "coordinates": [ 137.3454175, 36.7699938 ] } },
{ "type": "Feature", "properties": { "内容": "医療法人社団平成会桜井病院【訪問看護】富山県黒部市荻生6675番地の5", "url2": "https://www.kaigokensaku.mhlw.go.jp/16/index.php?action_kouhyou_detail_004_kani=true&JigyosyoCd=1610710350-00&ServiceCd=130&Type=search" }, "geometry": { "type": "Point", "coordinates": [ 137.455349, 36.873269 ] } },
{ "type": "Feature", "properties": { "内容": "訪問看護ステーションCHACHACHA【訪問看護】富山県黒部市荻生741", "url2": "https://www.kaigokensaku.mhlw.go.jp/16/index.php?action_kouhyou_detail_004_kani=true&JigyosyoCd=1660790047-00&ServiceCd=130&Type=search" }, "geometry": { "type": "Point", "coordinates": [ 137.4718708, 36.8909059 ] } },
{ "type": "Feature", "properties": { "内容": "訪問看護ナースソフィアにいかわ【訪問看護】富山県黒部市出島977ハイムグリンデル201号室", "url2": "https://www.kaigokensaku.mhlw.go.jp/16/index.php?action_kouhyou_detail_004_kani=true&JigyosyoCd=1660790039-00&ServiceCd=130&Type=search" }, "geometry": { "type": "Point", "coordinates": [ 137.441498492004399, 36.896282194465137 ] } },
{ "type": "Feature", "properties": { "内容": "黒部訪問看護ステーション【訪問看護】黒部市牧野693", "url2": "https://www.kaigokensaku.mhlw.go.jp/16/index.php?action_kouhyou_detail_004_kani=true&JigyosyoCd=1660790005-00&ServiceCd=130&Type=search" }, "geometry": { "type": "Point", "coordinates": [ 137.442283230285625, 36.870287069449034 ] } },
{ "type": "Feature", "properties": { "内容": "黒部市民病院【訪問看護】富山県黒部市三日市1101-1", "url2": "https://www.kaigokensaku.mhlw.go.jp/16/index.php?action_kouhyou_detail_004_kani=true&JigyosyoCd=1610710012-00&ServiceCd=130&Type=search" }, "geometry": { "type": "Point", "coordinates": [ 137.440811204832499, 36.871749446022967 ] } },
{ "type": "Feature", "properties": { "内容": "訪問看護ステーション　ラーレ【訪問看護】富山県砺波市豊町2丁目13-15Kビル2階", "url2": "https://www.kaigokensaku.mhlw.go.jp/16/index.php?action_kouhyou_detail_004_kani=true&JigyosyoCd=1660890383-00&ServiceCd=130&Type=search" }, "geometry": { "type": "Point", "coordinates": [ 136.954284599999937, 36.6271644 ] } },
{ "type": "Feature", "properties": { "内容": "ものがたり訪問看護ステーション【訪問看護】富山県砺波市太田1382番地", "url2": "https://www.kaigokensaku.mhlw.go.jp/16/index.php?action_kouhyou_detail_004_kani=true&JigyosyoCd=1660890375-00&ServiceCd=130&Type=search" }, "geometry": { "type": "Point", "coordinates": [ 136.992949876609828, 36.627387922623655 ] } },
{ "type": "Feature", "properties": { "内容": "訪問看護ステーションあぼかど【訪問看護】富山県　砺波市　杉木　2丁目189番地", "url2": "https://www.kaigokensaku.mhlw.go.jp/16/index.php?action_kouhyou_detail_004_kani=true&JigyosyoCd=1660890417-00&ServiceCd=130&Type=search" }, "geometry": { "type": "Point", "coordinates": [ 136.9532312, 36.6485374 ] } },
{ "type": "Feature", "properties": { "内容": "訪問看護ステーションこまち【訪問看護】富山県砺波市高波1171番地", "url2": "https://www.kaigokensaku.mhlw.go.jp/16/index.php?action_kouhyou_detail_004_kani=true&JigyosyoCd=1660890391-00&ServiceCd=130&Type=search" }, "geometry": { "type": "Point", "coordinates": [ 136.9359326, 36.6786396 ] } },
{ "type": "Feature", "properties": { "内容": "砺波市訪問看護ステーション【訪問看護】砺波市新富町１－６１市立砺波総合病院　北棟5階", "url2": "https://www.kaigokensaku.mhlw.go.jp/16/index.php?action_kouhyou_detail_004_kani=true&JigyosyoCd=1660890003-00&ServiceCd=130&Type=search" }, "geometry": { "type": "Point", "coordinates": [ 136.950866856483458, 36.64066347417517 ] } },
{ "type": "Feature", "properties": { "内容": "小矢部市医師会訪問看護ステーション【訪問看護】綾子5543番地", "url2": "https://www.kaigokensaku.mhlw.go.jp/16/index.php?action_kouhyou_detail_004_kani=true&JigyosyoCd=1660990027-00&ServiceCd=130&Type=search" }, "geometry": { "type": "Point", "coordinates": [ 136.8647254, 36.6707756 ] } },
{ "type": "Feature", "properties": { "内容": "ケアメディカルおやべ訪問看護ステーション【訪問看護】富山県小矢部市石動町1-32", "url2": "https://www.kaigokensaku.mhlw.go.jp/16/index.php?action_kouhyou_detail_004_kani=true&JigyosyoCd=1660990043-00&ServiceCd=130&Type=search" }, "geometry": { "type": "Point", "coordinates": [ 136.86511879140167, 36.67450820000002 ] } },
{ "type": "Feature", "properties": { "内容": "訪問看護ステーションねこのて【訪問看護】富山県南砺市北市255番3", "url2": "https://www.kaigokensaku.mhlw.go.jp/16/index.php?action_kouhyou_detail_004_kani=true&JigyosyoCd=1661090017-00&ServiceCd=130&Type=search" }, "geometry": { "type": "Point", "coordinates": [ 136.941253579788366, 36.561939022662521 ] } },
{ "type": "Feature", "properties": { "内容": "南砺市訪問看護ステーション【訪問看護】富山県南砺市井波938番地", "url2": "https://www.kaigokensaku.mhlw.go.jp/16/index.php?action_kouhyou_detail_004_kani=true&JigyosyoCd=1662090008-00&ServiceCd=130&Type=search" }, "geometry": { "type": "Point", "coordinates": [ 136.973431600000026, 36.5703135 ] } },
{ "type": "Feature", "properties": { "内容": "アルペンリハビリ訪問看護ステーションいみず【訪問看護】富山県射水市本町3－12－28カモン新湊ショッピングセンター２階", "url2": "https://www.kaigokensaku.mhlw.go.jp/16/index.php?action_kouhyou_detail_004_kani=true&JigyosyoCd=1661190098-00&ServiceCd=130&Type=search" }, "geometry": { "type": "Point", "coordinates": [ 137.082522700000027, 36.781161 ] } },
{ "type": "Feature", "properties": { "内容": "訪問看護ステーションてとてと【訪問看護】富山県射水市戸破若宮町３０４６番１", "url2": "https://www.kaigokensaku.mhlw.go.jp/16/index.php?action_kouhyou_detail_004_kani=true&JigyosyoCd=1661190148-00&ServiceCd=130&Type=search" }, "geometry": { "type": "Point", "coordinates": [ 137.114218227461237, 36.721499419260269 ] } },
{ "type": "Feature", "properties": { "内容": "訪問看護ステーションハルスタイル富山【訪問看護】富山県射水市庄川本町14-19", "url2": "https://www.kaigokensaku.mhlw.go.jp/16/index.php?action_kouhyou_detail_004_kani=true&JigyosyoCd=1661190130-00&ServiceCd=130&Type=search" }, "geometry": { "type": "Point", "coordinates": [ 137.0728636, 36.7840826 ] } },
{ "type": "Feature", "properties": { "内容": "ソフィアメディ訪問看護ステーション射水【訪問看護】富山県射水市西高木1217", "url2": "https://www.kaigokensaku.mhlw.go.jp/16/index.php?action_kouhyou_detail_004_kani=true&JigyosyoCd=1661190122-00&ServiceCd=130&Type=search" }, "geometry": { "type": "Point", "coordinates": [ 137.1260105, 36.7451958 ] } },
{ "type": "Feature", "properties": { "内容": "あいの風訪問看護ステーション【訪問看護】富山県射水市海王町21‐61シルバーホーム新湊あいの風", "url2": "https://www.kaigokensaku.mhlw.go.jp/16/index.php?action_kouhyou_detail_004_kani=true&JigyosyoCd=1661190072-00&ServiceCd=130&Type=search" }, "geometry": { "type": "Point", "coordinates": [ 137.10377349615635, 36.779075010705832 ] } },
{ "type": "Feature", "properties": { "内容": "富山福祉短期大学訪問看護ステーション【訪問看護】富山県射水市三ケ579富山福祉短期大学1号館", "url2": "https://www.kaigokensaku.mhlw.go.jp/16/index.php?action_kouhyou_detail_004_kani=true&JigyosyoCd=1661190023-00&ServiceCd=130&Type=search" }, "geometry": { "type": "Point", "coordinates": [ 137.096206328625357, 36.725301376654144 ] } },
{ "type": "Feature", "properties": { "内容": "訪問看護ステーション　なでしこ【訪問看護】富山県射水市草岡町2丁目10-4", "url2": "https://www.kaigokensaku.mhlw.go.jp/16/index.php?action_kouhyou_detail_004_kani=true&JigyosyoCd=1661190056-00&ServiceCd=130&Type=search" }, "geometry": { "type": "Point", "coordinates": [ 137.134756399999986, 36.7673101 ] } },
{ "type": "Feature", "properties": { "内容": "こかげ訪問看護ステーション【訪問看護】富山県射水市作道302ｹｱｻｰｸﾙ作道", "url2": "https://www.kaigokensaku.mhlw.go.jp/16/index.php?action_kouhyou_detail_004_kani=true&JigyosyoCd=1661190049-00&ServiceCd=130&Type=search" }, "geometry": { "type": "Point", "coordinates": [ 137.086192399999959, 36.7633546 ] } },
{ "type": "Feature", "properties": { "内容": "富山県看護協会　訪問看護ステーションひよどり【訪問看護】射水市布目1番地射水市役所布目庁舎　3階", "url2": "https://www.kaigokensaku.mhlw.go.jp/16/index.php?action_kouhyou_detail_004_kani=true&JigyosyoCd=1660390004-00&ServiceCd=130&Type=search" }, "geometry": { "type": "Point", "coordinates": [ 137.078452, 36.7446399 ] } },
{ "type": "Feature", "properties": { "内容": "結リハビリ訪問看護ステーション【訪問看護】富山県射水市三ケ1525SANBISUYAMATOKU402号", "url2": "https://www.kaigokensaku.mhlw.go.jp/16/index.php?action_kouhyou_detail_004_kani=true&JigyosyoCd=1661190080-00&ServiceCd=130&Type=search" }, "geometry": { "type": "Point", "coordinates": [ 137.0834188, 36.7243314 ] } },
{ "type": "Feature", "properties": { "内容": "だいもん訪問看護ステーション【訪問看護】富山県射水市大門161－1", "url2": "https://www.kaigokensaku.mhlw.go.jp/16/index.php?action_kouhyou_detail_004_kani=true&JigyosyoCd=1661190106-00&ServiceCd=130&Type=search" }, "geometry": { "type": "Point", "coordinates": [ 137.048707799999988, 36.7337267 ] } },
{ "type": "Feature", "properties": { "内容": "射水ライフ・サポート訪問看護ステーション【訪問看護】富山県射水市赤井７７番地１", "url2": "https://www.kaigokensaku.mhlw.go.jp/16/index.php?action_kouhyou_detail_004_kani=true&JigyosyoCd=1661190064-00&ServiceCd=130&Type=search" }, "geometry": { "type": "Point", "coordinates": [ 137.069383799999969, 36.7308581 ] } },
{ "type": "Feature", "properties": { "内容": "KORURI訪問看護ステーション【訪問看護】射水市海老江七軒1486-1", "url2": "https://www.kaigokensaku.mhlw.go.jp/16/index.php?action_kouhyou_detail_004_kani=true&JigyosyoCd=1661190155-00&ServiceCd=130&Type=search" }, "geometry": { "type": "Point", "coordinates": [ 137.1539831, 36.7622877 ] } },
{ "type": "Feature", "properties": { "内容": "真生会訪問看護ステーションこころ【訪問看護】富山県射水市橋下条1564番地", "url2": "https://www.kaigokensaku.mhlw.go.jp/16/index.php?action_kouhyou_detail_004_kani=true&JigyosyoCd=1661190007-00&ServiceCd=130&Type=search" }, "geometry": { "type": "Point", "coordinates": [ 137.0785328, 36.7168425 ] } },
{ "type": "Feature", "properties": { "内容": "中新川訪問看護ステーション【訪問看護】富山県中新川郡上市町法音寺５１番地", "url2": "https://www.kaigokensaku.mhlw.go.jp/16/index.php?action_kouhyou_detail_004_kani=true&JigyosyoCd=1661690048-00&ServiceCd=130&Type=search" }, "geometry": { "type": "Point", "coordinates": [ 137.361396832540862, 36.703190247936199 ] } },
{ "type": "Feature", "properties": { "内容": "訪問看護ステーション　フローレンス【訪問看護】富山県中新川郡立山町大石原２２５", "url2": "https://www.kaigokensaku.mhlw.go.jp/16/index.php?action_kouhyou_detail_004_kani=true&JigyosyoCd=1661690055-00&ServiceCd=130&Type=search" }, "geometry": { "type": "Point", "coordinates": [ 137.2979171, 36.665283 ] } },
{ "type": "Feature", "properties": { "内容": "入善訪問看護ステーション【訪問看護】富山県下新川郡入善町椚山1336", "url2": "https://www.kaigokensaku.mhlw.go.jp/16/index.php?action_kouhyou_detail_004_kani=true&JigyosyoCd=1661790012-00&ServiceCd=130&Type=search" }, "geometry": { "type": "Point", "coordinates": [ 137.513512263727762, 36.94213972986163 ] } },
{ "type": "Feature", "properties": { "内容": "坂東病院【訪問看護】富山県下新川郡朝日町道下900", "url2": "https://www.kaigokensaku.mhlw.go.jp/16/index.php?action_kouhyou_detail_004_kani=true&JigyosyoCd=1611710623-00&ServiceCd=130&Type=search" }, "geometry": { "type": "Point", "coordinates": [ 137.562319800000068, 36.9483786 ] } },
{ "type": "Feature", "properties": { "内容": "朝日町在宅介護支援センター　訪問看護ステーション【訪問看護】富山県下新川郡朝日町泊477番地あさひ総合病院６階", "url2": "https://www.kaigokensaku.mhlw.go.jp/16/index.php?action_kouhyou_detail_004_kani=true&JigyosyoCd=1661790004-00&ServiceCd=130&Type=search" }, "geometry": { "type": "Point", "coordinates": [ 137.56147122181244, 36.960128762716415 ] } },
{ "type": "Feature", "properties": { "内容": "坂東病院　訪問看護ステーション【訪問看護】富山県下新川郡朝日町道下900", "url2": "https://www.kaigokensaku.mhlw.go.jp/16/index.php?action_kouhyou_detail_004_kani=true&JigyosyoCd=1661790038-00&ServiceCd=130&Type=search" }, "geometry": { "type": "Point", "coordinates": [ 137.562491599999987, 36.9483693 ] } }
]
}
