{
"type": "FeatureCollection",
"name": "geo_16_介護老人福祉施設",
"crs": { "type": "name", "properties": { "name": "urn:ogc:def:crs:OGC:1.3:CRS84" } },
"features": [
{ "type": "Feature", "properties": { "内容": "特別養護老人ホーム　のりみね苑【介護老人福祉施設】富山市八尾町乗嶺546番地", "url": "https://www.kaigokensaku.mhlw.go.jp/16/index.php?action_kouhyou_detail_004_kani=true&JigyosyoCd=1671800090-00&ServiceCd=510&Type=search", "url2": "http://keiju-kai.jp/" }, "geometry": { "type": "Point", "coordinates": [ 137.118234600000051, 36.555632 ] } },
{ "type": "Feature", "properties": { "内容": "特別養護老人ホーム　しらいわ苑【介護老人福祉施設】富山県富山市水橋新堀17-1", "url": "https://www.kaigokensaku.mhlw.go.jp/16/index.php?action_kouhyou_detail_004_kani=true&JigyosyoCd=1670100831-00&ServiceCd=510&Type=search", "url2": "http://www.nijinokai.net/index.html" }, "geometry": { "type": "Point", "coordinates": [ 137.30417680000005, 36.7148715 ] } },
{ "type": "Feature", "properties": { "内容": "特別養護老人ホーム　白光苑【介護老人福祉施設】富山市山岸95番地", "url": "https://www.kaigokensaku.mhlw.go.jp/16/index.php?action_kouhyou_detail_004_kani=true&JigyosyoCd=1670100690-00&ServiceCd=510&Type=search", "url2": "http://www.byakkouen.jp/" }, "geometry": { "type": "Point", "coordinates": [ 137.201997200000051, 36.7184513 ] } },
{ "type": "Feature", "properties": { "内容": "特別養護老人ホ－ム梨雲苑【介護老人福祉施設】富山県富山市吉作1725番地", "url": "https://www.kaigokensaku.mhlw.go.jp/16/index.php?action_kouhyou_detail_004_kani=true&JigyosyoCd=1670100773-00&ServiceCd=510&Type=search", "url2": "http://www.riunen.com." }, "geometry": { "type": "Point", "coordinates": [ 137.153270199999952, 36.7122291 ] } },
{ "type": "Feature", "properties": { "内容": "特別養護老人ホーム和合ハイツ【介護老人福祉施設】富山市布目1966番地1", "url": "https://www.kaigokensaku.mhlw.go.jp/16/index.php?action_kouhyou_detail_004_kani=true&JigyosyoCd=1670100815-00&ServiceCd=510&Type=search", "url2": "http://wagoufukusikai.com" }, "geometry": { "type": "Point", "coordinates": [ 137.190431399999966, 36.7468618 ] } },
{ "type": "Feature", "properties": { "内容": "特別養護老人ホームすみれ苑【介護老人福祉施設】富山県富山市横越180番地", "url": "https://www.kaigokensaku.mhlw.go.jp/16/index.php?action_kouhyou_detail_004_kani=true&JigyosyoCd=1670100484-00&ServiceCd=510&Type=search", "url2": "http://www.sumireen.jp" }, "geometry": { "type": "Point", "coordinates": [ 137.283783099999937, 36.7515253 ] } },
{ "type": "Feature", "properties": { "内容": "特別養護老人ホームすみれ苑【介護老人福祉施設】富山県富山市横越180番地", "url": "https://www.kaigokensaku.mhlw.go.jp/16/index.php?action_kouhyou_detail_004_kani=true&JigyosyoCd=1670114501-00&ServiceCd=510&Type=search", "url2": "http://www.sumireen.jp" }, "geometry": { "type": "Point", "coordinates": [ 137.2838607, 36.7510215 ] } },
{ "type": "Feature", "properties": { "内容": "特別養護老人ホーム　三寿苑【介護老人福祉施設】富山市大島3丁目147番地", "url": "https://www.kaigokensaku.mhlw.go.jp/16/index.php?action_kouhyou_detail_004_kani=true&JigyosyoCd=1670100419-00&ServiceCd=510&Type=search", "url2": "http://www.sanjukai.jp/" }, "geometry": { "type": "Point", "coordinates": [ 137.278030400000034, 36.6740811 ] } },
{ "type": "Feature", "properties": { "内容": "特別養護老人ホーム　あすなろの郷【介護老人福祉施設】富山市下新北町6-45", "url": "https://www.kaigokensaku.mhlw.go.jp/16/index.php?action_kouhyou_detail_004_kani=true&JigyosyoCd=1670102621-00&ServiceCd=510&Type=search", "url2": "https://www.asunaronosato.jp" }, "geometry": { "type": "Point", "coordinates": [ 137.220122299999957, 36.717002 ] } },
{ "type": "Feature", "properties": { "内容": "アルペンハイツ【介護老人福祉施設】小西170", "url": "https://www.kaigokensaku.mhlw.go.jp/16/index.php?action_kouhyou_detail_004_kani=true&JigyosyoCd=1670114493-00&ServiceCd=510&Type=search", "url2": "http://www.alpen.or.jp" }, "geometry": { "type": "Point", "coordinates": [ 137.257836099999963, 36.7247758 ] } },
{ "type": "Feature", "properties": { "内容": "特別養護老人ホーム　たちばな荘【介護老人福祉施設】富山県富山市八尾町奥田79番地", "url": "https://www.kaigokensaku.mhlw.go.jp/16/index.php?action_kouhyou_detail_004_kani=true&JigyosyoCd=1670112976-00&ServiceCd=510&Type=search", "url2": "http://keiju-kai.jp/" }, "geometry": { "type": "Point", "coordinates": [ 137.1314904232961, 36.618255290880029 ] } },
{ "type": "Feature", "properties": { "内容": "にながわ光風苑【介護老人福祉施設】富山市蜷川89番地", "url": "https://www.kaigokensaku.mhlw.go.jp/16/index.php?action_kouhyou_detail_004_kani=true&JigyosyoCd=1670100641-00&ServiceCd=510&Type=search", "url2": "https://www.koufuukai.jp/" }, "geometry": { "type": "Point", "coordinates": [ 137.2104041, 36.6442948 ] } },
{ "type": "Feature", "properties": { "内容": "ながれすぎ光風苑【介護老人福祉施設】富山市流杉７７番地", "url": "https://www.kaigokensaku.mhlw.go.jp/16/index.php?action_kouhyou_detail_004_kani=true&JigyosyoCd=1670104213-00&ServiceCd=510&Type=search", "url2": "https://koufuukai.jp" }, "geometry": { "type": "Point", "coordinates": [ 137.272092499999985, 36.6587632 ] } },
{ "type": "Feature", "properties": { "内容": "特別養護老人ホーム晴風荘【介護老人福祉施設】富山県富山市水橋辻", "url": "https://www.kaigokensaku.mhlw.go.jp/16/index.php?action_kouhyou_detail_004_kani=true&JigyosyoCd=1670100591-00&ServiceCd=510&Type=search", "url2": "http://seifusou.e-294.net/" }, "geometry": { "type": "Point", "coordinates": [ 137.297848599999952, 36.7459844 ] } },
{ "type": "Feature", "properties": { "内容": "特別養護老人ホーム喜寿苑【介護老人福祉施設】富山県富山市婦中町塚原122番地", "url": "https://www.kaigokensaku.mhlw.go.jp/16/index.php?action_kouhyou_detail_004_kani=true&JigyosyoCd=1670112752-00&ServiceCd=510&Type=search", "url2": "http://kijuen.or.jp" }, "geometry": { "type": "Point", "coordinates": [ 137.184456599999976, 36.6596672 ] } },
{ "type": "Feature", "properties": { "内容": "特別養護老人ホーム　ふなん苑【介護老人福祉施設】富山市石屋237", "url": "https://www.kaigokensaku.mhlw.go.jp/16/index.php?action_kouhyou_detail_004_kani=true&JigyosyoCd=1670101888-00&ServiceCd=510&Type=search", "url2": "http://www.funankai.jp/" }, "geometry": { "type": "Point", "coordinates": [ 137.2576967, 36.6525803 ] } },
{ "type": "Feature", "properties": { "内容": "特別養護老人ホーム敬寿苑【介護老人福祉施設】富山市今泉西部町１番地３", "url": "https://www.kaigokensaku.mhlw.go.jp/16/index.php?action_kouhyou_detail_004_kani=true&JigyosyoCd=1670100500-00&ServiceCd=510&Type=search", "url2": "http://www.toyamajonankai.jp/keijuen/" }, "geometry": { "type": "Point", "coordinates": [ 137.209145199999966, 36.673905 ] } },
{ "type": "Feature", "properties": { "内容": "特別養護老人ホーム　ソレイユ【介護老人福祉施設】富山県富山市下堀50-6", "url": "https://www.kaigokensaku.mhlw.go.jp/16/index.php?action_kouhyou_detail_004_kani=true&JigyosyoCd=1670103306-00&ServiceCd=510&Type=search", "url2": "http://www.t-soleil.jp/" }, "geometry": { "type": "Point", "coordinates": [ 137.228415700000028, 36.6625096 ] } },
{ "type": "Feature", "properties": { "内容": "特別養護老人ホーム梨雲苑ゆうゆう【介護老人福祉施設】富山県富山市野口南部121", "url": "https://www.kaigokensaku.mhlw.go.jp/16/index.php?action_kouhyou_detail_004_kani=true&JigyosyoCd=1670112661-00&ServiceCd=510&Type=search", "url2": "http://www.riunen.com" }, "geometry": { "type": "Point", "coordinates": [ 137.152827663368271, 36.713353940588817 ] } },
{ "type": "Feature", "properties": { "内容": "特別養護老人ホーム　喜寿苑【介護老人福祉施設】富山県富山市婦中町塚原122番地", "url": "https://www.kaigokensaku.mhlw.go.jp/16/index.php?action_kouhyou_detail_004_kani=true&JigyosyoCd=1671800140-00&ServiceCd=510&Type=search", "url2": "http://kijuen.or.jp" }, "geometry": { "type": "Point", "coordinates": [ 137.184456599999976, 36.6596672 ] } },
{ "type": "Feature", "properties": { "内容": "特別養護老人ホームはなさき苑【介護老人福祉施設】富山県富山市花崎80番地", "url": "https://www.kaigokensaku.mhlw.go.jp/16/index.php?action_kouhyou_detail_004_kani=true&JigyosyoCd=1671500187-00&ServiceCd=510&Type=search", "url2": "http://www.hanasakien.or.jp" }, "geometry": { "type": "Point", "coordinates": [ 137.279862699999967, 36.6100076 ] } },
{ "type": "Feature", "properties": { "内容": "特別養護老人ホーム　ささづ苑【介護老人福祉施設】富山市下タ林141", "url": "https://www.kaigokensaku.mhlw.go.jp/16/index.php?action_kouhyou_detail_004_kani=true&JigyosyoCd=1671500179-00&ServiceCd=510&Type=search", "url2": "https://osawano.com" }, "geometry": { "type": "Point", "coordinates": [ 137.205434800000035, 36.5633484 ] } },
{ "type": "Feature", "properties": { "内容": "特別養護老人ホーム太陽苑【介護老人福祉施設】富山県富山市新村８７番地２", "url": "https://www.kaigokensaku.mhlw.go.jp/16/index.php?action_kouhyou_detail_004_kani=true&JigyosyoCd=1671500138-00&ServiceCd=510&Type=search", "url2": "http://taiyouen１０１０.com/" }, "geometry": { "type": "Point", "coordinates": [ 137.214873799999964, 36.6179227 ] } },
{ "type": "Feature", "properties": { "内容": "特別養護老人ホーム　椿寿荘【介護老人福祉施設】富山県富山市八尾町奥田80番地", "url": "https://www.kaigokensaku.mhlw.go.jp/16/index.php?action_kouhyou_detail_004_kani=true&JigyosyoCd=1671800397-00&ServiceCd=510&Type=search", "url2": "http://keiju-kai.jp/" }, "geometry": { "type": "Point", "coordinates": [ 137.1311624, 36.6186518 ] } },
{ "type": "Feature", "properties": { "内容": "特別養護老人ホーム　ふるさと敬寿苑【介護老人福祉施設】富山県富山市婦中町羽根１０９２番地２", "url": "https://www.kaigokensaku.mhlw.go.jp/16/index.php?action_kouhyou_detail_004_kani=true&JigyosyoCd=1671800355-00&ServiceCd=510&Type=search", "url2": "https://toyamajonankai.jp" }, "geometry": { "type": "Point", "coordinates": [ 137.140578208598299, 36.660207804145102 ] } },
{ "type": "Feature", "properties": { "内容": "特別養護老人ホーム　くれは苑【介護老人福祉施設】富山県富山市中老田845番地", "url": "https://www.kaigokensaku.mhlw.go.jp/16/index.php?action_kouhyou_detail_004_kani=true&JigyosyoCd=1670103819-00&ServiceCd=510&Type=search", "url2": "http://www.youkou-fukushikai.or.jp/kurehaen/" }, "geometry": { "type": "Point", "coordinates": [ 137.130214199999955, 36.6999579 ] } },
{ "type": "Feature", "properties": { "内容": "特別養護老人ホーム　だいご苑【介護老人福祉施設】富山県高岡市醍醐1257番地", "url": "https://www.kaigokensaku.mhlw.go.jp/16/index.php?action_kouhyou_detail_004_kani=true&JigyosyoCd=1690200553-00&ServiceCd=510&Type=search", "url2": "daigoen@abeam.ocn.ne.jp" }, "geometry": { "type": "Point", "coordinates": [ 136.962011133799024, 36.695989988005138 ] } },
{ "type": "Feature", "properties": { "内容": "特別養護老人ホーム　だいご苑【介護老人福祉施設】富山県高岡市醍醐1257番地", "url": "https://www.kaigokensaku.mhlw.go.jp/16/index.php?action_kouhyou_detail_004_kani=true&JigyosyoCd=1670200292-00&ServiceCd=510&Type=search", "url2": "http://www.daigoen.com" }, "geometry": { "type": "Point", "coordinates": [ 136.961654400000043, 36.6961986 ] } },
{ "type": "Feature", "properties": { "内容": "特別養護老人ホーム　ふしき苑【介護老人福祉施設】富山県高岡市伏木国分１丁目１０番１０号", "url": "https://www.kaigokensaku.mhlw.go.jp/16/index.php?action_kouhyou_detail_004_kani=true&JigyosyoCd=1670200797-00&ServiceCd=510&Type=search", "url2": "http://www2.tcnet.ne.jp/fusikien/" }, "geometry": { "type": "Point", "coordinates": [ 137.0539238, 36.8001945 ] } },
{ "type": "Feature", "properties": { "内容": "特別養護老人ホーム香野苑【介護老人福祉施設】富山県高岡市上渡１６１番地", "url": "https://www.kaigokensaku.mhlw.go.jp/16/index.php?action_kouhyou_detail_004_kani=true&JigyosyoCd=1670200391-00&ServiceCd=510&Type=search", "url2": "https://tatenofukushikai-kanoen.com" }, "geometry": { "type": "Point", "coordinates": [ 136.957872700000053, 36.7296946 ] } },
{ "type": "Feature", "properties": { "内容": "特別養護老人ホームあさひ苑【介護老人福祉施設】富山県高岡市角５６１", "url": "https://www.kaigokensaku.mhlw.go.jp/16/index.php?action_kouhyou_detail_004_kani=true&JigyosyoCd=1670201688-00&ServiceCd=510&Type=search", "url2": "http://akanekai.toyama.jp" }, "geometry": { "type": "Point", "coordinates": [ 137.037276799999972, 36.766045 ] } },
{ "type": "Feature", "properties": { "内容": "特別養護老人ホームあさひ苑アネックス【介護老人福祉施設】鷲北新171番地特別養護老人ホームあさひ苑アネックス", "url": "https://www.kaigokensaku.mhlw.go.jp/16/index.php?action_kouhyou_detail_004_kani=true&JigyosyoCd=1670202595-00&ServiceCd=510&Type=search", "url2": "http://akanekai.toyama.jp" }, "geometry": { "type": "Point", "coordinates": [ 137.037874399999964, 36.76669 ] } },
{ "type": "Feature", "properties": { "内容": "特別養護老人ホーム　雨晴苑【介護老人福祉施設】富山県高岡市太田５８番地", "url": "https://www.kaigokensaku.mhlw.go.jp/16/index.php?action_kouhyou_detail_004_kani=true&JigyosyoCd=1670200433-00&ServiceCd=510&Type=search", "url2": "http://www.amaharashien.jp/" }, "geometry": { "type": "Point", "coordinates": [ 137.014864799999941, 36.8154082 ] } },
{ "type": "Feature", "properties": { "内容": "特別養護老人ホームはるかぜ【介護老人福祉施設】富山県高岡市オフィスパーク13番", "url": "https://www.kaigokensaku.mhlw.go.jp/16/index.php?action_kouhyou_detail_004_kani=true&JigyosyoCd=1670201472-00&ServiceCd=510&Type=search", "url2": "http://www.harukaze-takaoka.or.jp" }, "geometry": { "type": "Point", "coordinates": [ 136.999101600000017, 36.6720308 ] } },
{ "type": "Feature", "properties": { "内容": "特別養護老人ホームかがやき【介護老人福祉施設】富山県高岡市オフィスパーク3番", "url": "https://www.kaigokensaku.mhlw.go.jp/16/index.php?action_kouhyou_detail_004_kani=true&JigyosyoCd=1670202413-00&ServiceCd=510&Type=search", "url2": "http://harukaze-takaoka.or.jp" }, "geometry": { "type": "Point", "coordinates": [ 136.998693399999979, 36.6691007 ] } },
{ "type": "Feature", "properties": { "内容": "特別養護老人ホーム二上万葉苑【介護老人福祉施設】富山県高岡市二上町1004番地", "url": "https://www.kaigokensaku.mhlw.go.jp/16/index.php?action_kouhyou_detail_004_kani=true&JigyosyoCd=1670200805-00&ServiceCd=510&Type=search", "url2": "http://www.imizu-manyoukai.or.jp/" }, "geometry": { "type": "Point", "coordinates": [ 137.0081146, 36.773994 ] } },
{ "type": "Feature", "properties": { "内容": "特別養護老人ホーム　藤園苑【介護老人福祉施設】富山県高岡市早川390-1", "url": "https://www.kaigokensaku.mhlw.go.jp/16/index.php?action_kouhyou_detail_004_kani=true&JigyosyoCd=1670200664-00&ServiceCd=510&Type=search", "url2": "http://www.fujisonoen.or.jp/" }, "geometry": { "type": "Point", "coordinates": [ 136.988288199999943, 36.7465688 ] } },
{ "type": "Feature", "properties": { "内容": "特別養護老人ホームのむら藤園苑【介護老人福祉施設】富山県高岡市野村921番地1", "url": "https://www.kaigokensaku.mhlw.go.jp/16/index.php?action_kouhyou_detail_004_kani=true&JigyosyoCd=1670201308-00&ServiceCd=510&Type=search", "url2": "http://www.fujisonoen.jp/" }, "geometry": { "type": "Point", "coordinates": [ 137.03611090000004, 36.7507468 ] } },
{ "type": "Feature", "properties": { "内容": "特別養護老人ホーム　鳳鳴苑【介護老人福祉施設】富山県高岡市蔵野町３番地", "url": "https://www.kaigokensaku.mhlw.go.jp/16/index.php?action_kouhyou_detail_004_kani=true&JigyosyoCd=1670200250-00&ServiceCd=510&Type=search", "url2": "http://www.fukuhoukai.jp/" }, "geometry": { "type": "Point", "coordinates": [ 136.978160399999979, 36.7229736 ] } },
{ "type": "Feature", "properties": { "内容": "ユニット型特別養護老人ホーム　鳳鳴苑【介護老人福祉施設】富山県高岡市蔵野町３番地", "url": "https://www.kaigokensaku.mhlw.go.jp/16/index.php?action_kouhyou_detail_004_kani=true&JigyosyoCd=1670202140-00&ServiceCd=510&Type=search", "url2": "http://www.fukuhoukai.jp/" }, "geometry": { "type": "Point", "coordinates": [ 136.978160399999979, 36.7229736 ] } },
{ "type": "Feature", "properties": { "内容": "特別養護老人ホーム　アルテン赤丸【介護老人福祉施設】富山県高岡市福岡町赤丸1103番地1", "url": "https://www.kaigokensaku.mhlw.go.jp/16/index.php?action_kouhyou_detail_004_kani=true&JigyosyoCd=1672100102-00&ServiceCd=510&Type=search", "url2": "http://www.aruten.or.jp/" }, "geometry": { "type": "Point", "coordinates": [ 136.932330200000024, 36.7377992 ] } },
{ "type": "Feature", "properties": { "内容": "志貴野長生寮【介護老人福祉施設】富山県高岡市滝新21番地1", "url": "https://www.kaigokensaku.mhlw.go.jp/16/index.php?action_kouhyou_detail_004_kani=true&JigyosyoCd=1670201597-00&ServiceCd=510&Type=search", "url2": "URL:http://www.shikino.or.jp/" }, "geometry": { "type": "Point", "coordinates": [ 137.030280700000048, 36.6778564 ] } },
{ "type": "Feature", "properties": { "内容": "特別養護老人ホーム　　あんどの里【介護老人福祉施設】富山県魚津市仏田3468番地", "url": "https://www.kaigokensaku.mhlw.go.jp/16/index.php?action_kouhyou_detail_004_kani=true&JigyosyoCd=1670400298-00&ServiceCd=510&Type=search", "url2": "http://www.kaiboufukushi.com/" }, "geometry": { "type": "Point", "coordinates": [ 137.406394800000044, 36.8418411 ] } },
{ "type": "Feature", "properties": { "内容": "特別養護老人ホーム　あんどの里【介護老人福祉施設】富山県魚津市仏田3468番地", "url": "https://www.kaigokensaku.mhlw.go.jp/16/index.php?action_kouhyou_detail_004_kani=true&JigyosyoCd=1670400678-00&ServiceCd=510&Type=search", "url2": "http://www.kaiboufukushi.com/" }, "geometry": { "type": "Point", "coordinates": [ 137.406394800000044, 36.8418411 ] } },
{ "type": "Feature", "properties": { "内容": "特別養護老人ホーム新川ヴィーラ【介護老人福祉施設】富山県魚津市大光寺450", "url": "https://www.kaigokensaku.mhlw.go.jp/16/index.php?action_kouhyou_detail_004_kani=true&JigyosyoCd=1670400199-00&ServiceCd=510&Type=search", "url2": "http://www.niikawa-fukushi.net/" }, "geometry": { "type": "Point", "coordinates": [ 137.410218399999962, 36.8102051 ] } },
{ "type": "Feature", "properties": { "内容": "特別養護老人ホーム新川ヴィーラ東館・新館ユニット【介護老人福祉施設】富山県魚津市大光寺450番地", "url": "https://www.kaigokensaku.mhlw.go.jp/16/index.php?action_kouhyou_detail_004_kani=true&JigyosyoCd=1670400660-00&ServiceCd=510&Type=search", "url2": "http://www.niikawa-fukushi.net/" }, "geometry": { "type": "Point", "coordinates": [ 137.410218399999962, 36.8102051 ] } },
{ "type": "Feature", "properties": { "内容": "特別養護老人ホームはまなす苑氷見【介護老人福祉施設】富山県氷見市島尾791番地", "url": "https://www.kaigokensaku.mhlw.go.jp/16/index.php?action_kouhyou_detail_004_kani=true&JigyosyoCd=1670500139-00&ServiceCd=510&Type=search", "url2": "https://www.hamanasu-himi.jp/" }, "geometry": { "type": "Point", "coordinates": [ 137.010634500000037, 36.8240264 ] } },
{ "type": "Feature", "properties": { "内容": "特別養護老人ホーム　ほのぼの苑【介護老人福祉施設】富山県氷見市加納495-1", "url": "https://www.kaigokensaku.mhlw.go.jp/16/index.php?action_kouhyou_detail_004_kani=true&JigyosyoCd=1670500295-00&ServiceCd=510&Type=search", "url2": "http://www.hakuju-kai.jp/" }, "geometry": { "type": "Point", "coordinates": [ 136.971682099999953, 36.8625246 ] } },
{ "type": "Feature", "properties": { "内容": "特別養護老人ホームつまま園【介護老人福祉施設】氷見市阿尾４１０番地", "url": "https://www.kaigokensaku.mhlw.go.jp/16/index.php?action_kouhyou_detail_004_kani=true&JigyosyoCd=1670500089-00&ServiceCd=510&Type=search", "url2": "https://himifukushikai.com/" }, "geometry": { "type": "Point", "coordinates": [ 136.98098559999994, 36.887549 ] } },
{ "type": "Feature", "properties": { "内容": "特別養護老人ホームすわ苑【介護老人福祉施設】富山県氷見市柳田字諏訪野3892番地の1", "url": "https://www.kaigokensaku.mhlw.go.jp/16/index.php?action_kouhyou_detail_004_kani=true&JigyosyoCd=1670500097-00&ServiceCd=510&Type=search", "url2": "https://himifukushikai.com/" }, "geometry": { "type": "Point", "coordinates": [ 136.994355700000028, 36.8299775 ] } },
{ "type": "Feature", "properties": { "内容": "特別養護老人ホームつまま園　たぶの里【介護老人福祉施設】阿尾４１０番地", "url": "https://www.kaigokensaku.mhlw.go.jp/16/index.php?action_kouhyou_detail_004_kani=true&JigyosyoCd=1670500683-00&ServiceCd=510&Type=search", "url2": "https://himifukushikai.com/" }, "geometry": { "type": "Point", "coordinates": [ 136.98098559999994, 36.887549 ] } },
{ "type": "Feature", "properties": { "内容": "特別養護老人ホーム氷見苑【介護老人福祉施設】富山県氷見市薮田2063番地", "url": "https://www.kaigokensaku.mhlw.go.jp/16/index.php?action_kouhyou_detail_004_kani=true&JigyosyoCd=1670500428-00&ServiceCd=510&Type=search", "url2": "https://www.himien.jp/" }, "geometry": { "type": "Point", "coordinates": [ 136.997758699999963, 36.892973499999982 ] } },
{ "type": "Feature", "properties": { "内容": "特別養護老人ホーム清寿荘【介護老人福祉施設】富山県滑川市赤浜５７３番地の１", "url": "https://www.kaigokensaku.mhlw.go.jp/16/index.php?action_kouhyou_detail_004_kani=true&JigyosyoCd=1670600046-00&ServiceCd=510&Type=search", "url2": "care-net.biz/16/seijusou" }, "geometry": { "type": "Point", "coordinates": [ 137.3640236, 36.735293 ] } },
{ "type": "Feature", "properties": { "内容": "特別養護老人ホームカモメ荘【介護老人福祉施設】富山県滑川市吉浦13番地", "url": "https://www.kaigokensaku.mhlw.go.jp/16/index.php?action_kouhyou_detail_004_kani=true&JigyosyoCd=1670600111-00&ServiceCd=510&Type=search", "url2": "https://care-net.biz/16/kouwakai/" }, "geometry": { "type": "Point", "coordinates": [ 137.37204220000001, 36.7925923 ] } },
{ "type": "Feature", "properties": { "内容": "特別養護老人ホームカモメ荘【介護老人福祉施設】富山県滑川市吉浦13番地", "url": "https://www.kaigokensaku.mhlw.go.jp/16/index.php?action_kouhyou_detail_004_kani=true&JigyosyoCd=1670600384-00&ServiceCd=510&Type=search", "url2": "https://care-net.biz/16/kouwakai/" }, "geometry": { "type": "Point", "coordinates": [ 137.37204220000001, 36.7925923 ] } },
{ "type": "Feature", "properties": { "内容": "特別養護老人ホーム越野荘【介護老人福祉施設】富山県黒部市若栗2111", "url": "https://www.kaigokensaku.mhlw.go.jp/16/index.php?action_kouhyou_detail_004_kani=true&JigyosyoCd=1670700085-00&ServiceCd=510&Type=search", "url2": "http://koshinosou.e-294.net" }, "geometry": { "type": "Point", "coordinates": [ 137.488287, 36.8658266 ] } },
{ "type": "Feature", "properties": { "内容": "特別養護老人ホ－ム越之湖【介護老人福祉施設】富山県黒部市堀切1002番地", "url": "https://www.kaigokensaku.mhlw.go.jp/16/index.php?action_kouhyou_detail_004_kani=true&JigyosyoCd=1670700127-00&ServiceCd=510&Type=search", "url2": "http://koshinoko.e-294.net/" }, "geometry": { "type": "Point", "coordinates": [ 137.424657199999956, 36.8806373 ] } },
{ "type": "Feature", "properties": { "内容": "特別養護老人ホームおらはうす宇奈月【介護老人福祉施設】富山県黒部市宇奈月町下立３７番地", "url": "https://www.kaigokensaku.mhlw.go.jp/16/index.php?action_kouhyou_detail_004_kani=true&JigyosyoCd=1671700159-00&ServiceCd=510&Type=search", "url2": "http://orahausu.jimdo.com/" }, "geometry": { "type": "Point", "coordinates": [ 137.526713800000039, 36.8642892 ] } },
{ "type": "Feature", "properties": { "内容": "特別養護老人ホームやなぜ苑【介護老人福祉施設】富山県砺波市柳瀬３番地", "url": "https://www.kaigokensaku.mhlw.go.jp/16/index.php?action_kouhyou_detail_004_kani=true&JigyosyoCd=1670800158-00&ServiceCd=510&Type=search", "url2": "http://yanaze.org/" }, "geometry": { "type": "Point", "coordinates": [ 136.995847199999957, 36.6471732 ] } },
{ "type": "Feature", "properties": { "内容": "特別養護老人ホーム　砺波ふれあいの杜【介護老人福祉施設】富山県砺波市神島７５６－１", "url": "https://www.kaigokensaku.mhlw.go.jp/16/index.php?action_kouhyou_detail_004_kani=true&JigyosyoCd=1670800299-00&ServiceCd=510&Type=search", "url2": "http://www.furemori.com" }, "geometry": { "type": "Point", "coordinates": [ 136.939355400000068, 36.6358074 ] } },
{ "type": "Feature", "properties": { "内容": "特別養護老人ホームほっとはうす千羽【介護老人福祉施設】富山県小矢部市浅地１２１", "url": "https://www.kaigokensaku.mhlw.go.jp/16/index.php?action_kouhyou_detail_004_kani=true&JigyosyoCd=1670900099-00&ServiceCd=510&Type=search", "url2": "http://www.hot-senba.net/" }, "geometry": { "type": "Point", "coordinates": [ 136.875473, 36.6233822 ] } },
{ "type": "Feature", "properties": { "内容": "特別養護老人ホーム清楽園【介護老人福祉施設】富山県小矢部市法楽寺1800番地の1", "url": "https://www.kaigokensaku.mhlw.go.jp/16/index.php?action_kouhyou_detail_004_kani=true&JigyosyoCd=1670900115-00&ServiceCd=510&Type=search", "url2": "https://seirakuen.site/" }, "geometry": { "type": "Point", "coordinates": [ 136.874187799999959, 36.6946089 ] } },
{ "type": "Feature", "properties": { "内容": "特別養護老人ホームほっとはうす千羽ふたば館【介護老人福祉施設】富山県小矢部市浅地121番地", "url": "https://www.kaigokensaku.mhlw.go.jp/16/index.php?action_kouhyou_detail_004_kani=true&JigyosyoCd=1670900537-00&ServiceCd=510&Type=search", "url2": "http://www.hot-senba.net/" }, "geometry": { "type": "Point", "coordinates": [ 136.875473, 36.6233822 ] } },
{ "type": "Feature", "properties": { "内容": "特別養護老人ホームいなみ【介護老人福祉施設】富山県南砺市井波1310番地1", "url": "https://www.kaigokensaku.mhlw.go.jp/16/index.php?action_kouhyou_detail_004_kani=true&JigyosyoCd=1672000286-00&ServiceCd=510&Type=search", "url2": "http//fukuju.jp/" }, "geometry": { "type": "Point", "coordinates": [ 136.9760731, 36.5678305 ] } },
{ "type": "Feature", "properties": { "内容": "特別養護老人ホーム　福寿園【介護老人福祉施設】富山県南砺市松原678番地1", "url": "https://www.kaigokensaku.mhlw.go.jp/16/index.php?action_kouhyou_detail_004_kani=true&JigyosyoCd=1672000146-00&ServiceCd=510&Type=search", "url2": "http://fukuju.jp/" }, "geometry": { "type": "Point", "coordinates": [ 136.928743299999951, 36.5962314 ] } },
{ "type": "Feature", "properties": { "内容": "特別養護老人ホーム　福寿園【介護老人福祉施設】富山県南砺市松原678番地1", "url": "https://www.kaigokensaku.mhlw.go.jp/16/index.php?action_kouhyou_detail_004_kani=true&JigyosyoCd=1671000311-00&ServiceCd=510&Type=search", "url2": "http://fukuju.jp/" }, "geometry": { "type": "Point", "coordinates": [ 136.928743299999951, 36.5962314 ] } },
{ "type": "Feature", "properties": { "内容": "特別養護老人ホーム　やすらぎ荘【介護老人福祉施設】富山県南砺市天池１５７０番地", "url": "https://www.kaigokensaku.mhlw.go.jp/16/index.php?action_kouhyou_detail_004_kani=true&JigyosyoCd=1672100052-00&ServiceCd=510&Type=search", "url2": "http://fukuju.jp/" }, "geometry": { "type": "Point", "coordinates": [ 136.904051811399086, 36.545255466763095 ] } },
{ "type": "Feature", "properties": { "内容": "特別養護老人ホームきらら【介護老人福祉施設】富山県南砺市理休247番地1", "url": "https://www.kaigokensaku.mhlw.go.jp/16/index.php?action_kouhyou_detail_004_kani=true&JigyosyoCd=1671000329-00&ServiceCd=510&Type=search", "url2": "http://fukuju.jp" }, "geometry": { "type": "Point", "coordinates": [ 136.910321285319469, 36.512106257729378 ] } },
{ "type": "Feature", "properties": { "内容": "特別養護老人ホーム　七美ことぶき苑【介護老人福祉施設】富山県射水市七美８９１番地", "url": "https://www.kaigokensaku.mhlw.go.jp/16/index.php?action_kouhyou_detail_004_kani=true&JigyosyoCd=1670300092-00&ServiceCd=510&Type=search", "url2": "http://shitimi-kotobukien.com/" }, "geometry": { "type": "Point", "coordinates": [ 137.142372799999947, 36.7522429 ] } },
{ "type": "Feature", "properties": { "内容": "特別養護老人ホーム　射水万葉苑【介護老人福祉施設】富山県射水市朴木２１１番地の１", "url": "https://www.kaigokensaku.mhlw.go.jp/16/index.php?action_kouhyou_detail_004_kani=true&JigyosyoCd=1670300068-00&ServiceCd=510&Type=search", "url2": "http://www.imizu-manyoukai.or.jp" }, "geometry": { "type": "Point", "coordinates": [ 137.078659900000048, 36.759302 ] } },
{ "type": "Feature", "properties": { "内容": "特別養護老人ホーム　こぶし園【介護老人福祉施設】富山県射水市中村20番地", "url": "https://www.kaigokensaku.mhlw.go.jp/16/index.php?action_kouhyou_detail_004_kani=true&JigyosyoCd=1671900072-00&ServiceCd=510&Type=search", "url2": "https://www.kobushi-en.com" }, "geometry": { "type": "Point", "coordinates": [ 137.056160200000022, 36.7229811 ] } },
{ "type": "Feature", "properties": { "内容": "特別養護老人ホームすずらん【介護老人福祉施設】富山県射水市大島北野３３", "url": "https://www.kaigokensaku.mhlw.go.jp/16/index.php?action_kouhyou_detail_004_kani=true&JigyosyoCd=1671900239-00&ServiceCd=510&Type=search", "url2": "https://suzuran-imizu.jp/" }, "geometry": { "type": "Point", "coordinates": [ 137.052923700000065, 36.7445059 ] } },
{ "type": "Feature", "properties": { "内容": "特別養護老人ホーム大江苑【介護老人福祉施設】富山県射水市大江３３３番地の１", "url": "https://www.kaigokensaku.mhlw.go.jp/16/index.php?action_kouhyou_detail_004_kani=true&JigyosyoCd=1671900114-00&ServiceCd=510&Type=search", "url2": "https://kosugifukushikai.jp/oogoen/" }, "geometry": { "type": "Point", "coordinates": [ 137.1151734, 36.7283541 ] } },
{ "type": "Feature", "properties": { "内容": "特別養護老人ホーム　太閤の杜【介護老人福祉施設】富山県射水市中太閤山18丁目1番地の2", "url": "https://www.kaigokensaku.mhlw.go.jp/16/index.php?action_kouhyou_detail_004_kani=true&JigyosyoCd=1671100145-00&ServiceCd=510&Type=search", "url2": "http://kosugifukusikai.jp" }, "geometry": { "type": "Point", "coordinates": [ 137.089466099999981, 36.699634600000017 ] } },
{ "type": "Feature", "properties": { "内容": "特別養護老人ホーム　大江苑【介護老人福祉施設】富山県射水市大江３３３番地の1", "url": "https://www.kaigokensaku.mhlw.go.jp/16/index.php?action_kouhyou_detail_004_kani=true&JigyosyoCd=1671100467-00&ServiceCd=510&Type=search", "url2": "http://kosugifukushikai．ｊｐ/" }, "geometry": { "type": "Point", "coordinates": [ 137.115194857672094, 36.728319704210911 ] } },
{ "type": "Feature", "properties": { "内容": "特別養護老人ホーム　こぶし園【介護老人福祉施設】富山県射水市中村20番地ひいらぎの杜", "url": "https://www.kaigokensaku.mhlw.go.jp/16/index.php?action_kouhyou_detail_004_kani=true&JigyosyoCd=1671100459-00&ServiceCd=510&Type=search", "url2": "https://www.kobushi-en.com" }, "geometry": { "type": "Point", "coordinates": [ 137.056160200000022, 36.7229811 ] } },
{ "type": "Feature", "properties": { "内容": "特別養護老人ホームエスポワールこすぎ【介護老人福祉施設】富山県射水市池多８２２いけだの里", "url": "https://www.kaigokensaku.mhlw.go.jp/16/index.php?action_kouhyou_detail_004_kani=true&JigyosyoCd=1671900098-00&ServiceCd=510&Type=search", "url2": "http://kosugihukushikai.jp/" }, "geometry": { "type": "Point", "coordinates": [ 137.109837452778635, 36.684901870626511 ] } },
{ "type": "Feature", "properties": { "内容": "特別養護老人ホームエスポワールこすぎ【介護老人福祉施設】富山県射水市池多８２２白鳥の里", "url": "https://www.kaigokensaku.mhlw.go.jp/16/index.php?action_kouhyou_detail_004_kani=true&JigyosyoCd=1671100442-00&ServiceCd=510&Type=search", "url2": "http://kosugihukushikai.jp/" }, "geometry": { "type": "Point", "coordinates": [ 137.109644333729563, 36.684432961621432 ] } },
{ "type": "Feature", "properties": { "内容": "特別養護老人ホーム　ふなはし荘【介護老人福祉施設】富山県中新川郡舟橋村舟橋５８番地１", "url": "https://www.kaigokensaku.mhlw.go.jp/16/index.php?action_kouhyou_detail_004_kani=true&JigyosyoCd=1671600318-00&ServiceCd=510&Type=search", "url2": "http://www.care-net.biz/16/funahashisou/" }, "geometry": { "type": "Point", "coordinates": [ 137.310915199999954, 36.709439 ] } },
{ "type": "Feature", "properties": { "内容": "特別養護老人ホームふなはし荘ユニットほっと【介護老人福祉施設】富山県中新川郡舟橋村舟橋58番地1", "url": "https://www.kaigokensaku.mhlw.go.jp/16/index.php?action_kouhyou_detail_004_kani=true&JigyosyoCd=1671600813-00&ServiceCd=510&Type=search", "url2": "http://www.care-net.biz/16/funahashisou/" }, "geometry": { "type": "Point", "coordinates": [ 137.310915199999954, 36.709439 ] } },
{ "type": "Feature", "properties": { "内容": "特別養護老人ホーム常楽園【介護老人福祉施設】富山県中新川郡上市町舘２０９", "url": "https://www.kaigokensaku.mhlw.go.jp/16/index.php?action_kouhyou_detail_004_kani=true&JigyosyoCd=1671600193-00&ServiceCd=510&Type=search", "url2": "https://jorakuen.jp/" }, "geometry": { "type": "Point", "coordinates": [ 137.363147700000013, 36.6728135 ] } },
{ "type": "Feature", "properties": { "内容": "特別養護老人ホーム竜ヶ浜荘【介護老人福祉施設】富山県中新川郡立山町末上野字竜ケ浜119番地", "url": "https://www.kaigokensaku.mhlw.go.jp/16/index.php?action_kouhyou_detail_004_kani=true&JigyosyoCd=1671600227-00&ServiceCd=510&Type=search", "url2": "http://www.ryugahama.jp" }, "geometry": { "type": "Point", "coordinates": [ 137.334818246032711, 36.650802494154007 ] } },
{ "type": "Feature", "properties": { "内容": "特別養護老人ホーム　おあしす新川【介護老人福祉施設】富山県下新川郡入善町上野２８０３", "url": "https://www.kaigokensaku.mhlw.go.jp/16/index.php?action_kouhyou_detail_004_kani=true&JigyosyoCd=1671700225-00&ServiceCd=510&Type=search", "url2": "http://oasis-niikawa.jp/" }, "geometry": { "type": "Point", "coordinates": [ 137.5023589, 36.9246901 ] } },
{ "type": "Feature", "properties": { "内容": "特別養護老人ホーム舟見寿楽苑【介護老人福祉施設】富山県下新川郡入善町舟見１６６４番地", "url": "https://www.kaigokensaku.mhlw.go.jp/16/index.php?action_kouhyou_detail_004_kani=true&JigyosyoCd=1671700126-00&ServiceCd=510&Type=search", "url2": "http://www.funamijurakuen.jp/" }, "geometry": { "type": "Point", "coordinates": [ 137.5595303, 36.8779188 ] } },
{ "type": "Feature", "properties": { "内容": "特別養護老人ホーム　おあしす新川　ユニット型【介護老人福祉施設】富山県下新川郡入善町上野２８０３", "url": "https://www.kaigokensaku.mhlw.go.jp/16/index.php?action_kouhyou_detail_004_kani=true&JigyosyoCd=1671700555-00&ServiceCd=510&Type=search", "url2": "http://oasis-niikawa.jp/" }, "geometry": { "type": "Point", "coordinates": [ 137.502483799999936, 36.924679 ] } },
{ "type": "Feature", "properties": { "内容": "特別養護老人ホーム　有磯苑（ユニット型）【介護老人福祉施設】富山県下新川郡朝日町泊555", "url": "https://www.kaigokensaku.mhlw.go.jp/16/index.php?action_kouhyou_detail_004_kani=true&JigyosyoCd=1671700522-00&ServiceCd=510&Type=search", "url2": "https://www.arisokai.jp/" }, "geometry": { "type": "Point", "coordinates": [ 137.5631932, 36.9620405 ] } },
{ "type": "Feature", "properties": { "内容": "特別養護老人ホーム　有磯苑【介護老人福祉施設】富山県下新川郡朝日町泊555番地", "url": "https://www.kaigokensaku.mhlw.go.jp/16/index.php?action_kouhyou_detail_004_kani=true&JigyosyoCd=1671700118-00&ServiceCd=510&Type=search", "url2": "http://www.arisokai.jp/" }, "geometry": { "type": "Point", "coordinates": [ 137.5631932, 36.9620405 ] } }
]
}
