{
"type": "FeatureCollection",
"name": "geo_16_地域密着型通所介護",
"crs": { "type": "name", "properties": { "name": "urn:ogc:def:crs:OGC:1.3:CRS84" } },
"features": [
{ "type": "Feature", "properties": { "内容": "水橋デイサービスセンター【地域密着型通所介護】富山県富山市水橋市田袋１２６", "url2": "https://www.kaigokensaku.mhlw.go.jp/16/index.php?action_kouhyou_detail_004_kani=true&JigyosyoCd=1670100864-00&ServiceCd=780&Type=search" }, "geometry": { "type": "Point", "coordinates": [ 137.289297199999965, 36.7270751 ] } },
{ "type": "Feature", "properties": { "内容": "有限会社　デイサービスセンターもみじ【地域密着型通所介護】富山県富山市上大久保１９１７", "url2": "https://www.kaigokensaku.mhlw.go.jp/16/index.php?action_kouhyou_detail_004_kani=true&JigyosyoCd=1670103314-00&ServiceCd=780&Type=search" }, "geometry": { "type": "Point", "coordinates": [ 137.2069616, 36.586976 ] } },
{ "type": "Feature", "properties": { "内容": "デイサービス　よつばのクローバー【地域密着型通所介護】本郷中部440", "url2": "https://www.kaigokensaku.mhlw.go.jp/16/index.php?action_kouhyou_detail_004_kani=true&JigyosyoCd=1670103587-00&ServiceCd=780&Type=search" }, "geometry": { "type": "Point", "coordinates": [ 137.1527992, 36.728960100000016 ] } },
{ "type": "Feature", "properties": { "内容": "デイサービス笑和【地域密着型通所介護】富山市婦中町千里935-3", "url2": "https://www.kaigokensaku.mhlw.go.jp/16/index.php?action_kouhyou_detail_004_kani=true&JigyosyoCd=1670112067-00&ServiceCd=780&Type=search" }, "geometry": { "type": "Point", "coordinates": [ 137.1170644, 36.6325486 ] } },
{ "type": "Feature", "properties": { "内容": "デイサービス北の杜【地域密着型通所介護】富山県富山市森1丁目9-6デイサービス北の杜", "url2": "https://www.kaigokensaku.mhlw.go.jp/16/index.php?action_kouhyou_detail_004_kani=true&JigyosyoCd=1670105103-00&ServiceCd=780&Type=search" }, "geometry": { "type": "Point", "coordinates": [ 137.235281699999973, 36.7483576 ] } },
{ "type": "Feature", "properties": { "内容": "デイサービス婦中の家【地域密着型通所介護】富山県富山市婦中町添島字正仙５４７－６", "url2": "https://www.kaigokensaku.mhlw.go.jp/16/index.php?action_kouhyou_detail_004_kani=true&JigyosyoCd=1670105111-00&ServiceCd=780&Type=search" }, "geometry": { "type": "Point", "coordinates": [ 137.17823820000001, 36.6414404 ] } },
{ "type": "Feature", "properties": { "内容": "デイサービスゆめと【地域密着型通所介護】富山市上飯野新町２丁目８９", "url2": "https://www.kaigokensaku.mhlw.go.jp/16/index.php?action_kouhyou_detail_004_kani=true&JigyosyoCd=1690101215-00&ServiceCd=780&Type=search" }, "geometry": { "type": "Point", "coordinates": [ 137.2549744, 36.7119712 ] } },
{ "type": "Feature", "properties": { "内容": "ありがとうの家【地域密着型通所介護】富山市堀川小泉町１－１４－１４", "url2": "https://www.kaigokensaku.mhlw.go.jp/16/index.php?action_kouhyou_detail_004_kani=true&JigyosyoCd=1670103256-00&ServiceCd=780&Type=search" }, "geometry": { "type": "Point", "coordinates": [ 137.219907599999942, 36.676591 ] } },
{ "type": "Feature", "properties": { "内容": "株式会社　ケア・ワールド【地域密着型通所介護】富山県富山市布瀬町南2丁目9番地２", "url2": "https://www.kaigokensaku.mhlw.go.jp/16/index.php?action_kouhyou_detail_004_kani=true&JigyosyoCd=1670111630-00&ServiceCd=780&Type=search" }, "geometry": { "type": "Point", "coordinates": [ 137.202157220237751, 36.674553257175809 ] } },
{ "type": "Feature", "properties": { "内容": "さくらデイサービス石坂【地域密着型通所介護】富山県富山市石坂3322-1", "url2": "https://www.kaigokensaku.mhlw.go.jp/16/index.php?action_kouhyou_detail_004_kani=true&JigyosyoCd=1690101264-00&ServiceCd=780&Type=search" }, "geometry": { "type": "Point", "coordinates": [ 137.200286131109635, 36.717127964115811 ] } },
{ "type": "Feature", "properties": { "内容": "デイサービスきたえるーむ富山奥田【地域密着型通所介護】富山県富山市下新本町3番17号", "url2": "https://www.kaigokensaku.mhlw.go.jp/16/index.php?action_kouhyou_detail_004_kani=true&JigyosyoCd=1690101447-00&ServiceCd=780&Type=search" }, "geometry": { "type": "Point", "coordinates": [ 137.219321, 36.7160143 ] } },
{ "type": "Feature", "properties": { "内容": "けあさぽーと・まき　わごう【地域密着型通所介護】富山県富山市金山新東13-3", "url2": "https://www.kaigokensaku.mhlw.go.jp/16/index.php?action_kouhyou_detail_004_kani=true&JigyosyoCd=1690101348-00&ServiceCd=780&Type=search" }, "geometry": { "type": "Point", "coordinates": [ 137.2115622, 36.7426874 ] } },
{ "type": "Feature", "properties": { "内容": "フィットリハアピア【地域密着型通所介護】富山県富山市稲荷元町2-11-1", "url2": "https://www.kaigokensaku.mhlw.go.jp/16/index.php?action_kouhyou_detail_004_kani=true&JigyosyoCd=1670111663-00&ServiceCd=780&Type=search" }, "geometry": { "type": "Point", "coordinates": [ 137.23009449999995, 36.6967549 ] } },
{ "type": "Feature", "properties": { "内容": "ライフ・ハウスかりゆし【地域密着型通所介護】富山県富山市婦中町中名903-33", "url2": "https://www.kaigokensaku.mhlw.go.jp/16/index.php?action_kouhyou_detail_004_kani=true&JigyosyoCd=1671800363-00&ServiceCd=780&Type=search" }, "geometry": { "type": "Point", "coordinates": [ 137.166903100000013, 36.6444018 ] } },
{ "type": "Feature", "properties": { "内容": "デイサービスめぐみ【地域密着型通所介護】富山県富山市婦中町速星609番地1", "url2": "https://www.kaigokensaku.mhlw.go.jp/16/index.php?action_kouhyou_detail_004_kani=true&JigyosyoCd=1670104056-00&ServiceCd=780&Type=search" }, "geometry": { "type": "Point", "coordinates": [ 137.160370100000023, 36.6625078 ] } },
{ "type": "Feature", "properties": { "内容": "かぶしきがいしゃとやまのたいよう【地域密着型通所介護】富山県富山市上野902", "url2": "https://www.kaigokensaku.mhlw.go.jp/16/index.php?action_kouhyou_detail_004_kani=true&JigyosyoCd=1670104528-00&ServiceCd=780&Type=search" }, "geometry": { "type": "Point", "coordinates": [ 137.218731299999945, 36.6365543 ] } },
{ "type": "Feature", "properties": { "内容": "デイサービス＆フィットネスRE-SH【地域密着型通所介護】富山県富山市稲荷元町2-6-15開草ビル1F", "url2": "https://www.kaigokensaku.mhlw.go.jp/16/index.php?action_kouhyou_detail_004_kani=true&JigyosyoCd=1670113586-00&ServiceCd=780&Type=search" }, "geometry": { "type": "Point", "coordinates": [ 137.227935800000068, 36.696724700000019 ] } },
{ "type": "Feature", "properties": { "内容": "月岡デイサービスセンター　むつみの里【地域密着型通所介護】富山県富山市月岡町二丁目１８９番地", "url2": "https://www.kaigokensaku.mhlw.go.jp/16/index.php?action_kouhyou_detail_004_kani=true&JigyosyoCd=1670104601-00&ServiceCd=780&Type=search" }, "geometry": { "type": "Point", "coordinates": [ 137.264052600000014, 36.6244531 ] } },
{ "type": "Feature", "properties": { "内容": "ナーシングデイサービスこもれび【地域密着型通所介護】富山県富山市布市650番3ナーシングデイサービスこもれび", "url2": "https://www.kaigokensaku.mhlw.go.jp/16/index.php?action_kouhyou_detail_004_kani=true&JigyosyoCd=1690100985-00&ServiceCd=780&Type=search" }, "geometry": { "type": "Point", "coordinates": [ 137.236358200381574, 36.642827173366712 ] } },
{ "type": "Feature", "properties": { "内容": "彩りの郷【地域密着型通所介護】山室荒屋15－281", "url2": "https://www.kaigokensaku.mhlw.go.jp/16/index.php?action_kouhyou_detail_004_kani=true&JigyosyoCd=1690101355-00&ServiceCd=780&Type=search" }, "geometry": { "type": "Point", "coordinates": [ 137.255949699999974, 36.6737556 ] } },
{ "type": "Feature", "properties": { "内容": "Coco楽笑デイサービス【地域密着型通所介護】富山県富山市蓮町４丁目6-3Coco楽笑", "url2": "https://www.kaigokensaku.mhlw.go.jp/16/index.php?action_kouhyou_detail_004_kani=true&JigyosyoCd=1690101579-00&ServiceCd=780&Type=search" }, "geometry": { "type": "Point", "coordinates": [ 137.2314585, 36.7412944 ] } },
{ "type": "Feature", "properties": { "内容": "デイサービス愛の家【地域密着型通所介護】開発181", "url2": "https://www.kaigokensaku.mhlw.go.jp/16/index.php?action_kouhyou_detail_004_kani=true&JigyosyoCd=1690101439-00&ServiceCd=780&Type=search" }, "geometry": { "type": "Point", "coordinates": [ 137.24741, 36.630594 ] } },
{ "type": "Feature", "properties": { "内容": "山田デイサービスセンター福楽【地域密着型通所介護】富山県富山市山田沼又８８", "url2": "https://www.kaigokensaku.mhlw.go.jp/16/index.php?action_kouhyou_detail_004_kani=true&JigyosyoCd=1670112315-00&ServiceCd=780&Type=search" }, "geometry": { "type": "Point", "coordinates": [ 137.067931899999962, 36.5998531 ] } },
{ "type": "Feature", "properties": { "内容": "デイサービス　ＡＰサロン【地域密着型通所介護】富山県富山市上袋100番地68", "url2": "https://www.kaigokensaku.mhlw.go.jp/16/index.php?action_kouhyou_detail_004_kani=true&JigyosyoCd=1690101488-00&ServiceCd=780&Type=search" }, "geometry": { "type": "Point", "coordinates": [ 137.2116957, 36.6607657 ] } },
{ "type": "Feature", "properties": { "内容": "樹楽婦中【地域密着型通所介護】富山県富山市婦中町分田６２", "url2": "https://www.kaigokensaku.mhlw.go.jp/16/index.php?action_kouhyou_detail_004_kani=true&JigyosyoCd=1690101421-00&ServiceCd=780&Type=search" }, "geometry": { "type": "Point", "coordinates": [ 137.180709400000012, 36.6734493 ] } },
{ "type": "Feature", "properties": { "内容": "デイサービス　ひとと樹【地域密着型通所介護】富山県富山市町村69-1", "url2": "https://www.kaigokensaku.mhlw.go.jp/16/index.php?action_kouhyou_detail_004_kani=true&JigyosyoCd=1690101231-00&ServiceCd=780&Type=search" }, "geometry": { "type": "Point", "coordinates": [ 137.2522105, 36.6836165 ] } },
{ "type": "Feature", "properties": { "内容": "デイケアハウスにぎやか【地域密着型通所介護】富山県富山市綾田町一丁目１０番１８号", "url2": "https://www.kaigokensaku.mhlw.go.jp/16/index.php?action_kouhyou_detail_004_kani=true&JigyosyoCd=1670102241-00&ServiceCd=780&Type=search" }, "geometry": { "type": "Point", "coordinates": [ 137.235141099999964, 36.7021515 ] } },
{ "type": "Feature", "properties": { "内容": "ホクサン上轡田デイサービス【地域密着型通所介護】富山県富山市婦中町上轡田806番地1", "url2": "https://www.kaigokensaku.mhlw.go.jp/16/index.php?action_kouhyou_detail_004_kani=true&JigyosyoCd=1690101512-00&ServiceCd=780&Type=search" }, "geometry": { "type": "Point", "coordinates": [ 137.1755154, 36.6590838 ] } },
{ "type": "Feature", "properties": { "内容": "ハクジュサロン大泉【地域密着型通所介護】富山県富山市西大泉１７番１８号", "url2": "https://www.kaigokensaku.mhlw.go.jp/16/index.php?action_kouhyou_detail_004_kani=true&JigyosyoCd=1690101686-00&ServiceCd=780&Type=search" }, "geometry": { "type": "Point", "coordinates": [ 137.2244445, 36.6788823 ] } },
{ "type": "Feature", "properties": { "内容": "デイサービスいずみ【地域密着型通所介護】富山県富山市西大泉2-2", "url2": "https://www.kaigokensaku.mhlw.go.jp/16/index.php?action_kouhyou_detail_004_kani=true&JigyosyoCd=1670112208-00&ServiceCd=780&Type=search" }, "geometry": { "type": "Point", "coordinates": [ 137.2235819, 36.6813543 ] } },
{ "type": "Feature", "properties": { "内容": "デイサービスセンターまる～な【地域密着型通所介護】富山市開発223", "url2": "https://www.kaigokensaku.mhlw.go.jp/16/index.php?action_kouhyou_detail_004_kani=true&JigyosyoCd=1670101631-00&ServiceCd=780&Type=search" }, "geometry": { "type": "Point", "coordinates": [ 137.247120600000017, 36.6288803 ] } },
{ "type": "Feature", "properties": { "内容": "とやま生協　ゆとり～な【地域密着型通所介護】富山県富山市中間島2-27-6", "url2": "https://www.kaigokensaku.mhlw.go.jp/16/index.php?action_kouhyou_detail_004_kani=true&JigyosyoCd=1670102464-00&ServiceCd=780&Type=search" }, "geometry": { "type": "Point", "coordinates": [ 137.265775500000018, 36.6893567 ] } },
{ "type": "Feature", "properties": { "内容": "リハ楽とやま【地域密着型通所介護】富山県富山市奥田町８－２６コーポ内田１階", "url2": "https://www.kaigokensaku.mhlw.go.jp/16/index.php?action_kouhyou_detail_004_kani=true&JigyosyoCd=1670112406-00&ServiceCd=780&Type=search" }, "geometry": { "type": "Point", "coordinates": [ 137.21895870000003, 36.7122276 ] } },
{ "type": "Feature", "properties": { "内容": "孫の手デイサービス【地域密着型通所介護】四ツ葉町19-3", "url2": "https://www.kaigokensaku.mhlw.go.jp/16/index.php?action_kouhyou_detail_004_kani=true&JigyosyoCd=1670113248-00&ServiceCd=780&Type=search" }, "geometry": { "type": "Point", "coordinates": [ 137.225705400000038, 36.7061424 ] } },
{ "type": "Feature", "properties": { "内容": "デイサービスみんなの輪　おおみや【地域密着型通所介護】富山県富山市大宮町24番地", "url2": "https://www.kaigokensaku.mhlw.go.jp/16/index.php?action_kouhyou_detail_004_kani=true&JigyosyoCd=1670104957-00&ServiceCd=780&Type=search" }, "geometry": { "type": "Point", "coordinates": [ 137.247397399999954, 36.6604654 ] } },
{ "type": "Feature", "properties": { "内容": "ヒューマンサポート日和【地域密着型通所介護】八尾町杉田744番地1", "url2": "https://www.kaigokensaku.mhlw.go.jp/16/index.php?action_kouhyou_detail_004_kani=true&JigyosyoCd=1670112059-00&ServiceCd=780&Type=search" }, "geometry": { "type": "Point", "coordinates": [ 137.165678599999978, 36.6121501 ] } },
{ "type": "Feature", "properties": { "内容": "リハビリ倶楽部【地域密着型通所介護】富山県富山市婦中町速星593番地", "url2": "https://www.kaigokensaku.mhlw.go.jp/16/index.php?action_kouhyou_detail_004_kani=true&JigyosyoCd=1670113032-00&ServiceCd=780&Type=search" }, "geometry": { "type": "Point", "coordinates": [ 137.16067, 36.6633327 ] } },
{ "type": "Feature", "properties": { "内容": "デイサービスみんなの輪　高屋敷【地域密着型通所介護】高屋敷142-5", "url2": "https://www.kaigokensaku.mhlw.go.jp/16/index.php?action_kouhyou_detail_004_kani=true&JigyosyoCd=1670111903-00&ServiceCd=780&Type=search" }, "geometry": { "type": "Point", "coordinates": [ 137.245383400000037, 36.666598 ] } },
{ "type": "Feature", "properties": { "内容": "株式会社ウイズU【地域密着型通所介護】富山県富山市桜谷みどり町1-33", "url2": "https://www.kaigokensaku.mhlw.go.jp/16/index.php?action_kouhyou_detail_004_kani=true&JigyosyoCd=1670112950-00&ServiceCd=780&Type=search" }, "geometry": { "type": "Point", "coordinates": [ 137.1971939, 36.7102948 ] } },
{ "type": "Feature", "properties": { "内容": "デイサービス・カルム【地域密着型通所介護】寺町９番１", "url2": "https://www.kaigokensaku.mhlw.go.jp/16/index.php?action_kouhyou_detail_004_kani=true&JigyosyoCd=1670113164-00&ServiceCd=780&Type=search" }, "geometry": { "type": "Point", "coordinates": [ 137.17091494144023, 36.693883132468926 ] } },
{ "type": "Feature", "properties": { "内容": "デイサービス森さんぽ【地域密着型通所介護】富山県富山市館出町2丁目４－４シニアレジデンスビルト１Ｆ", "url2": "https://www.kaigokensaku.mhlw.go.jp/16/index.php?action_kouhyou_detail_004_kani=true&JigyosyoCd=1670113222-00&ServiceCd=780&Type=search" }, "geometry": { "type": "Point", "coordinates": [ 137.232641699999931, 36.694472 ] } },
{ "type": "Feature", "properties": { "内容": "デイサービス笑美寿北【地域密着型通所介護】富山県富山市西宮町7-63", "url2": "https://www.kaigokensaku.mhlw.go.jp/16/index.php?action_kouhyou_detail_004_kani=true&JigyosyoCd=1670112927-00&ServiceCd=780&Type=search" }, "geometry": { "type": "Point", "coordinates": [ 137.22819329999993, 36.748548900000017 ] } },
{ "type": "Feature", "properties": { "内容": "ありがとうホーム西田地方【地域密着型通所介護】富山県長柄町3-6-6", "url2": "https://www.kaigokensaku.mhlw.go.jp/16/index.php?action_kouhyou_detail_004_kani=true&JigyosyoCd=1670112398-00&ServiceCd=780&Type=search" }, "geometry": { "type": "Point", "coordinates": [ 137.205114900000012, 36.6852077 ] } },
{ "type": "Feature", "properties": { "内容": "デイサービスきりん【地域密着型通所介護】富山県富山市中川原　105-4", "url2": "https://www.kaigokensaku.mhlw.go.jp/16/index.php?action_kouhyou_detail_004_kani=true&JigyosyoCd=1670113008-00&ServiceCd=780&Type=search" }, "geometry": { "type": "Point", "coordinates": [ 137.244191600000022, 36.6756858 ] } },
{ "type": "Feature", "properties": { "内容": "富山型デイサービス　くわの里【地域密着型通所介護】富山県富山市桑原６２番地", "url2": "https://www.kaigokensaku.mhlw.go.jp/16/index.php?action_kouhyou_detail_004_kani=true&JigyosyoCd=1670112794-00&ServiceCd=780&Type=search" }, "geometry": { "type": "Point", "coordinates": [ 137.263447300000053, 36.6158708 ] } },
{ "type": "Feature", "properties": { "内容": "茶話本舗デイサービス新屋【地域密着型通所介護】富山県富山市新屋6-2", "url2": "https://www.kaigokensaku.mhlw.go.jp/16/index.php?action_kouhyou_detail_004_kani=true&JigyosyoCd=1670113537-00&ServiceCd=780&Type=search" }, "geometry": { "type": "Point", "coordinates": [ 137.249667500000015, 36.71851140032868 ] } },
{ "type": "Feature", "properties": { "内容": "リハビリデイサービス　りおん【地域密着型通所介護】富山県富山市神通本町1-5-13横江ビル1階", "url2": "https://www.kaigokensaku.mhlw.go.jp/16/index.php?action_kouhyou_detail_004_kani=true&JigyosyoCd=1670113339-00&ServiceCd=780&Type=search" }, "geometry": { "type": "Point", "coordinates": [ 137.208416199999988, 36.7016064 ] } },
{ "type": "Feature", "properties": { "内容": "堀川南光風苑【地域密着型通所介護】富山市本郷町262-14", "url2": "https://www.kaigokensaku.mhlw.go.jp/16/index.php?action_kouhyou_detail_004_kani=true&JigyosyoCd=1670111804-00&ServiceCd=780&Type=search" }, "geometry": { "type": "Point", "coordinates": [ 137.232901399999946, 36.6630429 ] } },
{ "type": "Feature", "properties": { "内容": "みずほサポートセンター【地域密着型通所介護】富山県富山市婦中町上吉川１３２番地１", "url2": "https://www.kaigokensaku.mhlw.go.jp/16/index.php?action_kouhyou_detail_004_kani=true&JigyosyoCd=1670112372-00&ServiceCd=780&Type=search" }, "geometry": { "type": "Point", "coordinates": [ 137.136436799999956, 36.6414434 ] } },
{ "type": "Feature", "properties": { "内容": "でいさーびすさいさい【地域密着型通所介護】富山県富山市金屋2332", "url2": "https://www.kaigokensaku.mhlw.go.jp/16/index.php?action_kouhyou_detail_004_kani=true&JigyosyoCd=1670102472-00&ServiceCd=780&Type=search" }, "geometry": { "type": "Point", "coordinates": [ 137.1670385, 36.6914793 ] } },
{ "type": "Feature", "properties": { "内容": "デイサービス　このゆびとーまれ【地域密着型通所介護】富山県富山市富岡町３５５番地", "url2": "https://www.kaigokensaku.mhlw.go.jp/16/index.php?action_kouhyou_detail_004_kani=true&JigyosyoCd=1670100351-00&ServiceCd=780&Type=search" }, "geometry": { "type": "Point", "coordinates": [ 137.262292300000013, 36.6945865 ] } },
{ "type": "Feature", "properties": { "内容": "デイサービスありがた家【地域密着型通所介護】富山県富山市八尾町福島三丁目７９", "url2": "https://www.kaigokensaku.mhlw.go.jp/16/index.php?action_kouhyou_detail_004_kani=true&JigyosyoCd=1670103934-00&ServiceCd=780&Type=search" }, "geometry": { "type": "Point", "coordinates": [ 137.142622699999947, 36.5909829 ] } },
{ "type": "Feature", "properties": { "内容": "ありみね【地域密着型通所介護】富山県富山市亀谷３５０－１３", "url2": "https://www.kaigokensaku.mhlw.go.jp/16/index.php?action_kouhyou_detail_004_kani=true&JigyosyoCd=1670104106-00&ServiceCd=780&Type=search" }, "geometry": { "type": "Point", "coordinates": [ 137.390838900000062, 36.5656844 ] } },
{ "type": "Feature", "properties": { "内容": "デイサービスしおんの家【地域密着型通所介護】富山県富山市水橋辻ヶ堂777", "url2": "https://www.kaigokensaku.mhlw.go.jp/16/index.php?action_kouhyou_detail_004_kani=true&JigyosyoCd=1670100369-00&ServiceCd=780&Type=search" }, "geometry": { "type": "Point", "coordinates": [ 137.29544850000002, 36.7539781 ] } },
{ "type": "Feature", "properties": { "内容": "ふるさとのあかり八町【地域密着型通所介護】富山県富山市八町２０３７番地２", "url2": "https://www.kaigokensaku.mhlw.go.jp/16/index.php?action_kouhyou_detail_004_kani=true&JigyosyoCd=1670104510-00&ServiceCd=780&Type=search" }, "geometry": { "type": "Point", "coordinates": [ 137.1832326, 36.736993 ] } },
{ "type": "Feature", "properties": { "内容": "デイサービス川の音【地域密着型通所介護】富山県富山市婦中町外輪野151番地", "url2": "https://www.kaigokensaku.mhlw.go.jp/16/index.php?action_kouhyou_detail_004_kani=true&JigyosyoCd=1670113479-00&ServiceCd=780&Type=search" }, "geometry": { "type": "Point", "coordinates": [ 137.088228800000024, 36.6226059 ] } },
{ "type": "Feature", "properties": { "内容": "デイサービス　このゆびとーまれ茶屋【地域密着型通所介護】富山市茶屋町441番地3", "url2": "https://www.kaigokensaku.mhlw.go.jp/16/index.php?action_kouhyou_detail_004_kani=true&JigyosyoCd=1670102779-00&ServiceCd=780&Type=search" }, "geometry": { "type": "Point", "coordinates": [ 137.178834100000017, 36.7065023 ] } },
{ "type": "Feature", "properties": { "内容": "デイサービスしあわせ【地域密着型通所介護】富山県富山市堀川町8番地", "url2": "https://www.kaigokensaku.mhlw.go.jp/16/index.php?action_kouhyou_detail_004_kani=true&JigyosyoCd=1670104791-00&ServiceCd=780&Type=search" }, "geometry": { "type": "Point", "coordinates": [ 137.224284, 36.6598506 ] } },
{ "type": "Feature", "properties": { "内容": "機能訓練対応型デイサービス　蛍和【地域密着型通所介護】富山県富山市婦中町蛍川９５－２９", "url2": "https://www.kaigokensaku.mhlw.go.jp/16/index.php?action_kouhyou_detail_004_kani=true&JigyosyoCd=1670112547-00&ServiceCd=780&Type=search" }, "geometry": { "type": "Point", "coordinates": [ 137.166961571827642, 36.649655219154965 ] } },
{ "type": "Feature", "properties": { "内容": "ちゅらさんデイサービスセンター【地域密着型通所介護】富山県富山市上袋712", "url2": "https://www.kaigokensaku.mhlw.go.jp/16/index.php?action_kouhyou_detail_004_kani=true&JigyosyoCd=1670102860-00&ServiceCd=780&Type=search" }, "geometry": { "type": "Point", "coordinates": [ 137.207865199999986, 36.6610149 ] } },
{ "type": "Feature", "properties": { "内容": "デイサービス　まめの木【地域密着型通所介護】富山県富山市町袋１２８－１", "url2": "https://www.kaigokensaku.mhlw.go.jp/16/index.php?action_kouhyou_detail_004_kani=true&JigyosyoCd=1670102415-00&ServiceCd=780&Type=search" }, "geometry": { "type": "Point", "coordinates": [ 137.281700499999943, 36.7339213 ] } },
{ "type": "Feature", "properties": { "内容": "ケアサポート・まき　北代【地域密着型通所介護】富山市北代4331-4", "url2": "https://www.kaigokensaku.mhlw.go.jp/16/index.php?action_kouhyou_detail_004_kani=true&JigyosyoCd=1670112455-00&ServiceCd=780&Type=search" }, "geometry": { "type": "Point", "coordinates": [ 137.181066735856774, 36.713382605416257 ] } },
{ "type": "Feature", "properties": { "内容": "デイサービス　ゆずり葉【地域密着型通所介護】中市２丁目８番４１号", "url2": "https://www.kaigokensaku.mhlw.go.jp/16/index.php?action_kouhyou_detail_004_kani=true&JigyosyoCd=1670112562-00&ServiceCd=780&Type=search" }, "geometry": { "type": "Point", "coordinates": [ 137.238030900000012, 36.678252 ] } },
{ "type": "Feature", "properties": { "内容": "デイサービスセンター喜文【地域密着型通所介護】富山市大泉町一丁目２番１３号", "url2": "https://www.kaigokensaku.mhlw.go.jp/16/index.php?action_kouhyou_detail_004_kani=true&JigyosyoCd=1670103371-00&ServiceCd=780&Type=search" }, "geometry": { "type": "Point", "coordinates": [ 137.221943199999941, 36.6822569 ] } },
{ "type": "Feature", "properties": { "内容": "アイクリエーション株式会社【地域密着型通所介護】富山県富山市上冨居三丁目１２番３４号", "url2": "https://www.kaigokensaku.mhlw.go.jp/16/index.php?action_kouhyou_detail_004_kani=true&JigyosyoCd=1690101520-00&ServiceCd=780&Type=search" }, "geometry": { "type": "Point", "coordinates": [ 137.2435199, 36.7062919 ] } },
{ "type": "Feature", "properties": { "内容": "オークスリハプライド下冨居【地域密着型通所介護】下冨居1-10-35同上", "url2": "https://www.kaigokensaku.mhlw.go.jp/16/index.php?action_kouhyou_detail_004_kani=true&JigyosyoCd=1690101124-00&ServiceCd=780&Type=search" }, "geometry": { "type": "Point", "coordinates": [ 137.23881, 36.721585 ] } },
{ "type": "Feature", "properties": { "内容": "オークスリハプライド荏原【地域密着型通所介護】富山県富山市向新庄214", "url2": "https://www.kaigokensaku.mhlw.go.jp/16/index.php?action_kouhyou_detail_004_kani=true&JigyosyoCd=1690101314-00&ServiceCd=780&Type=search" }, "geometry": { "type": "Point", "coordinates": [ 137.265942200000012, 36.6961511 ] } },
{ "type": "Feature", "properties": { "内容": "フィットデイ筋たろう【地域密着型通所介護】富山県富山市北新町二丁目1番14号", "url2": "https://www.kaigokensaku.mhlw.go.jp/16/index.php?action_kouhyou_detail_004_kani=true&JigyosyoCd=1690101256-00&ServiceCd=780&Type=search" }, "geometry": { "type": "Point", "coordinates": [ 137.220246800000012, 36.6928051 ] } },
{ "type": "Feature", "properties": { "内容": "デイサービスあんじゅ【地域密着型通所介護】富山県富山市大島2丁目596－19", "url2": "https://www.kaigokensaku.mhlw.go.jp/16/index.php?action_kouhyou_detail_004_kani=true&JigyosyoCd=1690101587-00&ServiceCd=780&Type=search" }, "geometry": { "type": "Point", "coordinates": [ 137.2733287, 36.6725886 ] } },
{ "type": "Feature", "properties": { "内容": "デイサービスふうりん【地域密着型通所介護】富山県富山市下堀５１番１号", "url2": "https://www.kaigokensaku.mhlw.go.jp/16/index.php?action_kouhyou_detail_004_kani=true&JigyosyoCd=1690101363-00&ServiceCd=780&Type=search" }, "geometry": { "type": "Point", "coordinates": [ 137.226285200342971, 36.66123456758347 ] } },
{ "type": "Feature", "properties": { "内容": "株式会社TDS絆【地域密着型通所介護】富山県富山市太田145番地1デイサービスセンターそくさい家", "url2": "https://www.kaigokensaku.mhlw.go.jp/16/index.php?action_kouhyou_detail_004_kani=true&JigyosyoCd=1690100860-00&ServiceCd=780&Type=search" }, "geometry": { "type": "Point", "coordinates": [ 137.247355800000037, 36.6575547 ] } },
{ "type": "Feature", "properties": { "内容": "デイサービスふれあいの里ひろた【地域密着型通所介護】富山県富山市鍋田17-50", "url2": "https://www.kaigokensaku.mhlw.go.jp/16/index.php?action_kouhyou_detail_004_kani=true&JigyosyoCd=1690101298-00&ServiceCd=780&Type=search" }, "geometry": { "type": "Point", "coordinates": [ 137.244969081614698, 36.714531401979677 ] } },
{ "type": "Feature", "properties": { "内容": "入浴特化型デイサービス　ほっと・湯～【地域密着型通所介護】富山県富山市粟島1丁目6番11号", "url2": "https://www.kaigokensaku.mhlw.go.jp/16/index.php?action_kouhyou_detail_004_kani=true&JigyosyoCd=1690101082-00&ServiceCd=780&Type=search" }, "geometry": { "type": "Point", "coordinates": [ 137.229062563229377, 36.724105585273769 ] } },
{ "type": "Feature", "properties": { "内容": "ビルトアップ【地域密着型通所介護】富山市館出町２丁目１－２", "url2": "https://www.kaigokensaku.mhlw.go.jp/16/index.php?action_kouhyou_detail_004_kani=true&JigyosyoCd=1690101108-00&ServiceCd=780&Type=search" }, "geometry": { "type": "Point", "coordinates": [ 137.230525539286873, 36.693756988735565 ] } },
{ "type": "Feature", "properties": { "内容": "マキシ　和合【地域密着型通所介護】金山新東13-3", "url2": "https://www.kaigokensaku.mhlw.go.jp/16/index.php?action_kouhyou_detail_004_kani=true&JigyosyoCd=1690101504-00&ServiceCd=780&Type=search" }, "geometry": { "type": "Point", "coordinates": [ 137.2115747, 36.7426837 ] } },
{ "type": "Feature", "properties": { "内容": "ＭＡＸ２１【地域密着型通所介護】富山県富山市千石町２－８－２コスモビル１階", "url2": "https://www.kaigokensaku.mhlw.go.jp/16/index.php?action_kouhyou_detail_004_kani=true&JigyosyoCd=1690101074-00&ServiceCd=780&Type=search" }, "geometry": { "type": "Point", "coordinates": [ 137.208900200000016, 36.6865281 ] } },
{ "type": "Feature", "properties": { "内容": "太陽苑デイサービスセンター【地域密着型通所介護】富山県富山市新村８７番地２", "url2": "https://www.kaigokensaku.mhlw.go.jp/16/index.php?action_kouhyou_detail_004_kani=true&JigyosyoCd=1671500120-00&ServiceCd=780&Type=search" }, "geometry": { "type": "Point", "coordinates": [ 137.2148738, 36.6179227 ] } },
{ "type": "Feature", "properties": { "内容": "デイサービス花みずき弐番館【地域密着型通所介護】富山県富山市曙町2番23号", "url2": "https://www.kaigokensaku.mhlw.go.jp/16/index.php?action_kouhyou_detail_004_kani=true&JigyosyoCd=1690101538-00&ServiceCd=780&Type=search" }, "geometry": { "type": "Point", "coordinates": [ 137.225467, 36.6998543 ] } },
{ "type": "Feature", "properties": { "内容": "デイサービスふくふく【地域密着型通所介護】富山県富山市月岡町4丁目171-1", "url2": "https://www.kaigokensaku.mhlw.go.jp/16/index.php?action_kouhyou_detail_004_kani=true&JigyosyoCd=1690101397-00&ServiceCd=780&Type=search" }, "geometry": { "type": "Point", "coordinates": [ 137.254674599999987, 36.624195420564497 ] } },
{ "type": "Feature", "properties": { "内容": "デイサービス蒼の舎【地域密着型通所介護】富山県富山市高畠町二丁目12番地41", "url2": "https://www.kaigokensaku.mhlw.go.jp/16/index.php?action_kouhyou_detail_004_kani=true&JigyosyoCd=1690101454-00&ServiceCd=780&Type=search" }, "geometry": { "type": "Point", "coordinates": [ 137.2307562, 36.7463426 ] } },
{ "type": "Feature", "properties": { "内容": "北陸メディカルサービス株式会社デイサービスふわり【地域密着型通所介護】富山市八尾町福島字牧野１０１番地１", "url2": "https://www.kaigokensaku.mhlw.go.jp/16/index.php?action_kouhyou_detail_004_kani=true&JigyosyoCd=1690101561-00&ServiceCd=780&Type=search" }, "geometry": { "type": "Point", "coordinates": [ 137.134198661376928, 36.580401068923457 ] } },
{ "type": "Feature", "properties": { "内容": "ケアサポート・まき　速星【地域密着型通所介護】富山県富山市婦中町笹倉133-1", "url2": "https://www.kaigokensaku.mhlw.go.jp/16/index.php?action_kouhyou_detail_004_kani=true&JigyosyoCd=1690101405-00&ServiceCd=780&Type=search" }, "geometry": { "type": "Point", "coordinates": [ 137.153123099999988, 36.6595656 ] } },
{ "type": "Feature", "properties": { "内容": "まっする工房【地域密着型通所介護】富山市上野799-1", "url2": "https://www.kaigokensaku.mhlw.go.jp/16/index.php?action_kouhyou_detail_004_kani=true&JigyosyoCd=1690101470-00&ServiceCd=780&Type=search" }, "geometry": { "type": "Point", "coordinates": [ 137.2185876, 36.6390954 ] } },
{ "type": "Feature", "properties": { "内容": "療養通所介護フローレンスジョジョ【地域密着型通所介護】富山市藤木1542-1スマイル・ジョジョ", "url2": "https://www.kaigokensaku.mhlw.go.jp/16/index.php?action_kouhyou_detail_004_kani=true&JigyosyoCd=1690101058-00&ServiceCd=780&Type=search" }, "geometry": { "type": "Point", "coordinates": [ 137.271251678466797, 36.686509875149696 ] } },
{ "type": "Feature", "properties": { "内容": "機能訓練型デイサービス野の花【地域密着型通所介護】富山県富山市西四十物町3番18号", "url2": "https://www.kaigokensaku.mhlw.go.jp/16/index.php?action_kouhyou_detail_004_kani=true&JigyosyoCd=1690101694-00&ServiceCd=780&Type=search" }, "geometry": { "type": "Point", "coordinates": [ 137.2091489, 36.6885866 ] } },
{ "type": "Feature", "properties": { "内容": "デイサービスAPサロン【地域密着型通所介護】富山県富山市上袋100－68", "url2": "https://www.kaigokensaku.mhlw.go.jp/16/index.php?action_kouhyou_detail_004_kani=true&JigyosyoCd=1690101728-00&ServiceCd=780&Type=search" }, "geometry": { "type": "Point", "coordinates": [ 137.2109977, 36.6607703 ] } },
{ "type": "Feature", "properties": { "内容": "キッチンスタジオ1・2の3【地域密着型通所介護】中川原384", "url2": "https://www.kaigokensaku.mhlw.go.jp/16/index.php?action_kouhyou_detail_004_kani=true&JigyosyoCd=1690101736-00&ServiceCd=780&Type=search" }, "geometry": { "type": "Point", "coordinates": [ 137.246307571827685, 36.675079112271689 ] } },
{ "type": "Feature", "properties": { "内容": "富山地域福祉事業所デイサービスぽぴー【地域密着型通所介護】富山県富山市寺町けや木台71番地ハイツ欅", "url2": "https://www.kaigokensaku.mhlw.go.jp/16/index.php?action_kouhyou_detail_004_kani=true&JigyosyoCd=1670102001-00&ServiceCd=780&Type=search" }, "geometry": { "type": "Point", "coordinates": [ 137.1751875, 36.6987367 ] } },
{ "type": "Feature", "properties": { "内容": "機能訓練型デイサービス　よっこいしょ【地域密着型通所介護】富山県海岸通１－３４", "url2": "https://www.kaigokensaku.mhlw.go.jp/16/index.php?action_kouhyou_detail_004_kani=true&JigyosyoCd=1670113354-00&ServiceCd=780&Type=search" }, "geometry": { "type": "Point", "coordinates": [ 137.250872500000014, 36.7572465 ] } },
{ "type": "Feature", "properties": { "内容": "針原デイサービス【地域密着型通所介護】針原中町355", "url2": "https://www.kaigokensaku.mhlw.go.jp/16/index.php?action_kouhyou_detail_004_kani=true&JigyosyoCd=1670102217-00&ServiceCd=780&Type=search" }, "geometry": { "type": "Point", "coordinates": [ 137.2642495, 36.724508 ] } },
{ "type": "Feature", "properties": { "内容": "デイサービス有沢誠【地域密着型通所介護】富山県富山市有沢　795-1", "url2": "https://www.kaigokensaku.mhlw.go.jp/16/index.php?action_kouhyou_detail_004_kani=true&JigyosyoCd=1690100878-00&ServiceCd=780&Type=search" }, "geometry": { "type": "Point", "coordinates": [ 137.187923565965974, 36.681899146032151 ] } },
{ "type": "Feature", "properties": { "内容": "デイケアセンター　B3-care【地域密着型通所介護】辰巳町2-6-2", "url2": "https://www.kaigokensaku.mhlw.go.jp/16/index.php?action_kouhyou_detail_004_kani=true&JigyosyoCd=1690101033-00&ServiceCd=780&Type=search" }, "geometry": { "type": "Point", "coordinates": [ 137.221636530247224, 36.685411185965002 ] } },
{ "type": "Feature", "properties": { "内容": "誠やﾃﾞｲｻｰﾋﾞｽ【地域密着型通所介護】横内　581", "url2": "https://www.kaigokensaku.mhlw.go.jp/16/index.php?action_kouhyou_detail_004_kani=true&JigyosyoCd=1670104973-00&ServiceCd=780&Type=search" }, "geometry": { "type": "Point", "coordinates": [ 137.257807899999989, 36.6664006 ] } },
{ "type": "Feature", "properties": { "内容": "樹楽向新庄【地域密着型通所介護】富山県富山市向新庄町一丁目５番３０号", "url2": "https://www.kaigokensaku.mhlw.go.jp/16/index.php?action_kouhyou_detail_004_kani=true&JigyosyoCd=1670113685-00&ServiceCd=780&Type=search" }, "geometry": { "type": "Point", "coordinates": [ 137.262211500000035, 36.7022356 ] } },
{ "type": "Feature", "properties": { "内容": "フィットリハふちゅう【地域密着型通所介護】富山県富山市婦中町島本郷10-10フィットリハふちゅう", "url2": "https://www.kaigokensaku.mhlw.go.jp/16/index.php?action_kouhyou_detail_004_kani=true&JigyosyoCd=1670113420-00&ServiceCd=780&Type=search" }, "geometry": { "type": "Point", "coordinates": [ 137.172083815344195, 36.677412506888921 ] } },
{ "type": "Feature", "properties": { "内容": "デイサービス地球の子【地域密着型通所介護】八尾町黒田１２４４", "url2": "https://www.kaigokensaku.mhlw.go.jp/16/index.php?action_kouhyou_detail_004_kani=true&JigyosyoCd=1670112984-00&ServiceCd=780&Type=search" }, "geometry": { "type": "Point", "coordinates": [ 137.152879500000012, 36.602613900000016 ] } },
{ "type": "Feature", "properties": { "内容": "ディサービス婦中道場【地域密着型通所介護】冨山県富山市婦中町道場815", "url2": "https://www.kaigokensaku.mhlw.go.jp/16/index.php?action_kouhyou_detail_004_kani=true&JigyosyoCd=1690101272-00&ServiceCd=780&Type=search" }, "geometry": { "type": "Point", "coordinates": [ 137.164322728518925, 36.642165365091053 ] } },
{ "type": "Feature", "properties": { "内容": "デイサービス　かみだき【地域密着型通所介護】富山県富山市中滝313-7", "url2": "https://www.kaigokensaku.mhlw.go.jp/16/index.php?action_kouhyou_detail_004_kani=true&JigyosyoCd=1670112133-00&ServiceCd=780&Type=search" }, "geometry": { "type": "Point", "coordinates": [ 137.297987799999987, 36.6093155 ] } },
{ "type": "Feature", "properties": { "内容": "向新庄ステーション鈴の音【地域密着型通所介護】富山県富山市向新庄町一丁目7番27号", "url2": "https://www.kaigokensaku.mhlw.go.jp/16/index.php?action_kouhyou_detail_004_kani=true&JigyosyoCd=1690101413-00&ServiceCd=780&Type=search" }, "geometry": { "type": "Point", "coordinates": [ 137.2628872, 36.7023063 ] } },
{ "type": "Feature", "properties": { "内容": "特定非営利活動法人　えがおでねぃ【地域密着型通所介護】富山県富山市吉作1027番地1", "url2": "https://www.kaigokensaku.mhlw.go.jp/16/index.php?action_kouhyou_detail_004_kani=true&JigyosyoCd=1690100894-00&ServiceCd=780&Type=search" }, "geometry": { "type": "Point", "coordinates": [ 137.161516500000062, 36.7086881 ] } },
{ "type": "Feature", "properties": { "内容": "なごなるの家【地域密着型通所介護】富山県富山市山室２９３番地５", "url2": "https://www.kaigokensaku.mhlw.go.jp/16/index.php?action_kouhyou_detail_004_kani=true&JigyosyoCd=1670105038-00&ServiceCd=780&Type=search" }, "geometry": { "type": "Point", "coordinates": [ 137.233137100000022, 36.6745109 ] } },
{ "type": "Feature", "properties": { "内容": "ディサービス　福禄寿【地域密着型通所介護】富山県富山市森１丁目９－６", "url2": "https://www.kaigokensaku.mhlw.go.jp/16/index.php?action_kouhyou_detail_004_kani=true&JigyosyoCd=1690101710-00&ServiceCd=780&Type=search" }, "geometry": { "type": "Point", "coordinates": [ 137.235264199999989, 36.7483454 ] } },
{ "type": "Feature", "properties": { "内容": "リハビリ＆フィットネス　寿リハ婦中【地域密着型通所介護】富山県富山市婦中町島本郷10-10", "url2": "https://www.kaigokensaku.mhlw.go.jp/16/index.php?action_kouhyou_detail_004_kani=true&JigyosyoCd=1690101744-00&ServiceCd=780&Type=search" }, "geometry": { "type": "Point", "coordinates": [ 137.1720664, 36.6780206 ] } },
{ "type": "Feature", "properties": { "内容": "デイサービスセンターゆいゆい【地域密着型通所介護】富山市婦中町中名９０３番地３３", "url2": "https://www.kaigokensaku.mhlw.go.jp/16/index.php?action_kouhyou_detail_004_kani=true&JigyosyoCd=1690101546-00&ServiceCd=780&Type=search" }, "geometry": { "type": "Point", "coordinates": [ 137.166924099999989, 36.6444405 ] } },
{ "type": "Feature", "properties": { "内容": "デイサービス　むつみの里【地域密着型通所介護】富山県富山市月岡町２丁目１８９番地", "url2": "https://www.kaigokensaku.mhlw.go.jp/16/index.php?action_kouhyou_detail_004_kani=true&JigyosyoCd=1690101637-00&ServiceCd=780&Type=search" }, "geometry": { "type": "Point", "coordinates": [ 137.263946, 36.6245458 ] } },
{ "type": "Feature", "properties": { "内容": "とやま型デイサービス大きな手小さな手【地域密着型通所介護】蓮町二丁目９番８号", "url2": "https://www.kaigokensaku.mhlw.go.jp/16/index.php?action_kouhyou_detail_004_kani=true&JigyosyoCd=1670112919-00&ServiceCd=780&Type=search" }, "geometry": { "type": "Point", "coordinates": [ 137.228532200000018, 36.7435994 ] } },
{ "type": "Feature", "properties": { "内容": "デイサービス　ラ・サンテ【地域密着型通所介護】富山県富山市長江新町３丁目９番１８号", "url2": "https://www.kaigokensaku.mhlw.go.jp/16/index.php?action_kouhyou_detail_004_kani=true&JigyosyoCd=1690100928-00&ServiceCd=780&Type=search" }, "geometry": { "type": "Point", "coordinates": [ 137.246551161509842, 36.689556597848231 ] } },
{ "type": "Feature", "properties": { "内容": "デイサービスセンターつながり【地域密着型通所介護】富山県富山市岩瀬天神町２２１", "url2": "https://www.kaigokensaku.mhlw.go.jp/16/index.php?action_kouhyou_detail_004_kani=true&JigyosyoCd=1670112711-00&ServiceCd=780&Type=search" }, "geometry": { "type": "Point", "coordinates": [ 137.233598499999971, 36.7631758 ] } },
{ "type": "Feature", "properties": { "内容": "月岡デイサービスセンターやまゆり【地域密着型通所介護】富山市中布目163", "url2": "https://www.kaigokensaku.mhlw.go.jp/16/index.php?action_kouhyou_detail_004_kani=true&JigyosyoCd=1670103488-00&ServiceCd=780&Type=search" }, "geometry": { "type": "Point", "coordinates": [ 137.251615, 36.6164179 ] } },
{ "type": "Feature", "properties": { "内容": "デイサービスひより鵜坂【地域密着型通所介護】富山市婦中町鵜坂139", "url2": "https://www.kaigokensaku.mhlw.go.jp/16/index.php?action_kouhyou_detail_004_kani=true&JigyosyoCd=1670102043-00&ServiceCd=780&Type=search" }, "geometry": { "type": "Point", "coordinates": [ 137.187433899999974, 36.6756541 ] } },
{ "type": "Feature", "properties": { "内容": "ﾌｧﾐﾘｰｻﾎﾟｰﾄﾊｳｽわか木【地域密着型通所介護】富山県高岡市波岡61-1", "url2": "https://www.kaigokensaku.mhlw.go.jp/16/index.php?action_kouhyou_detail_004_kani=true&JigyosyoCd=1670201142-00&ServiceCd=780&Type=search" }, "geometry": { "type": "Point", "coordinates": [ 136.991601, 36.7545071 ] } },
{ "type": "Feature", "properties": { "内容": "デイケアハウス手をつなごう【地域密着型通所介護】富山県高岡市本丸町１３番１８号", "url2": "https://www.kaigokensaku.mhlw.go.jp/16/index.php?action_kouhyou_detail_004_kani=true&JigyosyoCd=1670201035-00&ServiceCd=780&Type=search" }, "geometry": { "type": "Point", "coordinates": [ 137.021627500000022, 36.752236 ] } },
{ "type": "Feature", "properties": { "内容": "シニアレジデンスかの苑【地域密着型通所介護】富山県高岡市上渡16番地の2シニアレジデンスかの苑", "url2": "https://www.kaigokensaku.mhlw.go.jp/16/index.php?action_kouhyou_detail_004_kani=true&JigyosyoCd=1690200835-00&ServiceCd=780&Type=search" }, "geometry": { "type": "Point", "coordinates": [ 136.959521770391802, 36.728995112574047 ] } },
{ "type": "Feature", "properties": { "内容": "フクシアケアセンター【地域密着型通所介護】富山県高岡市明園町9番12号", "url2": "https://www.kaigokensaku.mhlw.go.jp/16/index.php?action_kouhyou_detail_004_kani=true&JigyosyoCd=1670202215-00&ServiceCd=780&Type=search" }, "geometry": { "type": "Point", "coordinates": [ 137.027837699999964, 36.7423461 ] } },
{ "type": "Feature", "properties": { "内容": "市野瀬和田内科医院【地域密着型通所介護】富山県高岡市戸出市野瀬388", "url2": "https://www.kaigokensaku.mhlw.go.jp/16/index.php?action_kouhyou_detail_004_kani=true&JigyosyoCd=1610213181-00&ServiceCd=780&Type=search" }, "geometry": { "type": "Point", "coordinates": [ 136.981889599999931, 36.6992789 ] } },
{ "type": "Feature", "properties": { "内容": "げんきデイ中田館【地域密着型通所介護】高岡市下麻生89番2だいご中田館", "url2": "https://www.kaigokensaku.mhlw.go.jp/16/index.php?action_kouhyou_detail_004_kani=true&JigyosyoCd=1670202157-00&ServiceCd=780&Type=search" }, "geometry": { "type": "Point", "coordinates": [ 137.0191542, 36.693376 ] } },
{ "type": "Feature", "properties": { "内容": "赤れんが【地域密着型通所介護】中曽根636-1", "url2": "https://www.kaigokensaku.mhlw.go.jp/16/index.php?action_kouhyou_detail_004_kani=true&JigyosyoCd=1670201878-00&ServiceCd=780&Type=search" }, "geometry": { "type": "Point", "coordinates": [ 137.071411971435452, 36.767963085020718 ] } },
{ "type": "Feature", "properties": { "内容": "はなれの家【地域密着型通所介護】放生津8-6", "url2": "https://www.kaigokensaku.mhlw.go.jp/16/index.php?action_kouhyou_detail_004_kani=true&JigyosyoCd=1670202124-00&ServiceCd=780&Type=search" }, "geometry": { "type": "Point", "coordinates": [ 137.083017499999983, 36.7694621 ] } },
{ "type": "Feature", "properties": { "内容": "リハビリ・デイサービスたかおか【地域密着型通所介護】横田本町8-10", "url2": "https://www.kaigokensaku.mhlw.go.jp/16/index.php?action_kouhyou_detail_004_kani=true&JigyosyoCd=1670202033-00&ServiceCd=780&Type=search" }, "geometry": { "type": "Point", "coordinates": [ 136.998500400000012, 36.7531795 ] } },
{ "type": "Feature", "properties": { "内容": "健生株式会社【地域密着型通所介護】高岡市清水町３丁目6-33のぞみリハビリテーションアカデミー", "url2": "https://www.kaigokensaku.mhlw.go.jp/16/index.php?action_kouhyou_detail_004_kani=true&JigyosyoCd=1670202363-00&ServiceCd=780&Type=search" }, "geometry": { "type": "Point", "coordinates": [ 137.006325699999934, 36.7380618 ] } },
{ "type": "Feature", "properties": { "内容": "社会福祉法人あいの風福祉会【地域密着型通所介護】富山県高岡市内免5丁目50番１", "url2": "https://www.kaigokensaku.mhlw.go.jp/16/index.php?action_kouhyou_detail_004_kani=true&JigyosyoCd=1670202249-00&ServiceCd=780&Type=search" }, "geometry": { "type": "Point", "coordinates": [ 137.0045553, 36.7542017 ] } },
{ "type": "Feature", "properties": { "内容": "志貴野長生寮デイサービスセンター【地域密着型通所介護】富山県高岡市滝新21番地1", "url2": "https://www.kaigokensaku.mhlw.go.jp/16/index.php?action_kouhyou_detail_004_kani=true&JigyosyoCd=1670201589-00&ServiceCd=780&Type=search" }, "geometry": { "type": "Point", "coordinates": [ 137.030280700000048, 36.6778564 ] } },
{ "type": "Feature", "properties": { "内容": "デイサービスセンターさがの苑【地域密着型通所介護】富山県高岡市佐加野1701", "url2": "https://www.kaigokensaku.mhlw.go.jp/16/index.php?action_kouhyou_detail_004_kani=true&JigyosyoCd=1670200409-00&ServiceCd=780&Type=search" }, "geometry": { "type": "Point", "coordinates": [ 136.971300299999939, 36.7563841 ] } },
{ "type": "Feature", "properties": { "内容": "小規模共生ホームひらすま通所介護事業所【地域密着型通所介護】富山県高岡市木町2番25号", "url2": "https://www.kaigokensaku.mhlw.go.jp/16/index.php?action_kouhyou_detail_004_kani=true&JigyosyoCd=1670201027-00&ServiceCd=780&Type=search" }, "geometry": { "type": "Point", "coordinates": [ 137.013612100000046, 36.7633453 ] } },
{ "type": "Feature", "properties": { "内容": "吉久デイサービス　むら花【地域密着型通所介護】吉久2－3－17", "url2": "https://www.kaigokensaku.mhlw.go.jp/16/index.php?action_kouhyou_detail_004_kani=true&JigyosyoCd=1670202264-00&ServiceCd=780&Type=search" }, "geometry": { "type": "Point", "coordinates": [ 137.054963899999962, 36.779102 ] } },
{ "type": "Feature", "properties": { "内容": "労働者協同組合　労協センター事業団　高岡地域福祉事業所　デイサービスぽぴー【地域密着型通所介護】富山県高岡市大坪町3－5－1", "url2": "https://www.kaigokensaku.mhlw.go.jp/16/index.php?action_kouhyou_detail_004_kani=true&JigyosyoCd=1670200946-00&ServiceCd=780&Type=search" }, "geometry": { "type": "Point", "coordinates": [ 137.017028699999969, 36.7579129 ] } },
{ "type": "Feature", "properties": { "内容": "イエトカフェ戸出春日【地域密着型通所介護】富山県高岡市戸出春日６３１", "url2": "https://www.kaigokensaku.mhlw.go.jp/16/index.php?action_kouhyou_detail_004_kani=true&JigyosyoCd=1690200736-00&ServiceCd=780&Type=search" }, "geometry": { "type": "Point", "coordinates": [ 137.000101500000028, 36.6945192 ] } },
{ "type": "Feature", "properties": { "内容": "デイサービスおはな【地域密着型通所介護】富山県高岡市辻319-2", "url2": "https://www.kaigokensaku.mhlw.go.jp/16/index.php?action_kouhyou_detail_004_kani=true&JigyosyoCd=1690200777-00&ServiceCd=780&Type=search" }, "geometry": { "type": "Point", "coordinates": [ 136.976027989748019, 36.724957959547247 ] } },
{ "type": "Feature", "properties": { "内容": "富山型デイサービス　もみじ【地域密着型通所介護】富山県高岡市中保1389-1", "url2": "https://www.kaigokensaku.mhlw.go.jp/16/index.php?action_kouhyou_detail_004_kani=true&JigyosyoCd=1690200660-00&ServiceCd=780&Type=search" }, "geometry": { "type": "Point", "coordinates": [ 136.962070275679821, 36.72115654878791 ] } },
{ "type": "Feature", "properties": { "内容": "リハビリデイ藤園苑一歩一歩【地域密着型通所介護】富山県高岡市早川262-1", "url2": "https://www.kaigokensaku.mhlw.go.jp/16/index.php?action_kouhyou_detail_004_kani=true&JigyosyoCd=1690200801-00&ServiceCd=780&Type=search" }, "geometry": { "type": "Point", "coordinates": [ 136.986690700000054, 36.751793300000017 ] } },
{ "type": "Feature", "properties": { "内容": "キョウセイガタ　デイサービス　ウミノカゼ【地域密着型通所介護】富山県高岡市伏木一宮2丁目4番33", "url2": "https://www.kaigokensaku.mhlw.go.jp/16/index.php?action_kouhyou_detail_004_kani=true&JigyosyoCd=1690200942-00&ServiceCd=780&Type=search" }, "geometry": { "type": "Point", "coordinates": [ 137.0478152, 36.7987157 ] } },
{ "type": "Feature", "properties": { "内容": "特定非営利活動法人　ウエルネット【地域密着型通所介護】富山県高岡市福岡町福岡新295", "url2": "https://www.kaigokensaku.mhlw.go.jp/16/index.php?action_kouhyou_detail_004_kani=true&JigyosyoCd=1670201704-00&ServiceCd=780&Type=search" }, "geometry": { "type": "Point", "coordinates": [ 136.933864500000027, 36.713113200000045 ] } },
{ "type": "Feature", "properties": { "内容": "地域密着型通所介護　雅【地域密着型通所介護】富山県高岡市京田281-1", "url2": "https://www.kaigokensaku.mhlw.go.jp/16/index.php?action_kouhyou_detail_004_kani=true&JigyosyoCd=1690200918-00&ServiceCd=780&Type=search" }, "geometry": { "type": "Point", "coordinates": [ 137.0124289, 36.7310374 ] } },
{ "type": "Feature", "properties": { "内容": "いそべ家具デイサービス未来  【地域密着型通所介護】内免３丁目３８０－１", "url2": "https://www.kaigokensaku.mhlw.go.jp/16/index.php?action_kouhyou_detail_004_kani=true&JigyosyoCd=1690200710-00&ServiceCd=780&Type=search" }, "geometry": { "type": "Point", "coordinates": [ 137.011932099999967, 36.7571654 ] } },
{ "type": "Feature", "properties": { "内容": "あっとほ～む米島　デイサービスセンター【地域密着型通所介護】富山県高岡市米島328-1あっとほ～む米島", "url2": "https://www.kaigokensaku.mhlw.go.jp/16/index.php?action_kouhyou_detail_004_kani=true&JigyosyoCd=1670202082-00&ServiceCd=780&Type=search" }, "geometry": { "type": "Point", "coordinates": [ 137.0392733, 36.7765688 ] } },
{ "type": "Feature", "properties": { "内容": "本江デイサービスちょうろく【地域密着型通所介護】富山県魚津市本江１６１６番地", "url2": "https://www.kaigokensaku.mhlw.go.jp/16/index.php?action_kouhyou_detail_004_kani=true&JigyosyoCd=1670400587-00&ServiceCd=780&Type=search" }, "geometry": { "type": "Point", "coordinates": [ 137.404118399999987, 36.8160155 ] } },
{ "type": "Feature", "properties": { "内容": "片貝デイサービスセンター【地域密着型通所介護】富山県魚津市島尻８５０－１", "url2": "https://www.kaigokensaku.mhlw.go.jp/16/index.php?action_kouhyou_detail_004_kani=true&JigyosyoCd=1670400504-00&ServiceCd=780&Type=search" }, "geometry": { "type": "Point", "coordinates": [ 137.469938299999967, 36.7910888 ] } },
{ "type": "Feature", "properties": { "内容": "パティオ　しらゆり【地域密着型通所介護】富山県魚津市本江1090", "url2": "https://www.kaigokensaku.mhlw.go.jp/16/index.php?action_kouhyou_detail_004_kani=true&JigyosyoCd=1670400330-00&ServiceCd=780&Type=search" }, "geometry": { "type": "Point", "coordinates": [ 137.411945699999933, 36.8167129 ] } },
{ "type": "Feature", "properties": { "内容": "デイサービスあんどの里ありそ館【地域密着型通所介護】魚津市北鬼江1177番地あんどの里ありそ館", "url2": "https://www.kaigokensaku.mhlw.go.jp/16/index.php?action_kouhyou_detail_004_kani=true&JigyosyoCd=1670400611-00&ServiceCd=780&Type=search" }, "geometry": { "type": "Point", "coordinates": [ 137.400756699999988, 36.8288448 ] } },
{ "type": "Feature", "properties": { "内容": "デイサービスむすびの里【地域密着型通所介護】富山県魚津市天王15番地", "url2": "https://www.kaigokensaku.mhlw.go.jp/16/index.php?action_kouhyou_detail_004_kani=true&JigyosyoCd=1690400054-00&ServiceCd=780&Type=search" }, "geometry": { "type": "Point", "coordinates": [ 137.417983, 36.8459466 ] } },
{ "type": "Feature", "properties": { "内容": "経田デイサービスセンター【地域密着型通所介護】富山県魚津市東町１２－１", "url2": "https://www.kaigokensaku.mhlw.go.jp/16/index.php?action_kouhyou_detail_004_kani=true&JigyosyoCd=1670400223-00&ServiceCd=780&Type=search" }, "geometry": { "type": "Point", "coordinates": [ 137.415933499999937, 36.8541922 ] } },
{ "type": "Feature", "properties": { "内容": "魚津病院吉島デイサービス【地域密着型通所介護】富山県魚津市吉島200番3", "url2": "https://www.kaigokensaku.mhlw.go.jp/16/index.php?action_kouhyou_detail_004_kani=true&JigyosyoCd=1670400629-00&ServiceCd=780&Type=search" }, "geometry": { "type": "Point", "coordinates": [ 137.417280799999958, 36.8269927 ] } },
{ "type": "Feature", "properties": { "内容": "住吉デイサービスセンター【地域密着型通所介護】富山県魚津市住吉２５２３番地２", "url2": "https://www.kaigokensaku.mhlw.go.jp/16/index.php?action_kouhyou_detail_004_kani=true&JigyosyoCd=1670400652-00&ServiceCd=780&Type=search" }, "geometry": { "type": "Point", "coordinates": [ 137.39949439999998, 36.8033498 ] } },
{ "type": "Feature", "properties": { "内容": "専正寺デイサービスまごころ【地域密着型通所介護】富山県魚津市本江新町9－8", "url2": "https://www.kaigokensaku.mhlw.go.jp/16/index.php?action_kouhyou_detail_004_kani=true&JigyosyoCd=1670400405-00&ServiceCd=780&Type=search" }, "geometry": { "type": "Point", "coordinates": [ 137.406608458895562, 36.819989647168384 ] } },
{ "type": "Feature", "properties": { "内容": "こみゅにてぃはうす　愛夢【地域密着型通所介護】魚津市吉島553番地１", "url2": "https://www.kaigokensaku.mhlw.go.jp/16/index.php?action_kouhyou_detail_004_kani=true&JigyosyoCd=1670400553-00&ServiceCd=780&Type=search" }, "geometry": { "type": "Point", "coordinates": [ 137.418347199999971, 36.8304146 ] } },
{ "type": "Feature", "properties": { "内容": "デイサービスちょうろく【地域密着型通所介護】富山県魚津市石垣388－2", "url2": "https://www.kaigokensaku.mhlw.go.jp/16/index.php?action_kouhyou_detail_004_kani=true&JigyosyoCd=1670400389-00&ServiceCd=780&Type=search" }, "geometry": { "type": "Point", "coordinates": [ 137.443504299999972, 36.805181 ] } },
{ "type": "Feature", "properties": { "内容": "魚津地域福祉事業所スマイルぽぴー【地域密着型通所介護】富山県魚津市上村木1-6-5", "url2": "https://www.kaigokensaku.mhlw.go.jp/16/index.php?action_kouhyou_detail_004_kani=true&JigyosyoCd=1670400421-00&ServiceCd=780&Type=search" }, "geometry": { "type": "Point", "coordinates": [ 137.4074177, 36.823698299999982 ] } },
{ "type": "Feature", "properties": { "内容": "パティオ　しらゆり【地域密着型通所介護】富山県魚津市本江1090", "url2": "https://www.kaigokensaku.mhlw.go.jp/16/index.php?action_kouhyou_detail_004_kani=true&JigyosyoCd=1690400096-00&ServiceCd=780&Type=search" }, "geometry": { "type": "Point", "coordinates": [ 137.411973738237009, 36.816724830285217 ] } },
{ "type": "Feature", "properties": { "内容": "つくしの家魚津【地域密着型通所介護】富山県魚津市本町1丁目4-32", "url2": "https://www.kaigokensaku.mhlw.go.jp/16/index.php?action_kouhyou_detail_004_kani=true&JigyosyoCd=1690400104-00&ServiceCd=780&Type=search" }, "geometry": { "type": "Point", "coordinates": [ 137.3956926, 36.8135801 ] } },
{ "type": "Feature", "properties": { "内容": "氷見市障害者福祉センター我家【地域密着型通所介護】富山県氷見市幸町34番13号", "url2": "https://www.kaigokensaku.mhlw.go.jp/16/index.php?action_kouhyou_detail_004_kani=true&JigyosyoCd=1670500410-00&ServiceCd=780&Type=search" }, "geometry": { "type": "Point", "coordinates": [ 136.977342799999974, 36.8565173 ] } },
{ "type": "Feature", "properties": { "内容": "社会福祉法人　氷見市社会福祉協議会【地域密着型通所介護】富山県氷見市鞍川967", "url2": "https://www.kaigokensaku.mhlw.go.jp/16/index.php?action_kouhyou_detail_004_kani=true&JigyosyoCd=1670500147-00&ServiceCd=780&Type=search" }, "geometry": { "type": "Point", "coordinates": [ 136.974046, 36.8553729 ] } },
{ "type": "Feature", "properties": { "内容": "デイサービス　マザーハウス・ひみ【地域密着型通所介護】富山県氷見市指崎１４８４番地デイサービス　マザーハウス・ひみ", "url2": "https://www.kaigokensaku.mhlw.go.jp/16/index.php?action_kouhyou_detail_004_kani=true&JigyosyoCd=1670500501-00&ServiceCd=780&Type=search" }, "geometry": { "type": "Point", "coordinates": [ 136.976777500000026, 36.8924593 ] } },
{ "type": "Feature", "properties": { "内容": "デイサービス　灯【地域密着型通所介護】富山県氷見市惣領１４７６番地", "url2": "https://www.kaigokensaku.mhlw.go.jp/16/index.php?action_kouhyou_detail_004_kani=true&JigyosyoCd=1670500642-00&ServiceCd=780&Type=search" }, "geometry": { "type": "Point", "coordinates": [ 136.945403199999987, 36.8018718 ] } },
{ "type": "Feature", "properties": { "内容": "ディサービス宙の家【地域密着型通所介護】富山県氷見市島尾６６１番地７", "url2": "https://www.kaigokensaku.mhlw.go.jp/16/index.php?action_kouhyou_detail_004_kani=true&JigyosyoCd=1670500691-00&ServiceCd=780&Type=search" }, "geometry": { "type": "Point", "coordinates": [ 137.01001789999998, 36.8247429 ] } },
{ "type": "Feature", "properties": { "内容": "デイサービスわかば【地域密着型通所介護】富山県氷見市稲積1862番地", "url2": "https://www.kaigokensaku.mhlw.go.jp/16/index.php?action_kouhyou_detail_004_kani=true&JigyosyoCd=1670500352-00&ServiceCd=780&Type=search" }, "geometry": { "type": "Point", "coordinates": [ 136.976253400000019, 36.8757367 ] } },
{ "type": "Feature", "properties": { "内容": "デイサービスきらく【地域密着型通所介護】稲積　254番地", "url2": "https://www.kaigokensaku.mhlw.go.jp/16/index.php?action_kouhyou_detail_004_kani=true&JigyosyoCd=1670500659-00&ServiceCd=780&Type=search" }, "geometry": { "type": "Point", "coordinates": [ 136.967895699999985, 36.8786444 ] } },
{ "type": "Feature", "properties": { "内容": "みんなの家のどか【地域密着型通所介護】富山県氷見市中村485番地1", "url2": "https://www.kaigokensaku.mhlw.go.jp/16/index.php?action_kouhyou_detail_004_kani=true&JigyosyoCd=1690500200-00&ServiceCd=780&Type=search" }, "geometry": { "type": "Point", "coordinates": [ 136.9338455, 36.8668494 ] } },
{ "type": "Feature", "properties": { "内容": "氷見市障害者福祉センター我家【地域密着型通所介護】富山県氷見市幸町34-13", "url2": "https://www.kaigokensaku.mhlw.go.jp/16/index.php?action_kouhyou_detail_004_kani=true&JigyosyoCd=1690500218-00&ServiceCd=780&Type=search" }, "geometry": { "type": "Point", "coordinates": [ 136.977339199999989, 36.8564499 ] } },
{ "type": "Feature", "properties": { "内容": "デイサービスほがらか【地域密着型通所介護】下島143-3", "url2": "https://www.kaigokensaku.mhlw.go.jp/16/index.php?action_kouhyou_detail_004_kani=true&JigyosyoCd=1670600301-00&ServiceCd=780&Type=search" }, "geometry": { "type": "Point", "coordinates": [ 137.339880099999959, 36.7564565 ] } },
{ "type": "Feature", "properties": { "内容": "富山型デイサービス　またこられ～【地域密着型通所介護】富山県滑川市横道３４１８番地", "url2": "https://www.kaigokensaku.mhlw.go.jp/16/index.php?action_kouhyou_detail_004_kani=true&JigyosyoCd=1690600091-00&ServiceCd=780&Type=search" }, "geometry": { "type": "Point", "coordinates": [ 137.3858617, 36.7568357 ] } },
{ "type": "Feature", "properties": { "内容": "デイサービスらくらく【地域密着型通所介護】富山県滑川市追分3342-1", "url2": "https://www.kaigokensaku.mhlw.go.jp/16/index.php?action_kouhyou_detail_004_kani=true&JigyosyoCd=1670600368-00&ServiceCd=780&Type=search" }, "geometry": { "type": "Point", "coordinates": [ 137.3754897, 36.7825518 ] } },
{ "type": "Feature", "properties": { "内容": "デイサービスセンターお達者くらぶ中新【地域密着型通所介護】滑川市中新1302番地", "url2": "https://www.kaigokensaku.mhlw.go.jp/16/index.php?action_kouhyou_detail_004_kani=true&JigyosyoCd=1670600319-00&ServiceCd=780&Type=search" }, "geometry": { "type": "Point", "coordinates": [ 137.375374500000021, 36.7526246 ] } },
{ "type": "Feature", "properties": { "内容": "デイサービスたんぽぽ【地域密着型通所介護】富山県滑川市常盤町181-43", "url2": "https://www.kaigokensaku.mhlw.go.jp/16/index.php?action_kouhyou_detail_004_kani=true&JigyosyoCd=1690600067-00&ServiceCd=780&Type=search" }, "geometry": { "type": "Point", "coordinates": [ 137.346152199999977, 36.7682366 ] } },
{ "type": "Feature", "properties": { "内容": "デイサービスあったかホーム【地域密着型通所介護】富山県滑川市中川原134", "url2": "https://www.kaigokensaku.mhlw.go.jp/16/index.php?action_kouhyou_detail_004_kani=true&JigyosyoCd=1690600083-00&ServiceCd=780&Type=search" }, "geometry": { "type": "Point", "coordinates": [ 137.3487417, 36.7722209 ] } },
{ "type": "Feature", "properties": { "内容": "CHACHACHA黒部【地域密着型通所介護】富山県黒部市荻生741", "url2": "https://www.kaigokensaku.mhlw.go.jp/16/index.php?action_kouhyou_detail_004_kani=true&JigyosyoCd=1690700214-00&ServiceCd=780&Type=search" }, "geometry": { "type": "Point", "coordinates": [ 137.4718708, 36.8909059 ] } },
{ "type": "Feature", "properties": { "内容": "上町の家【地域密着型通所介護】富山県黒部市生地249番地", "url2": "https://www.kaigokensaku.mhlw.go.jp/16/index.php?action_kouhyou_detail_004_kani=true&JigyosyoCd=1690700222-00&ServiceCd=780&Type=search" }, "geometry": { "type": "Point", "coordinates": [ 137.4173089, 36.888934 ] } },
{ "type": "Feature", "properties": { "内容": "富山型デイサービスしばんばの里「こもれび」【地域密着型通所介護】富山県黒部市生地芦区３４番地", "url2": "https://www.kaigokensaku.mhlw.go.jp/16/index.php?action_kouhyou_detail_004_kani=true&JigyosyoCd=1670700382-00&ServiceCd=780&Type=search" }, "geometry": { "type": "Point", "coordinates": [ 137.4185738, 36.897232100000018 ] } },
{ "type": "Feature", "properties": { "内容": "アイ福祉サポート株式会社【地域密着型通所介護】富山県黒部市生地芦区３４番地", "url2": "https://www.kaigokensaku.mhlw.go.jp/16/index.php?action_kouhyou_detail_004_kani=true&JigyosyoCd=1670700341-00&ServiceCd=780&Type=search" }, "geometry": { "type": "Point", "coordinates": [ 137.4185738, 36.8972321 ] } },
{ "type": "Feature", "properties": { "内容": "富山型デイサービスまごの手【地域密着型通所介護】富山県黒部市犬山500番1", "url2": "https://www.kaigokensaku.mhlw.go.jp/16/index.php?action_kouhyou_detail_004_kani=true&JigyosyoCd=1670700390-00&ServiceCd=780&Type=search" }, "geometry": { "type": "Point", "coordinates": [ 137.429587699999956, 36.855457 ] } },
{ "type": "Feature", "properties": { "内容": "富山型デイサービスきずな【地域密着型通所介護】富山県黒部市三日市2840番地1", "url2": "https://www.kaigokensaku.mhlw.go.jp/16/index.php?action_kouhyou_detail_004_kani=true&JigyosyoCd=1670700457-00&ServiceCd=780&Type=search" }, "geometry": { "type": "Point", "coordinates": [ 137.45381, 36.8779877 ] } },
{ "type": "Feature", "properties": { "内容": "機能訓練特化富山型ディサービスリハットネス【地域密着型通所介護】中新18機能訓練特化富山型ディサービスリハットネス", "url2": "https://www.kaigokensaku.mhlw.go.jp/16/index.php?action_kouhyou_detail_004_kani=true&JigyosyoCd=1690700164-00&ServiceCd=780&Type=search" }, "geometry": { "type": "Point", "coordinates": [ 137.4273928, 36.887253 ] } },
{ "type": "Feature", "properties": { "内容": "特定非営利活動法人　あいの風【地域密着型通所介護】富山県黒部市宇奈月町栃屋１５１－４", "url2": "https://www.kaigokensaku.mhlw.go.jp/16/index.php?action_kouhyou_detail_004_kani=true&JigyosyoCd=1671700308-00&ServiceCd=780&Type=search" }, "geometry": { "type": "Point", "coordinates": [ 137.511051018385245, 36.87086523599811 ] } },
{ "type": "Feature", "properties": { "内容": "デイサービスさくらい【地域密着型通所介護】富山県黒部市堀高24-1", "url2": "https://www.kaigokensaku.mhlw.go.jp/16/index.php?action_kouhyou_detail_004_kani=true&JigyosyoCd=1690700206-00&ServiceCd=780&Type=search" }, "geometry": { "type": "Point", "coordinates": [ 137.4413193, 36.8806121 ] } },
{ "type": "Feature", "properties": { "内容": "Goジューシー【地域密着型通所介護】金屋77−２", "url2": "https://www.kaigokensaku.mhlw.go.jp/16/index.php?action_kouhyou_detail_004_kani=true&JigyosyoCd=1690700230-00&ServiceCd=780&Type=search" }, "geometry": { "type": "Point", "coordinates": [ 137.44707, 36.87291 ] } },
{ "type": "Feature", "properties": { "内容": "特定非営利活動法人さくらの家矢木【地域密着型通所介護】矢木86", "url2": "https://www.kaigokensaku.mhlw.go.jp/16/index.php?action_kouhyou_detail_004_kani=true&JigyosyoCd=1670800356-00&ServiceCd=780&Type=search" }, "geometry": { "type": "Point", "coordinates": [ 136.972196899999972, 36.6348413 ] } },
{ "type": "Feature", "properties": { "内容": "宗教法人善福寺デイサービス聚楽【地域密着型通所介護】富山県砺波市東中171番地", "url2": "https://www.kaigokensaku.mhlw.go.jp/16/index.php?action_kouhyou_detail_004_kani=true&JigyosyoCd=1670800380-00&ServiceCd=780&Type=search" }, "geometry": { "type": "Point", "coordinates": [ 136.933497200000033, 36.662814 ] } },
{ "type": "Feature", "properties": { "内容": "デイサービスいろり【地域密着型通所介護】富山県砺波市五郎丸333番地", "url2": "https://www.kaigokensaku.mhlw.go.jp/16/index.php?action_kouhyou_detail_004_kani=true&JigyosyoCd=1670800646-00&ServiceCd=780&Type=search" }, "geometry": { "type": "Point", "coordinates": [ 136.958290499999947, 36.6155242 ] } },
{ "type": "Feature", "properties": { "内容": "デイサービスゆずの木【地域密着型通所介護】富山県砺波市庄川町高儀新95番地3", "url2": "https://www.kaigokensaku.mhlw.go.jp/16/index.php?action_kouhyou_detail_004_kani=true&JigyosyoCd=1670800539-00&ServiceCd=780&Type=search" }, "geometry": { "type": "Point", "coordinates": [ 136.977889, 36.59323030000003 ] } },
{ "type": "Feature", "properties": { "内容": "デイサービス　しょうずんだ【地域密着型通所介護】庄川町金屋2833-1", "url2": "https://www.kaigokensaku.mhlw.go.jp/16/index.php?action_kouhyou_detail_004_kani=true&JigyosyoCd=1670800489-00&ServiceCd=780&Type=search" }, "geometry": { "type": "Point", "coordinates": [ 136.986510899999985, 36.5726247 ] } },
{ "type": "Feature", "properties": { "内容": "砺波地域福祉事業所　大空と大地のぽぴー村【地域密着型通所介護】富山県砺波市宮森461", "url2": "https://www.kaigokensaku.mhlw.go.jp/16/index.php?action_kouhyou_detail_004_kani=true&JigyosyoCd=1670800588-00&ServiceCd=780&Type=search" }, "geometry": { "type": "Point", "coordinates": [ 137.016344200000049, 36.646519 ] } },
{ "type": "Feature", "properties": { "内容": "一期縁【地域密着型通所介護】富山県砺波市東石丸30-31", "url2": "https://www.kaigokensaku.mhlw.go.jp/16/index.php?action_kouhyou_detail_004_kani=true&JigyosyoCd=1690800204-00&ServiceCd=780&Type=search" }, "geometry": { "type": "Point", "coordinates": [ 136.97958749999998, 36.6589683 ] } },
{ "type": "Feature", "properties": { "内容": "リハビリ・デイサービスとなみ【地域密着型通所介護】富山県砺波市本町２－６", "url2": "https://www.kaigokensaku.mhlw.go.jp/16/index.php?action_kouhyou_detail_004_kani=true&JigyosyoCd=1690800154-00&ServiceCd=780&Type=search" }, "geometry": { "type": "Point", "coordinates": [ 136.951881338657813, 36.638866865693046 ] } },
{ "type": "Feature", "properties": { "内容": "ものがたりデイサービスセンター【地域密着型通所介護】富山県砺波市山王町2番12号", "url2": "https://www.kaigokensaku.mhlw.go.jp/16/index.php?action_kouhyou_detail_004_kani=true&JigyosyoCd=1690800238-00&ServiceCd=780&Type=search" }, "geometry": { "type": "Point", "coordinates": [ 136.954806499999989, 36.636886 ] } },
{ "type": "Feature", "properties": { "内容": "のぞみリハビリテーションアカデミー【地域密着型通所介護】富山県砺波市宮丸183-1", "url2": "https://www.kaigokensaku.mhlw.go.jp/16/index.php?action_kouhyou_detail_004_kani=true&JigyosyoCd=1690800212-00&ServiceCd=780&Type=search" }, "geometry": { "type": "Point", "coordinates": [ 136.967361399999987, 36.6572078 ] } },
{ "type": "Feature", "properties": { "内容": "北陸メディカルサービス株式会社　デイサービス福【地域密着型通所介護】富山県砺波市中央町4番1号", "url2": "https://www.kaigokensaku.mhlw.go.jp/16/index.php?action_kouhyou_detail_004_kani=true&JigyosyoCd=1690800246-00&ServiceCd=780&Type=search" }, "geometry": { "type": "Point", "coordinates": [ 136.9545215, 36.6383948 ] } },
{ "type": "Feature", "properties": { "内容": "さくらの縁デイサービスセンター【地域密着型通所介護】富山県砺波市矢木86番地", "url2": "https://www.kaigokensaku.mhlw.go.jp/16/index.php?action_kouhyou_detail_004_kani=true&JigyosyoCd=1690800253-00&ServiceCd=780&Type=search" }, "geometry": { "type": "Point", "coordinates": [ 136.972257899999988, 36.6348399 ] } },
{ "type": "Feature", "properties": { "内容": "デイサービス　かがやき【地域密着型通所介護】富山県砺波市新富町2-11", "url2": "https://www.kaigokensaku.mhlw.go.jp/16/index.php?action_kouhyou_detail_004_kani=true&JigyosyoCd=1670800497-00&ServiceCd=780&Type=search" }, "geometry": { "type": "Point", "coordinates": [ 136.948162599999932, 36.6399958 ] } },
{ "type": "Feature", "properties": { "内容": "デイサービス　うみとそら【地域密着型通所介護】富山県砺波市新富町２－１０", "url2": "https://www.kaigokensaku.mhlw.go.jp/16/index.php?action_kouhyou_detail_004_kani=true&JigyosyoCd=1690800261-00&ServiceCd=780&Type=search" }, "geometry": { "type": "Point", "coordinates": [ 136.9483102, 36.6401618 ] } },
{ "type": "Feature", "properties": { "内容": "デイサービスセンター喜楽里【地域密着型通所介護】富山県小矢部市法楽寺1800番地の1", "url2": "https://www.kaigokensaku.mhlw.go.jp/16/index.php?action_kouhyou_detail_004_kani=true&JigyosyoCd=1690900194-00&ServiceCd=780&Type=search" }, "geometry": { "type": "Point", "coordinates": [ 136.873948484595701, 36.694576853694855 ] } },
{ "type": "Feature", "properties": { "内容": "富山型デイサービス城山【地域密着型通所介護】富山県小矢部市城山町9-32", "url2": "https://www.kaigokensaku.mhlw.go.jp/16/index.php?action_kouhyou_detail_004_kani=true&JigyosyoCd=1670900552-00&ServiceCd=780&Type=search" }, "geometry": { "type": "Point", "coordinates": [ 136.863353398008712, 36.681327069995056 ] } },
{ "type": "Feature", "properties": { "内容": "ローカルセンター小矢部【地域密着型通所介護】小矢部市新西92-1", "url2": "https://www.kaigokensaku.mhlw.go.jp/16/index.php?action_kouhyou_detail_004_kani=true&JigyosyoCd=1670900206-00&ServiceCd=780&Type=search" }, "geometry": { "type": "Point", "coordinates": [ 136.896637599999963, 36.6306763 ] } },
{ "type": "Feature", "properties": { "内容": "デイサービスセンター心楽【地域密着型通所介護】富山県小矢部市城山町2-42", "url2": "https://www.kaigokensaku.mhlw.go.jp/16/index.php?action_kouhyou_detail_004_kani=true&JigyosyoCd=1670900511-00&ServiceCd=780&Type=search" }, "geometry": { "type": "Point", "coordinates": [ 136.866393673610673, 36.678754746113057 ] } },
{ "type": "Feature", "properties": { "内容": "デイサービスわくわく小矢部【地域密着型通所介護】新富町４番１号", "url2": "https://www.kaigokensaku.mhlw.go.jp/16/index.php?action_kouhyou_detail_004_kani=true&JigyosyoCd=1670900271-00&ServiceCd=780&Type=search" }, "geometry": { "type": "Point", "coordinates": [ 138.369172, 34.9708209 ] } },
{ "type": "Feature", "properties": { "内容": "ビスケットデイサービスかいぐん【地域密着型通所介護】芹川3887番地1", "url2": "https://www.kaigokensaku.mhlw.go.jp/16/index.php?action_kouhyou_detail_004_kani=true&JigyosyoCd=1670900503-00&ServiceCd=780&Type=search" }, "geometry": { "type": "Point", "coordinates": [ 136.8912338, 36.6825104 ] } },
{ "type": "Feature", "properties": { "内容": "はっちょうとんぼデイサービス【地域密着型通所介護】富山県小矢部市臼谷字岡ノ城6520番地", "url2": "https://www.kaigokensaku.mhlw.go.jp/16/index.php?action_kouhyou_detail_004_kani=true&JigyosyoCd=1690900202-00&ServiceCd=780&Type=search" }, "geometry": { "type": "Point", "coordinates": [ 136.8179346, 36.6116373 ] } },
{ "type": "Feature", "properties": { "内容": "リハビリ･デイサービスおやべ【地域密着型通所介護】富山県小矢部市赤倉２０７", "url2": "https://www.kaigokensaku.mhlw.go.jp/16/index.php?action_kouhyou_detail_004_kani=true&JigyosyoCd=1670900461-00&ServiceCd=780&Type=search" }, "geometry": { "type": "Point", "coordinates": [ 136.88691259999996, 36.6603966 ] } },
{ "type": "Feature", "properties": { "内容": "デイサービス母笑夢【地域密着型通所介護】南砺市遊部川原53番", "url2": "https://www.kaigokensaku.mhlw.go.jp/16/index.php?action_kouhyou_detail_004_kani=true&JigyosyoCd=1671000212-00&ServiceCd=780&Type=search" }, "geometry": { "type": "Point", "coordinates": [ 136.877715200000011, 36.5690284 ] } },
{ "type": "Feature", "properties": { "内容": "デイサービスセンターにこやかな里。【地域密着型通所介護】富山県南砺市福野1466-1", "url2": "https://www.kaigokensaku.mhlw.go.jp/16/index.php?action_kouhyou_detail_004_kani=true&JigyosyoCd=1671000196-00&ServiceCd=780&Type=search" }, "geometry": { "type": "Point", "coordinates": [ 136.924591, 36.589299 ] } },
{ "type": "Feature", "properties": { "内容": "ケアタウン福野【地域密着型通所介護】南砺市柴田屋396-11", "url2": "https://www.kaigokensaku.mhlw.go.jp/16/index.php?action_kouhyou_detail_004_kani=true&JigyosyoCd=1691000200-00&ServiceCd=780&Type=search" }, "geometry": { "type": "Point", "coordinates": [ 136.9044685, 36.5981153 ] } },
{ "type": "Feature", "properties": { "内容": "南砺市上平デイサービスセンター【地域密着型通所介護】富山県南砺市上平細嶋１１１２番地", "url2": "https://www.kaigokensaku.mhlw.go.jp/16/index.php?action_kouhyou_detail_004_kani=true&JigyosyoCd=1671000279-00&ServiceCd=780&Type=search" }, "geometry": { "type": "Point", "coordinates": [ 136.901405, 36.4021148 ] } },
{ "type": "Feature", "properties": { "内容": "平高齢者生活福祉センターつつじ荘　平デイサービスセンター【地域密着型通所介護】富山県南砺市大崩島１００番地", "url2": "https://www.kaigokensaku.mhlw.go.jp/16/index.php?action_kouhyou_detail_004_kani=true&JigyosyoCd=1671000295-00&ServiceCd=780&Type=search" }, "geometry": { "type": "Point", "coordinates": [ 136.9764788, 36.4550752 ] } },
{ "type": "Feature", "properties": { "内容": "南砺市利賀高齢者生活福祉センターネイトピア喜楽利賀デイサービスセンター【地域密着型通所介護】富山県南砺市利賀村百瀬川313", "url2": "https://www.kaigokensaku.mhlw.go.jp/16/index.php?action_kouhyou_detail_004_kani=true&JigyosyoCd=1671000287-00&ServiceCd=780&Type=search" }, "geometry": { "type": "Point", "coordinates": [ 137.041666299999946, 36.4579126 ] } },
{ "type": "Feature", "properties": { "内容": "牛田接骨院デイサービス結【地域密着型通所介護】富山県南砺市中ノ江106-3", "url2": "https://www.kaigokensaku.mhlw.go.jp/16/index.php?action_kouhyou_detail_004_kani=true&JigyosyoCd=1671000014-00&ServiceCd=780&Type=search" }, "geometry": { "type": "Point", "coordinates": [ 136.862536200000022, 36.5649673 ] } },
{ "type": "Feature", "properties": { "内容": "デイサービスセンターきららか【地域密着型通所介護】戸破688", "url2": "https://www.kaigokensaku.mhlw.go.jp/16/index.php?action_kouhyou_detail_004_kani=true&JigyosyoCd=1671100319-00&ServiceCd=780&Type=search" }, "geometry": { "type": "Point", "coordinates": [ 137.114383922090155, 36.718963099994909 ] } },
{ "type": "Feature", "properties": { "内容": "小さな幸せの家いみず【地域密着型通所介護】富山県射水市中太閤山16-90-7", "url2": "https://www.kaigokensaku.mhlw.go.jp/16/index.php?action_kouhyou_detail_004_kani=true&JigyosyoCd=1671100384-00&ServiceCd=780&Type=search" }, "geometry": { "type": "Point", "coordinates": [ 137.098906599999964, 36.702615 ] } },
{ "type": "Feature", "properties": { "内容": "いちにのさんぽ練合【地域密着型通所介護】富山県射水市海老江練合570番地", "url2": "https://www.kaigokensaku.mhlw.go.jp/16/index.php?action_kouhyou_detail_004_kani=true&JigyosyoCd=1671100095-00&ServiceCd=780&Type=search" }, "geometry": { "type": "Point", "coordinates": [ 137.160462400000029, 36.7615839 ] } },
{ "type": "Feature", "properties": { "内容": "赤田デイサービスめぐみ【地域密着型通所介護】富山県射水市橋下条1374", "url2": "https://www.kaigokensaku.mhlw.go.jp/16/index.php?action_kouhyou_detail_004_kani=true&JigyosyoCd=1671100012-00&ServiceCd=780&Type=search" }, "geometry": { "type": "Point", "coordinates": [ 137.084999599999946, 36.7136411 ] } },
{ "type": "Feature", "properties": { "内容": "デイサービスわしづか【地域密着型通所介護】富山県射水市鷲塚558番地", "url2": "https://www.kaigokensaku.mhlw.go.jp/16/index.php?action_kouhyou_detail_004_kani=true&JigyosyoCd=1671100335-00&ServiceCd=780&Type=search" }, "geometry": { "type": "Point", "coordinates": [ 137.122083800000041, 36.7223883 ] } },
{ "type": "Feature", "properties": { "内容": "いちにのさんぽデイサービス【地域密着型通所介護】本江後新１０２", "url2": "https://www.kaigokensaku.mhlw.go.jp/16/index.php?action_kouhyou_detail_004_kani=true&JigyosyoCd=1670300258-00&ServiceCd=780&Type=search" }, "geometry": { "type": "Point", "coordinates": [ 137.169719799999939, 36.753538 ] } },
{ "type": "Feature", "properties": { "内容": "ｲｴﾄｶﾌｪ二の丸【地域密着型通所介護】二の丸町1-2", "url2": "https://www.kaigokensaku.mhlw.go.jp/16/index.php?action_kouhyou_detail_004_kani=true&JigyosyoCd=1691100349-00&ServiceCd=780&Type=search" }, "geometry": { "type": "Point", "coordinates": [ 135.770289400000024, 34.921198 ] } },
{ "type": "Feature", "properties": { "内容": "いみずの里デイサービス【地域密着型通所介護】富山県射水市赤井77-1", "url2": "https://www.kaigokensaku.mhlw.go.jp/16/index.php?action_kouhyou_detail_004_kani=true&JigyosyoCd=1671100483-00&ServiceCd=780&Type=search" }, "geometry": { "type": "Point", "coordinates": [ 137.069383799999969, 36.7308581 ] } },
{ "type": "Feature", "properties": { "内容": "デイサービス　ゆずリハビリいみず【地域密着型通所介護】富山県射水市戸破3463-1", "url2": "https://www.kaigokensaku.mhlw.go.jp/16/index.php?action_kouhyou_detail_004_kani=true&JigyosyoCd=1671100525-00&ServiceCd=780&Type=search" }, "geometry": { "type": "Point", "coordinates": [ 137.107941100000062, 36.7227823 ] } },
{ "type": "Feature", "properties": { "内容": "地域密着型　通所介護　雅　小杉【地域密着型通所介護】富山県射水市戸破1677-1", "url2": "https://www.kaigokensaku.mhlw.go.jp/16/index.php?action_kouhyou_detail_004_kani=true&JigyosyoCd=1691100364-00&ServiceCd=780&Type=search" }, "geometry": { "type": "Point", "coordinates": [ 137.095192900000029, 36.7137247 ] } },
{ "type": "Feature", "properties": { "内容": "サープレィ足洗温泉デイサービスセンター【地域密着型通所介護】足洗新町1-5", "url2": "https://www.kaigokensaku.mhlw.go.jp/16/index.php?action_kouhyou_detail_004_kani=true&JigyosyoCd=1691100455-00&ServiceCd=780&Type=search" }, "geometry": { "type": "Point", "coordinates": [ 137.1677392, 36.7591928 ] } },
{ "type": "Feature", "properties": { "内容": "デイサービス縁【地域密着型通所介護】富山県射水市海老江１４６７番地９０", "url2": "https://www.kaigokensaku.mhlw.go.jp/16/index.php?action_kouhyou_detail_004_kani=true&JigyosyoCd=1691100406-00&ServiceCd=780&Type=search" }, "geometry": { "type": "Point", "coordinates": [ 137.141473987766261, 36.767807845300382 ] } },
{ "type": "Feature", "properties": { "内容": "デイサービスむらのなか【地域密着型通所介護】富山県中新川郡舟橋村東芦原205番地", "url2": "https://www.kaigokensaku.mhlw.go.jp/16/index.php?action_kouhyou_detail_004_kani=true&JigyosyoCd=1671600722-00&ServiceCd=780&Type=search" }, "geometry": { "type": "Point", "coordinates": [ 137.301273499999979, 36.6936465 ] } },
{ "type": "Feature", "properties": { "内容": "お茶の間【地域密着型通所介護】富山県中新川郡上市町若杉三丁目418番地", "url2": "https://www.kaigokensaku.mhlw.go.jp/16/index.php?action_kouhyou_detail_004_kani=true&JigyosyoCd=1671600557-00&ServiceCd=780&Type=search" }, "geometry": { "type": "Point", "coordinates": [ 137.351592200000027, 36.705574 ] } },
{ "type": "Feature", "properties": { "内容": "ディサービス　元・気・楽【地域密着型通所介護】富山県中新川郡上市町丸山１１番地", "url2": "https://www.kaigokensaku.mhlw.go.jp/16/index.php?action_kouhyou_detail_004_kani=true&JigyosyoCd=1671600540-00&ServiceCd=780&Type=search" }, "geometry": { "type": "Point", "coordinates": [ 137.38386, 36.694484 ] } },
{ "type": "Feature", "properties": { "内容": "デイサービスつくしの森【地域密着型通所介護】富山県中新川郡立山町西大森657番地デイサービスつくしの森", "url2": "https://www.kaigokensaku.mhlw.go.jp/16/index.php?action_kouhyou_detail_004_kani=true&JigyosyoCd=1691600173-00&ServiceCd=780&Type=search" }, "geometry": { "type": "Point", "coordinates": [ 137.2878261, 36.6554303 ] } },
{ "type": "Feature", "properties": { "内容": "デイサービス横江やまの湯【地域密着型通所介護】富山県中新川郡立山町横江5-1", "url2": "https://www.kaigokensaku.mhlw.go.jp/16/index.php?action_kouhyou_detail_004_kani=true&JigyosyoCd=1671600821-00&ServiceCd=780&Type=search" }, "geometry": { "type": "Point", "coordinates": [ 137.329520180950908, 36.591331406915366 ] } },
{ "type": "Feature", "properties": { "内容": "デイサービスこころ【地域密着型通所介護】富山県中新川郡立山町五郎丸149-1", "url2": "https://www.kaigokensaku.mhlw.go.jp/16/index.php?action_kouhyou_detail_004_kani=true&JigyosyoCd=1691600181-00&ServiceCd=780&Type=search" }, "geometry": { "type": "Point", "coordinates": [ 137.3028088, 36.6849604 ] } },
{ "type": "Feature", "properties": { "内容": "デイサービス　いい茶家【地域密着型通所介護】富山県中新川郡立山町栃津７０番地", "url2": "https://www.kaigokensaku.mhlw.go.jp/16/index.php?action_kouhyou_detail_004_kani=true&JigyosyoCd=1671600367-00&ServiceCd=780&Type=search" }, "geometry": { "type": "Point", "coordinates": [ 137.330660099999932, 36.6039003 ] } },
{ "type": "Feature", "properties": { "内容": "デイサービス花のいえ【地域密着型通所介護】富山県中新川郡立山町二ツ塚342", "url2": "https://www.kaigokensaku.mhlw.go.jp/16/index.php?action_kouhyou_detail_004_kani=true&JigyosyoCd=1671600771-00&ServiceCd=780&Type=search" }, "geometry": { "type": "Point", "coordinates": [ 137.3143629, 36.6849726 ] } },
{ "type": "Feature", "properties": { "内容": "でいさーびすかすがのさと【地域密着型通所介護】春日４５０－２", "url2": "https://www.kaigokensaku.mhlw.go.jp/16/index.php?action_kouhyou_detail_004_kani=true&JigyosyoCd=1671700498-00&ServiceCd=780&Type=search" }, "geometry": { "type": "Point", "coordinates": [ 137.526341300000013, 36.953157 ] } },
{ "type": "Feature", "properties": { "内容": "デイサービスセンター木ここち【地域密着型通所介護】富山県下新川郡入善町青島402-7", "url2": "https://www.kaigokensaku.mhlw.go.jp/16/index.php?action_kouhyou_detail_004_kani=true&JigyosyoCd=1691700247-00&ServiceCd=780&Type=search" }, "geometry": { "type": "Point", "coordinates": [ 137.5103739, 36.9272679 ] } },
{ "type": "Feature", "properties": { "内容": "CHA　CHA　CHA【地域密着型通所介護】富山県下新川郡入善町青木290番地", "url2": "https://www.kaigokensaku.mhlw.go.jp/16/index.php?action_kouhyou_detail_004_kani=true&JigyosyoCd=1691700254-00&ServiceCd=780&Type=search" }, "geometry": { "type": "Point", "coordinates": [ 137.482870400000024, 36.922668700000017 ] } },
{ "type": "Feature", "properties": { "内容": "富山型デイサービスはまなす【地域密着型通所介護】富山県下新川郡入善町芦崎347-4", "url2": "https://www.kaigokensaku.mhlw.go.jp/16/index.php?action_kouhyou_detail_004_kani=true&JigyosyoCd=1671700480-00&ServiceCd=780&Type=search" }, "geometry": { "type": "Point", "coordinates": [ 137.43057060000001, 36.9244002 ] } },
{ "type": "Feature", "properties": { "内容": "デイサービス雅　春日の郷【地域密着型通所介護】富山県下新川郡入善町春日450-2", "url2": "https://www.kaigokensaku.mhlw.go.jp/16/index.php?action_kouhyou_detail_004_kani=true&JigyosyoCd=1691700387-00&ServiceCd=780&Type=search" }, "geometry": { "type": "Point", "coordinates": [ 137.5263426, 36.9530629 ] } },
{ "type": "Feature", "properties": { "内容": "デイサービス樹【地域密着型通所介護】富山県下新川郡入善町横山842-1", "url2": "https://www.kaigokensaku.mhlw.go.jp/16/index.php?action_kouhyou_detail_004_kani=true&JigyosyoCd=1691700312-00&ServiceCd=780&Type=search" }, "geometry": { "type": "Point", "coordinates": [ 137.5132294, 36.9547035 ] } },
{ "type": "Feature", "properties": { "内容": "あおぞら苑【地域密着型通所介護】富山県下新川郡朝日町道下884-1", "url2": "https://www.kaigokensaku.mhlw.go.jp/16/index.php?action_kouhyou_detail_004_kani=true&JigyosyoCd=1691700221-00&ServiceCd=780&Type=search" }, "geometry": { "type": "Point", "coordinates": [ 137.562169399999988, 36.9488144 ] } },
{ "type": "Feature", "properties": { "内容": "デイサービス花日和【地域密着型通所介護】富山県下新川郡朝日町沼保1370", "url2": "https://www.kaigokensaku.mhlw.go.jp/16/index.php?action_kouhyou_detail_004_kani=true&JigyosyoCd=1671700506-00&ServiceCd=780&Type=search" }, "geometry": { "type": "Point", "coordinates": [ 137.563569, 36.9542 ] } }
]
}
