{
"type": "FeatureCollection",
"name": "geo_16_福祉用具貸与",
"crs": { "type": "name", "properties": { "name": "urn:ogc:def:crs:OGC:1.3:CRS84" } },
"features": [
{ "type": "Feature", "properties": { "内容": "有限会社　メディカル商会【福祉用具貸与】富山市清水中町3-21", "url": "https://www.kaigokensaku.mhlw.go.jp/16/index.php?action_kouhyou_detail_004_kani=true&JigyosyoCd=1670100427-00&ServiceCd=170&Type=search", "url2": null }, "geometry": { "type": "Point", "coordinates": [ 137.229583899999966, 36.6875868 ] } },
{ "type": "Feature", "properties": { "内容": "ふくし百選テックみなみ【福祉用具貸与】富山県富山市二口町五町目6番地５", "url": "https://www.kaigokensaku.mhlw.go.jp/16/index.php?action_kouhyou_detail_004_kani=true&JigyosyoCd=1670113982-00&ServiceCd=170&Type=search", "url2": "http://www1.odn.ne.jp/tec-minami/" }, "geometry": { "type": "Point", "coordinates": [ 137.203557199999977, 36.6678196 ] } },
{ "type": "Feature", "properties": { "内容": "アルク株式会社　富山支店【福祉用具貸与】富山県富山市二口町５丁目１－４", "url": "https://www.kaigokensaku.mhlw.go.jp/16/index.php?action_kouhyou_detail_004_kani=true&JigyosyoCd=1670113743-00&ServiceCd=170&Type=search", "url2": "http://aruk-medical.jp/index.html" }, "geometry": { "type": "Point", "coordinates": [ 137.202349, 36.6697082 ] } },
{ "type": "Feature", "properties": { "内容": "とやまケアマネジメントセンター笑～にこ～【福祉用具貸与】富山県富山市向新庄町5-6-24ポプリ101号", "url": "https://www.kaigokensaku.mhlw.go.jp/16/index.php?action_kouhyou_detail_004_kani=true&JigyosyoCd=1670115102-00&ServiceCd=170&Type=search", "url2": "https://nico-care.com/" }, "geometry": { "type": "Point", "coordinates": [ 137.2651311, 36.7039465 ] } },
{ "type": "Feature", "properties": { "内容": "若葉会福祉用具事業所【福祉用具貸与】富山県富山市石金一丁目2番30号", "url": "https://www.kaigokensaku.mhlw.go.jp/16/index.php?action_kouhyou_detail_004_kani=true&JigyosyoCd=1670104569-00&ServiceCd=170&Type=search", "url2": "http://www.okina.salon/" }, "geometry": { "type": "Point", "coordinates": [ 137.2341758, 36.6911962 ] } },
{ "type": "Feature", "properties": { "内容": "GRNふくし【福祉用具貸与】富山県富山市小西171番地1", "url": "https://www.kaigokensaku.mhlw.go.jp/16/index.php?action_kouhyou_detail_004_kani=true&JigyosyoCd=1670115250-00&ServiceCd=170&Type=search", "url2": "https://grnstaff.com/contents/fukushi" }, "geometry": { "type": "Point", "coordinates": [ 137.258271400000012, 36.7162981 ] } },
{ "type": "Feature", "properties": { "内容": "オークス株式会社　ライフケア事業部【福祉用具貸与】富山県富山市中島4丁目　2-14", "url": "https://www.kaigokensaku.mhlw.go.jp/16/index.php?action_kouhyou_detail_004_kani=true&JigyosyoCd=1670100658-00&ServiceCd=170&Type=search", "url2": "http://www.oarks.co.jp/business/lifecare.html" }, "geometry": { "type": "Point", "coordinates": [ 137.225646500000039, 36.7268705 ] } },
{ "type": "Feature", "properties": { "内容": "株式会社スリーティ運輸　ヘルスケア事業部　富山営業所【福祉用具貸与】富山市二口町1丁目14番11", "url": "https://www.kaigokensaku.mhlw.go.jp/16/index.php?action_kouhyou_detail_004_kani=true&JigyosyoCd=1670104551-00&ServiceCd=170&Type=search", "url2": "http://www.3ttt.co.jp" }, "geometry": { "type": "Point", "coordinates": [ 137.203122386027758, 36.671216135710722 ] } },
{ "type": "Feature", "properties": { "内容": "株式会社ケア・ワールド【福祉用具貸与】富山市布瀬町南2丁目9番地2", "url": "https://www.kaigokensaku.mhlw.go.jp/16/index.php?action_kouhyou_detail_004_kani=true&JigyosyoCd=1670102308-00&ServiceCd=170&Type=search", "url2": "http//www.cwn-web.co.jp/" }, "geometry": { "type": "Point", "coordinates": [ 137.2022055, 36.6744543 ] } },
{ "type": "Feature", "properties": { "内容": "有限会社　北陸ケアサービス【福祉用具貸与】富山県富山市水橋中村町251番地1", "url": "https://www.kaigokensaku.mhlw.go.jp/16/index.php?action_kouhyou_detail_004_kani=true&JigyosyoCd=1670101797-00&ServiceCd=170&Type=search", "url2": null }, "geometry": { "type": "Point", "coordinates": [ 137.305008499999985, 36.7572945 ] } },
{ "type": "Feature", "properties": { "内容": "ニチイケアセンター富山【福祉用具貸与】富山県富山市下奥井1-19-16", "url": "https://www.kaigokensaku.mhlw.go.jp/16/index.php?action_kouhyou_detail_004_kani=true&JigyosyoCd=1670100070-00&ServiceCd=170&Type=search", "url2": "http://www.nichiigakkan.co.jp" }, "geometry": { "type": "Point", "coordinates": [ 137.223216500000035, 36.7126499 ] } },
{ "type": "Feature", "properties": { "内容": "株式会社　えいる【福祉用具貸与】富山県富山市新庄町3丁目7-32ローズガーデン103号", "url": "https://www.kaigokensaku.mhlw.go.jp/16/index.php?action_kouhyou_detail_004_kani=true&JigyosyoCd=1670114386-00&ServiceCd=170&Type=search", "url2": "http://www.eir0702.co.jp/" }, "geometry": { "type": "Point", "coordinates": [ 137.254726593236683, 36.697514951798389 ] } },
{ "type": "Feature", "properties": { "内容": "株式会社　メディペック　富山営業所【福祉用具貸与】富山市古沢332－1", "url": "https://www.kaigokensaku.mhlw.go.jp/16/index.php?action_kouhyou_detail_004_kani=true&JigyosyoCd=1670102555-00&ServiceCd=170&Type=search", "url2": "http://www.centralmedical.co.jp/medipec01.html" }, "geometry": { "type": "Point", "coordinates": [ 137.143052, 36.6955172 ] } },
{ "type": "Feature", "properties": { "内容": "サカヰ産業株式会社富山総合ガスセンター【福祉用具貸与】富山市高木２４８１-６", "url": "https://www.kaigokensaku.mhlw.go.jp/16/index.php?action_kouhyou_detail_004_kani=true&JigyosyoCd=1670101672-00&ServiceCd=170&Type=search", "url2": "http://www.sakaisangyo.co.jp" }, "geometry": { "type": "Point", "coordinates": [ 137.154697700000042, 36.7186587 ] } },
{ "type": "Feature", "properties": { "内容": "ソーロング株式会社【福祉用具貸与】向新庄町7-8-16", "url": "https://www.kaigokensaku.mhlw.go.jp/16/index.php?action_kouhyou_detail_004_kani=true&JigyosyoCd=1670104874-00&ServiceCd=170&Type=search", "url2": null }, "geometry": { "type": "Point", "coordinates": [ 137.265075700000011, 36.7038565 ] } },
{ "type": "Feature", "properties": { "内容": "シルバーサポート富山店【福祉用具貸与】富山県富山市呉羽町６２４３－５", "url": "https://www.kaigokensaku.mhlw.go.jp/16/index.php?action_kouhyou_detail_004_kani=true&JigyosyoCd=1670114576-00&ServiceCd=170&Type=search", "url2": "https://www.ramico.co.jp/" }, "geometry": { "type": "Point", "coordinates": [ 137.169948699999964, 36.711037100000034 ] } },
{ "type": "Feature", "properties": { "内容": "株式会社エマーブル【福祉用具貸与】富山県富山市牛島本町一丁目5番4号", "url": "https://www.kaigokensaku.mhlw.go.jp/16/index.php?action_kouhyou_detail_004_kani=true&JigyosyoCd=1670115151-00&ServiceCd=170&Type=search", "url2": null }, "geometry": { "type": "Point", "coordinates": [ 137.209758161362515, 36.704230309375696 ] } },
{ "type": "Feature", "properties": { "内容": "株式会社オリーブ【福祉用具貸与】富山県富山市掛尾栄町2番地2", "url": "https://www.kaigokensaku.mhlw.go.jp/16/index.php?action_kouhyou_detail_004_kani=true&JigyosyoCd=1670114519-00&ServiceCd=170&Type=search", "url2": "olive-k.com/senior/index.html" }, "geometry": { "type": "Point", "coordinates": [ 137.207772811078485, 36.668082674483252 ] } },
{ "type": "Feature", "properties": { "内容": "ケア・サンエス　富山【福祉用具貸与】富山市　黒崎　１２２－１", "url": "https://www.kaigokensaku.mhlw.go.jp/16/index.php?action_kouhyou_detail_004_kani=true&JigyosyoCd=1670102563-00&ServiceCd=170&Type=search", "url2": "http://care.kyoei-d.co.jp" }, "geometry": { "type": "Point", "coordinates": [ 137.210051300000032, 36.648436 ] } },
{ "type": "Feature", "properties": { "内容": "株式会社サンスイコーポレーション【福祉用具貸与】富山県富山市上冨居二丁目９番67号", "url": "https://www.kaigokensaku.mhlw.go.jp/16/index.php?action_kouhyou_detail_004_kani=true&JigyosyoCd=1670114634-00&ServiceCd=170&Type=search", "url2": null }, "geometry": { "type": "Point", "coordinates": [ 137.2426408, 36.7074974 ] } },
{ "type": "Feature", "properties": { "内容": "ダスキンヘルスレント富山ステーション【福祉用具貸与】富山市新庄町1-16-14", "url": "https://www.kaigokensaku.mhlw.go.jp/16/index.php?action_kouhyou_detail_004_kani=true&JigyosyoCd=1670103298-00&ServiceCd=170&Type=search", "url2": "http://www.kasite.net/health/" }, "geometry": { "type": "Point", "coordinates": [ 137.253853837396349, 36.700956791160301 ] } },
{ "type": "Feature", "properties": { "内容": "富山西福祉サービス【福祉用具貸与】富山県富山市婦中町下轡田１０１９", "url": "https://www.kaigokensaku.mhlw.go.jp/16/index.php?action_kouhyou_detail_004_kani=true&JigyosyoCd=1670114865-00&ServiceCd=170&Type=search", "url2": "flag-ship@toyama-nishi.jp" }, "geometry": { "type": "Point", "coordinates": [ 137.174841036245738, 36.660167083612997 ] } },
{ "type": "Feature", "properties": { "内容": "株式会社　ヤマシタ　富山営業所【福祉用具貸与】富山県富山市掛尾町５２０－１", "url": "https://www.kaigokensaku.mhlw.go.jp/16/index.php?action_kouhyou_detail_004_kani=true&JigyosyoCd=1670100294-00&ServiceCd=170&Type=search", "url2": "http://www.yco.co.jp" }, "geometry": { "type": "Point", "coordinates": [ 137.208581699999968, 36.6626231 ] } },
{ "type": "Feature", "properties": { "内容": "株式会社　ハシノメディカル　富山【福祉用具貸与】黒崎612-1", "url": "https://www.kaigokensaku.mhlw.go.jp/16/index.php?action_kouhyou_detail_004_kani=true&JigyosyoCd=1670113057-00&ServiceCd=170&Type=search", "url2": "http://www.hashino-medical.co.jp" }, "geometry": { "type": "Point", "coordinates": [ 137.202668600000038, 36.6551044 ] } },
{ "type": "Feature", "properties": { "内容": "(株)富山県義肢製作所【福祉用具貸与】富山市泉町１丁目２-１６", "url": "https://www.kaigokensaku.mhlw.go.jp/16/index.php?action_kouhyou_detail_004_kani=true&JigyosyoCd=1670100187-00&ServiceCd=170&Type=search", "url2": "https://www.tpo-morita.com/" }, "geometry": { "type": "Point", "coordinates": [ 137.2237007, 36.6921749 ] } },
{ "type": "Feature", "properties": { "内容": "株式会社蓮【福祉用具貸与】富山県富山市才覚寺280-1", "url": "https://www.kaigokensaku.mhlw.go.jp/16/index.php?action_kouhyou_detail_004_kani=true&JigyosyoCd=1670115193-00&ServiceCd=170&Type=search", "url2": null }, "geometry": { "type": "Point", "coordinates": [ 137.194470399999972, 36.6569819 ] } },
{ "type": "Feature", "properties": { "内容": "小野医療器株式会社オノケア事業部富山営業所【福祉用具貸与】富山県富山市黒瀬455-1", "url": "https://www.kaigokensaku.mhlw.go.jp/16/index.php?action_kouhyou_detail_004_kani=true&JigyosyoCd=1670103439-00&ServiceCd=170&Type=search", "url2": "http://ono-iryouki.co.jp/" }, "geometry": { "type": "Point", "coordinates": [ 137.20157192424864, 36.661600019664633 ] } },
{ "type": "Feature", "properties": { "内容": "青い鳥株式会社【福祉用具貸与】富山県富山市根塚町3丁目9番12", "url": "https://www.kaigokensaku.mhlw.go.jp/16/index.php?action_kouhyou_detail_004_kani=true&JigyosyoCd=1670102084-00&ServiceCd=170&Type=search", "url2": null }, "geometry": { "type": "Point", "coordinates": [ 137.2071234, 36.670561 ] } },
{ "type": "Feature", "properties": { "内容": "富山寝具　株式会社【福祉用具貸与】富山市新庄町4-3-3", "url": "https://www.kaigokensaku.mhlw.go.jp/16/index.php?action_kouhyou_detail_004_kani=true&JigyosyoCd=1670112083-00&ServiceCd=170&Type=search", "url2": "https://www.toyamashingu.com/" }, "geometry": { "type": "Point", "coordinates": [ 137.254790100000037, 36.6965416 ] } },
{ "type": "Feature", "properties": { "内容": "北酸株式会社　医療事業部【福祉用具貸与】富山県富山市荒川１丁目１番８８号", "url": "https://www.kaigokensaku.mhlw.go.jp/16/index.php?action_kouhyou_detail_004_kani=true&JigyosyoCd=1670100278-00&ServiceCd=170&Type=search", "url2": "http://www.hokusan.co.jp" }, "geometry": { "type": "Point", "coordinates": [ 137.245518299999958, 36.7007631 ] } },
{ "type": "Feature", "properties": { "内容": "ふくし百選【福祉用具貸与】富山市上冨居2丁目2番27号", "url": "https://www.kaigokensaku.mhlw.go.jp/16/index.php?action_kouhyou_detail_004_kani=true&JigyosyoCd=1670105046-00&ServiceCd=170&Type=search", "url2": "http://www.hs-k.co.jp/" }, "geometry": { "type": "Point", "coordinates": [ 137.24151560316605, 36.710516682160602 ] } },
{ "type": "Feature", "properties": { "内容": "有限会社尚栄　福祉事業部【福祉用具貸与】富山県富山市古沢631番地", "url": "https://www.kaigokensaku.mhlw.go.jp/16/index.php?action_kouhyou_detail_004_kani=true&JigyosyoCd=1670114428-00&ServiceCd=170&Type=search", "url2": "http://www.syoei-group.co.jp" }, "geometry": { "type": "Point", "coordinates": [ 137.144482399999987, 36.6893707 ] } },
{ "type": "Feature", "properties": { "内容": "Coco楽笑福祉用具レンタル【福祉用具貸与】富山県富山市蓮町４丁目6-3Coco楽笑", "url": "https://www.kaigokensaku.mhlw.go.jp/16/index.php?action_kouhyou_detail_004_kani=true&JigyosyoCd=1670115391-00&ServiceCd=170&Type=search", "url2": null }, "geometry": { "type": "Point", "coordinates": [ 137.231656983467133, 36.741641780955717 ] } },
{ "type": "Feature", "properties": { "内容": "日本海綿業株式会社【福祉用具貸与】富山県富山市飯野２－３", "url": "https://www.kaigokensaku.mhlw.go.jp/16/index.php?action_kouhyou_detail_004_kani=true&JigyosyoCd=1670100286-00&ServiceCd=170&Type=search", "url2": "http://www.nmk-go.jp/care/" }, "geometry": { "type": "Point", "coordinates": [ 137.252484099999947, 36.7164753 ] } },
{ "type": "Feature", "properties": { "内容": "株式会社トーカイ富山営業所【福祉用具貸与】富山県富山市黒崎６２０番１", "url": "https://www.kaigokensaku.mhlw.go.jp/16/index.php?action_kouhyou_detail_004_kani=true&JigyosyoCd=1670101847-00&ServiceCd=170&Type=search", "url2": "http://www.tokai-corp.com/" }, "geometry": { "type": "Point", "coordinates": [ 137.202088099999969, 36.6543156 ] } },
{ "type": "Feature", "properties": { "内容": "ニチイケアセンター能町【福祉用具貸与】富山県高岡市能町南2-25", "url": "https://www.kaigokensaku.mhlw.go.jp/16/index.php?action_kouhyou_detail_004_kani=true&JigyosyoCd=1670200599-00&ServiceCd=170&Type=search", "url2": "http://www.nichiigakkan.co.jp" }, "geometry": { "type": "Point", "coordinates": [ 137.043037599999934, 36.7647118 ] } },
{ "type": "Feature", "properties": { "内容": "ふくし百選高岡【福祉用具貸与】高岡市佐野1197-4", "url": "https://www.kaigokensaku.mhlw.go.jp/16/index.php?action_kouhyou_detail_004_kani=true&JigyosyoCd=1670202488-00&ServiceCd=170&Type=search", "url2": "http://www.hs-k.co.jp/" }, "geometry": { "type": "Point", "coordinates": [ 137.0005188, 36.7286154 ] } },
{ "type": "Feature", "properties": { "内容": "有限会社　津田医療器【福祉用具貸与】富山県高岡市波岡４６番３号", "url": "https://www.kaigokensaku.mhlw.go.jp/16/index.php?action_kouhyou_detail_004_kani=true&JigyosyoCd=1670200474-00&ServiceCd=170&Type=search", "url2": "http://www.tsudairyoki.co.jp/" }, "geometry": { "type": "Point", "coordinates": [ 136.991323400000027, 36.752785 ] } },
{ "type": "Feature", "properties": { "内容": "福祉用具レンタル　あいの風【福祉用具貸与】野村1548番地1", "url": "https://www.kaigokensaku.mhlw.go.jp/16/index.php?action_kouhyou_detail_004_kani=true&JigyosyoCd=1670201936-00&ServiceCd=170&Type=search", "url2": null }, "geometry": { "type": "Point", "coordinates": [ 137.04150547039572, 36.75802276447056 ] } },
{ "type": "Feature", "properties": { "内容": "株式会社龍雲【福祉用具貸与】富山県高岡市野村1243-1", "url": "https://www.kaigokensaku.mhlw.go.jp/16/index.php?action_kouhyou_detail_004_kani=true&JigyosyoCd=1670203080-00&ServiceCd=170&Type=search", "url2": null }, "geometry": { "type": "Point", "coordinates": [ 137.0388901, 36.7530998 ] } },
{ "type": "Feature", "properties": { "内容": "ミライ【福祉用具貸与】富山県高岡市問屋町38", "url": "https://www.kaigokensaku.mhlw.go.jp/16/index.php?action_kouhyou_detail_004_kani=true&JigyosyoCd=1670202512-00&ServiceCd=170&Type=search", "url2": "https://m-irai.com/" }, "geometry": { "type": "Point", "coordinates": [ 137.026473799999962, 36.7298132 ] } },
{ "type": "Feature", "properties": { "内容": "ケアスタジオ福祉用具ショップ【福祉用具貸与】富山県高岡市蓮美町5-45", "url": "https://www.kaigokensaku.mhlw.go.jp/16/index.php?action_kouhyou_detail_004_kani=true&JigyosyoCd=1670202876-00&ServiceCd=170&Type=search", "url2": "https://www.care-s.com" }, "geometry": { "type": "Point", "coordinates": [ 137.0092128, 36.7371737 ] } },
{ "type": "Feature", "properties": { "内容": "株式会社　トミキライフケア高岡支店【福祉用具貸与】富山県高岡市内免４丁目６－３８", "url": "https://www.kaigokensaku.mhlw.go.jp/16/index.php?action_kouhyou_detail_004_kani=true&JigyosyoCd=1670200144-00&ServiceCd=170&Type=search", "url2": "http://www.tomiki-lc.co.jp" }, "geometry": { "type": "Point", "coordinates": [ 137.0070548, 36.7574597 ] } },
{ "type": "Feature", "properties": { "内容": "株式会社　スマイルケア【福祉用具貸与】富山県高岡市昭和町2丁目2番8号", "url": "https://www.kaigokensaku.mhlw.go.jp/16/index.php?action_kouhyou_detail_004_kani=true&JigyosyoCd=1670200508-00&ServiceCd=170&Type=search", "url2": null }, "geometry": { "type": "Point", "coordinates": [ 137.0000011, 36.7557903 ] } },
{ "type": "Feature", "properties": { "内容": "ハートフルケア【福祉用具貸与】古定塚５－４５", "url": "https://www.kaigokensaku.mhlw.go.jp/16/index.php?action_kouhyou_detail_004_kani=true&JigyosyoCd=1670201787-00&ServiceCd=170&Type=search", "url2": "http://www.heartfulcare.net/" }, "geometry": { "type": "Point", "coordinates": [ 137.033613800000012, 36.7522772 ] } },
{ "type": "Feature", "properties": { "内容": "株式会社ハピネス【福祉用具貸与】富山県高岡市野村1355-9", "url": "https://www.kaigokensaku.mhlw.go.jp/16/index.php?action_kouhyou_detail_004_kani=true&JigyosyoCd=1670202298-00&ServiceCd=170&Type=search", "url2": "http://www.happiness-rental.co.jp" }, "geometry": { "type": "Point", "coordinates": [ 137.041254799999933, 36.755901800000011 ] } },
{ "type": "Feature", "properties": { "内容": "株式会社永田メディカル　ヘルス事業部【福祉用具貸与】富山県高岡市問屋町12番地", "url": "https://www.kaigokensaku.mhlw.go.jp/16/index.php?action_kouhyou_detail_004_kani=true&JigyosyoCd=1670202611-00&ServiceCd=170&Type=search", "url2": "http://www.nagata-medical.com" }, "geometry": { "type": "Point", "coordinates": [ 137.024991518420023, 36.730912378859735 ] } },
{ "type": "Feature", "properties": { "内容": "合同会社　ケアレンタルげんき【福祉用具貸与】富山県高岡市佐野580番地", "url": "https://www.kaigokensaku.mhlw.go.jp/16/index.php?action_kouhyou_detail_004_kani=true&JigyosyoCd=1670202637-00&ServiceCd=170&Type=search", "url2": null }, "geometry": { "type": "Point", "coordinates": [ 136.993816231358323, 36.722632691605391 ] } },
{ "type": "Feature", "properties": { "内容": "射水万葉会福祉用具貸与事業所【福祉用具貸与】富山県高岡市野村1817", "url": "https://www.kaigokensaku.mhlw.go.jp/16/index.php?action_kouhyou_detail_004_kani=true&JigyosyoCd=1671100061-00&ServiceCd=170&Type=search", "url2": "http://www.imizu-manyoukai.or.jp/" }, "geometry": { "type": "Point", "coordinates": [ 137.042217876627205, 36.762494844741987 ] } },
{ "type": "Feature", "properties": { "内容": "つなぐ【福祉用具貸与】富山県高岡市木津769-1", "url": "https://www.kaigokensaku.mhlw.go.jp/16/index.php?action_kouhyou_detail_004_kani=true&JigyosyoCd=1670202686-00&ServiceCd=170&Type=search", "url2": "https://goto-t.co.jp/" }, "geometry": { "type": "Point", "coordinates": [ 136.994569, 36.735508 ] } },
{ "type": "Feature", "properties": { "内容": "福祉用具レンタルあいの風【福祉用具貸与】富山県高岡市野村1548番地1", "url": "https://www.kaigokensaku.mhlw.go.jp/16/index.php?action_kouhyou_detail_004_kani=true&JigyosyoCd=1670203064-00&ServiceCd=170&Type=search", "url2": "https://www.ainokaze.ne.jp/" }, "geometry": { "type": "Point", "coordinates": [ 137.0414994, 36.7579821 ] } },
{ "type": "Feature", "properties": { "内容": "まるしん【福祉用具貸与】富山県高岡市伏木一宮2丁目9番13号", "url": "https://www.kaigokensaku.mhlw.go.jp/16/index.php?action_kouhyou_detail_004_kani=true&JigyosyoCd=1670201712-00&ServiceCd=170&Type=search", "url2": "http://www.marushin-takaoka.co.jp/" }, "geometry": { "type": "Point", "coordinates": [ 137.051144146627024, 36.79947817743836 ] } },
{ "type": "Feature", "properties": { "内容": "株式会社エマーブル　高岡営業所【福祉用具貸与】富山県高岡市宝町7番8号", "url": "https://www.kaigokensaku.mhlw.go.jp/16/index.php?action_kouhyou_detail_004_kani=true&JigyosyoCd=1670203106-00&ServiceCd=170&Type=search", "url2": "https://aimable.life/" }, "geometry": { "type": "Point", "coordinates": [ 137.0273231, 36.7562371 ] } },
{ "type": "Feature", "properties": { "内容": "株式会社　ほのか【福祉用具貸与】富山県高岡市宝町７－２７", "url": "https://www.kaigokensaku.mhlw.go.jp/16/index.php?action_kouhyou_detail_004_kani=true&JigyosyoCd=1670201969-00&ServiceCd=170&Type=search", "url2": null }, "geometry": { "type": "Point", "coordinates": [ 137.026242, 36.7557129 ] } },
{ "type": "Feature", "properties": { "内容": "株式会社ハートケアサービス【福祉用具貸与】魚津市住吉1860番地1", "url": "https://www.kaigokensaku.mhlw.go.jp/16/index.php?action_kouhyou_detail_004_kani=true&JigyosyoCd=1670400249-00&ServiceCd=170&Type=search", "url2": null }, "geometry": { "type": "Point", "coordinates": [ 137.401238700000022, 36.8038721 ] } },
{ "type": "Feature", "properties": { "内容": "有限会社タカラ福祉企画【福祉用具貸与】富山県魚津市中央通り２丁目２番２５号", "url": "https://www.kaigokensaku.mhlw.go.jp/16/index.php?action_kouhyou_detail_004_kani=true&JigyosyoCd=1670400462-00&ServiceCd=170&Type=search", "url2": null }, "geometry": { "type": "Point", "coordinates": [ 137.40046289999998, 36.8187068 ] } },
{ "type": "Feature", "properties": { "内容": "有限会社　磯辺家具店【福祉用具貸与】氷見市上泉４２６番地", "url": "https://www.kaigokensaku.mhlw.go.jp/16/index.php?action_kouhyou_detail_004_kani=true&JigyosyoCd=1670500584-00&ServiceCd=170&Type=search", "url2": null }, "geometry": { "type": "Point", "coordinates": [ 136.996477700000014, 36.8227425 ] } },
{ "type": "Feature", "properties": { "内容": "社会福祉法人　氷見市社会福祉協議会【福祉用具貸与】富山県氷見市鞍川975", "url": "https://www.kaigokensaku.mhlw.go.jp/16/index.php?action_kouhyou_detail_004_kani=true&JigyosyoCd=1670500147-00&ServiceCd=170&Type=search", "url2": "http://www.himi-shakyo.jp/" }, "geometry": { "type": "Point", "coordinates": [ 136.97443480000004, 36.8555201 ] } },
{ "type": "Feature", "properties": { "内容": "(株)　西条ヘルスケアサービス【福祉用具貸与】富山県氷見市柳田1354番地", "url": "https://www.kaigokensaku.mhlw.go.jp/16/index.php?action_kouhyou_detail_004_kani=true&JigyosyoCd=1670500170-00&ServiceCd=170&Type=search", "url2": null }, "geometry": { "type": "Point", "coordinates": [ 136.999063500000034, 36.8268976 ] } },
{ "type": "Feature", "properties": { "内容": "有限会社　ハウズケア　トナミ【福祉用具貸与】富山県滑川市道寺２２番地", "url": "https://www.kaigokensaku.mhlw.go.jp/16/index.php?action_kouhyou_detail_004_kani=true&JigyosyoCd=1670600228-00&ServiceCd=170&Type=search", "url2": "hauzucare.jp" }, "geometry": { "type": "Point", "coordinates": [ 137.388779200000045, 36.749006 ] } },
{ "type": "Feature", "properties": { "内容": "株式会社　北陸ケアサポート【福祉用具貸与】富山県滑川市菰原65-1", "url": "https://www.kaigokensaku.mhlw.go.jp/16/index.php?action_kouhyou_detail_004_kani=true&JigyosyoCd=1670600566-00&ServiceCd=170&Type=search", "url2": null }, "geometry": { "type": "Point", "coordinates": [ 137.3344243, 36.7531481 ] } },
{ "type": "Feature", "properties": { "内容": "株式会社スマイルサポートわかば【福祉用具貸与】富山県黒部市前沢2339", "url": "https://www.kaigokensaku.mhlw.go.jp/16/index.php?action_kouhyou_detail_004_kani=true&JigyosyoCd=1670700523-00&ServiceCd=170&Type=search", "url2": null }, "geometry": { "type": "Point", "coordinates": [ 137.441789400000062, 36.863048 ] } },
{ "type": "Feature", "properties": { "内容": "ライフサポート笑【福祉用具貸与】富山県黒部市立野131番地1", "url": "https://www.kaigokensaku.mhlw.go.jp/16/index.php?action_kouhyou_detail_004_kani=true&JigyosyoCd=1670700465-00&ServiceCd=170&Type=search", "url2": "http://www.rebirth-workshop.com/" }, "geometry": { "type": "Point", "coordinates": [ 137.422739955819679, 36.876272026581454 ] } },
{ "type": "Feature", "properties": { "内容": "アルコットケア株式会社【福祉用具貸与】富山県黒部市植木491-1", "url": "https://www.kaigokensaku.mhlw.go.jp/16/index.php?action_kouhyou_detail_004_kani=true&JigyosyoCd=1670700580-00&ServiceCd=170&Type=search", "url2": "https://arcotto-care.co.jp/" }, "geometry": { "type": "Point", "coordinates": [ 137.4469116, 36.8819447 ] } },
{ "type": "Feature", "properties": { "内容": "株式会社ベストケアメディカル【福祉用具貸与】富山県砺波市東石丸372-1TDCビル１階", "url": "https://www.kaigokensaku.mhlw.go.jp/16/index.php?action_kouhyou_detail_004_kani=true&JigyosyoCd=1670800109-00&ServiceCd=170&Type=search", "url2": "http://www.bcm.jp" }, "geometry": { "type": "Point", "coordinates": [ 136.982676099999907, 36.664109 ] } },
{ "type": "Feature", "properties": { "内容": "株式会社スリーティ運輸ヘルスケア事業部砺波営業所【福祉用具貸与】富山県砺波市鷹栖1907番地", "url": "https://www.kaigokensaku.mhlw.go.jp/16/index.php?action_kouhyou_detail_004_kani=true&JigyosyoCd=1670900073-00&ServiceCd=170&Type=search", "url2": "http://www.3ttt.co.jp" }, "geometry": { "type": "Point", "coordinates": [ 136.916816299999937, 36.6233805 ] } },
{ "type": "Feature", "properties": { "内容": "小野医療器株式会社オノケア事業部【福祉用具貸与】富山県砺波市新又152-2", "url": "https://www.kaigokensaku.mhlw.go.jp/16/index.php?action_kouhyou_detail_004_kani=true&JigyosyoCd=1670800026-00&ServiceCd=170&Type=search", "url2": "http://ono-iryouki.co.jp/" }, "geometry": { "type": "Point", "coordinates": [ 136.962541713736158, 36.650037323251922 ] } },
{ "type": "Feature", "properties": { "内容": "有限会社　北陸アーム・サービス【福祉用具貸与】富山県小矢部市中央町8-18", "url": "https://www.kaigokensaku.mhlw.go.jp/16/index.php?action_kouhyou_detail_004_kani=true&JigyosyoCd=1670900164-00&ServiceCd=170&Type=search", "url2": "http://pc-99box.com/arms/index.html" }, "geometry": { "type": "Point", "coordinates": [ 136.866133499999933, 36.6762555 ] } },
{ "type": "Feature", "properties": { "内容": "ケアパートナー三ツ葉【福祉用具貸与】富山県小矢部市平桜6265番地", "url": "https://www.kaigokensaku.mhlw.go.jp/16/index.php?action_kouhyou_detail_004_kani=true&JigyosyoCd=1670900040-00&ServiceCd=170&Type=search", "url2": null }, "geometry": { "type": "Point", "coordinates": [ 136.839269205259427, 36.633562487053375 ] } },
{ "type": "Feature", "properties": { "内容": "クララのおてつだい【福祉用具貸与】山見京願１７３９番地の２井波ショッピングセンターアスモ１階", "url": "https://www.kaigokensaku.mhlw.go.jp/16/index.php?action_kouhyou_detail_004_kani=true&JigyosyoCd=1671000360-00&ServiceCd=170&Type=search", "url2": "https://www.yabukogyo.com/" }, "geometry": { "type": "Point", "coordinates": [ 136.968519515344269, 36.565587093316843 ] } },
{ "type": "Feature", "properties": { "内容": "福祉レンタルこもれび【福祉用具貸与】富山県南砺市福野1657番地1", "url": "https://www.kaigokensaku.mhlw.go.jp/16/index.php?action_kouhyou_detail_004_kani=true&JigyosyoCd=1671000444-00&ServiceCd=170&Type=search", "url2": null }, "geometry": { "type": "Point", "coordinates": [ 136.920982900000013, 36.5925988 ] } },
{ "type": "Feature", "properties": { "内容": "株式会社エムアンドティ【福祉用具貸与】城端４３１６－１ＪＥＣビル１Ｆ", "url": "https://www.kaigokensaku.mhlw.go.jp/16/index.php?action_kouhyou_detail_004_kani=true&JigyosyoCd=1671000170-00&ServiceCd=170&Type=search", "url2": "http://www.m-t.co.jp/" }, "geometry": { "type": "Point", "coordinates": [ 136.901484799999906, 36.5119661 ] } },
{ "type": "Feature", "properties": { "内容": "旅川福祉用具貸与事業所【福祉用具貸与】富山県南砺市院林92番地1", "url": "https://www.kaigokensaku.mhlw.go.jp/16/index.php?action_kouhyou_detail_004_kani=true&JigyosyoCd=1672000146-00&ServiceCd=170&Type=search", "url2": "http://fukuju.jp/" }, "geometry": { "type": "Point", "coordinates": [ 136.908992500000068, 36.5909874 ] } },
{ "type": "Feature", "properties": { "内容": "ワイズケアステーション【福祉用具貸与】富山県射水市赤井104-1", "url": "https://www.kaigokensaku.mhlw.go.jp/16/index.php?action_kouhyou_detail_004_kani=true&JigyosyoCd=1671100780-00&ServiceCd=170&Type=search", "url2": "https://www.ys-carestation.com" }, "geometry": { "type": "Point", "coordinates": [ 137.0719401, 36.7316841 ] } },
{ "type": "Feature", "properties": { "内容": "株式会社　ウィル【福祉用具貸与】富山県射水市黒河3075", "url": "https://www.kaigokensaku.mhlw.go.jp/16/index.php?action_kouhyou_detail_004_kani=true&JigyosyoCd=1671900064-00&ServiceCd=170&Type=search", "url2": null }, "geometry": { "type": "Point", "coordinates": [ 137.1102747, 36.7019127 ] } },
{ "type": "Feature", "properties": { "内容": "ダスキンヘルスレント射水ステーション【福祉用具貸与】富山県射水市鷲塚１０６－２", "url": "https://www.kaigokensaku.mhlw.go.jp/16/index.php?action_kouhyou_detail_004_kani=true&JigyosyoCd=1671100087-00&ServiceCd=170&Type=search", "url2": "https://duskin-takaoka.jp/" }, "geometry": { "type": "Point", "coordinates": [ 137.121686700000026, 36.720308 ] } },
{ "type": "Feature", "properties": { "内容": "株式会社カインドハート【福祉用具貸与】富山県中新川郡立山町前沢新町657番地ファーストガーデン1F", "url": "https://www.kaigokensaku.mhlw.go.jp/16/index.php?action_kouhyou_detail_004_kani=true&JigyosyoCd=1671600854-00&ServiceCd=170&Type=search", "url2": "https://kindheart.hatenablog.com/" }, "geometry": { "type": "Point", "coordinates": [ 137.313077986785856, 36.665700344699566 ] } },
{ "type": "Feature", "properties": { "内容": "菅原建設株式会社ライフケア事業部【福祉用具貸与】富山県中新川郡立山町金剛寺81番地", "url": "https://www.kaigokensaku.mhlw.go.jp/16/index.php?action_kouhyou_detail_004_kani=true&JigyosyoCd=1671600870-00&ServiceCd=170&Type=search", "url2": "http://www.sugahara-k.com/" }, "geometry": { "type": "Point", "coordinates": [ 137.3361923, 36.644019 ] } },
{ "type": "Feature", "properties": { "内容": "株式会社アート工房ハート工房事業部【福祉用具貸与】富山県下新川郡入善町田中１６４－１", "url": "https://www.kaigokensaku.mhlw.go.jp/16/index.php?action_kouhyou_detail_004_kani=true&JigyosyoCd=1671700456-00&ServiceCd=170&Type=search", "url2": "http://www.art-koubou.co.jp/heart/" }, "geometry": { "type": "Point", "coordinates": [ 137.490276200000039, 36.9450836 ] } },
{ "type": "Feature", "properties": { "内容": "株式会社　イリス【福祉用具貸与】富山県下新川郡入善町入膳3436番地4", "url": "https://www.kaigokensaku.mhlw.go.jp/16/index.php?action_kouhyou_detail_004_kani=true&JigyosyoCd=1671700217-00&ServiceCd=170&Type=search", "url2": "http://www.iris-cherish.com/" }, "geometry": { "type": "Point", "coordinates": [ 137.504744100000039, 36.9324723 ] } },
{ "type": "Feature", "properties": { "内容": "小沢薬品株式会社　介護サービス部【福祉用具貸与】富山県下新川郡朝日町泊317", "url": "https://www.kaigokensaku.mhlw.go.jp/16/index.php?action_kouhyou_detail_004_kani=true&JigyosyoCd=1671700415-00&ServiceCd=170&Type=search", "url2": "https://kozawa.hans-pharmacy.co.jp/" }, "geometry": { "type": "Point", "coordinates": [ 137.560984215344206, 36.95701164009396 ] } }
]
}
