{
"type": "FeatureCollection",
"name": "geo_16_小規模多機能型居宅介護",
"crs": { "type": "name", "properties": { "name": "urn:ogc:def:crs:OGC:1.3:CRS84" } },
"features": [
{ "type": "Feature", "properties": { "内容": "しょうきぼたきのうがたきょたくかいごじぎょうしょ　ひかりえん【小規模多機能型居宅介護】西田地方町2丁目10番11", "url": "https://www.kaigokensaku.mhlw.go.jp/16/index.php?action_kouhyou_detail_004_kani=true&JigyosyoCd=1690100530-00&ServiceCd=730&Type=search", "url2": "http://www.auone-net.jp/^funankai" }, "geometry": { "type": "Point", "coordinates": [ 137.2054842, 36.682623 ] } },
{ "type": "Feature", "properties": { "内容": "医療法人　社団　恵成会　ふれあいホ－ムめぐみ【小規模多機能型居宅介護】富山市塚原195-1", "url": "https://www.kaigokensaku.mhlw.go.jp/16/index.php?action_kouhyou_detail_004_kani=true&JigyosyoCd=1690100191-00&ServiceCd=730&Type=search", "url2": "http://www.keiseikai-toyama.jp" }, "geometry": { "type": "Point", "coordinates": [ 137.193608400000016, 36.6586481 ] } },
{ "type": "Feature", "properties": { "内容": "小規模多機能型居宅介護　ピカソ【小規模多機能型居宅介護】富山市八尾町井田６１０－１", "url": "https://www.kaigokensaku.mhlw.go.jp/16/index.php?action_kouhyou_detail_004_kani=true&JigyosyoCd=1690100100-00&ServiceCd=730&Type=search", "url2": "http：//haginoiin.jp/" }, "geometry": { "type": "Point", "coordinates": [ 137.149133, 36.60139 ] } },
{ "type": "Feature", "properties": { "内容": "ケアセンター　やまびこ【小規模多機能型居宅介護】春日３６５－１", "url": "https://www.kaigokensaku.mhlw.go.jp/16/index.php?action_kouhyou_detail_004_kani=true&JigyosyoCd=1690100308-00&ServiceCd=730&Type=search", "url2": "http://toyama-souseikai.or.jp/yamabiko/" }, "geometry": { "type": "Point", "coordinates": [ 137.2053237, 36.5627985 ] } },
{ "type": "Feature", "properties": { "内容": "小規模多機能型居宅介護事業所　至宝舘【小規模多機能型居宅介護】堀川町４６５－１", "url": "https://www.kaigokensaku.mhlw.go.jp/16/index.php?action_kouhyou_detail_004_kani=true&JigyosyoCd=1690100506-00&ServiceCd=730&Type=search", "url2": "http://shihoukai.or.jp/" }, "geometry": { "type": "Point", "coordinates": [ 137.217261300000018, 36.6611902 ] } },
{ "type": "Feature", "properties": { "内容": "ありがとうホーム　新庄【小規模多機能型居宅介護】新庄北町31-36", "url": "https://www.kaigokensaku.mhlw.go.jp/16/index.php?action_kouhyou_detail_004_kani=true&JigyosyoCd=1690100647-00&ServiceCd=730&Type=search", "url2": "http://www5.ocn.ne.jp/~mitaho/himi/inndex.htm" }, "geometry": { "type": "Point", "coordinates": [ 137.264480400000025, 36.713426 ] } },
{ "type": "Feature", "properties": { "内容": "小規模多機能ホーム和み家花芙蓉【小規模多機能型居宅介護】富山市掛尾町540－1", "url": "https://www.kaigokensaku.mhlw.go.jp/16/index.php?action_kouhyou_detail_004_kani=true&JigyosyoCd=1690100415-00&ServiceCd=730&Type=search", "url2": null }, "geometry": { "type": "Point", "coordinates": [ 137.208081799999945, 36.6621148 ] } },
{ "type": "Feature", "properties": { "内容": "小規模多機能型居宅介護　ケアセンターおおくぼ【小規模多機能型居宅介護】富山県富山市下大久保１５３０－１", "url": "https://www.kaigokensaku.mhlw.go.jp/16/index.php?action_kouhyou_detail_004_kani=true&JigyosyoCd=1690100670-00&ServiceCd=730&Type=search", "url2": "http://toyama-souseikai.or.jp/carepark/carecenter" }, "geometry": { "type": "Point", "coordinates": [ 137.207941399999982, 36.6097901 ] } },
{ "type": "Feature", "properties": { "内容": "小規模多機能ホームくれはの郷【小規模多機能型居宅介護】富山県富山市呉羽町３９１８－１５０", "url": "https://www.kaigokensaku.mhlw.go.jp/16/index.php?action_kouhyou_detail_004_kani=true&JigyosyoCd=1690100688-00&ServiceCd=730&Type=search", "url2": "http://www.webintelligence.co.jp" }, "geometry": { "type": "Point", "coordinates": [ 137.173779413630683, 36.718044209174153 ] } },
{ "type": "Feature", "properties": { "内容": "輝かみいいの【小規模多機能型居宅介護】上飯野14-3", "url": "https://www.kaigokensaku.mhlw.go.jp/16/index.php?action_kouhyou_detail_004_kani=true&JigyosyoCd=1690101660-00&ServiceCd=730&Type=search", "url2": null }, "geometry": { "type": "Point", "coordinates": [ 137.2508029, 36.7056721 ] } },
{ "type": "Feature", "properties": { "内容": "なかまちの家【小規模多機能型居宅介護】富山市針原中町４１５－１なかまちケアタウン", "url": "https://www.kaigokensaku.mhlw.go.jp/16/index.php?action_kouhyou_detail_004_kani=true&JigyosyoCd=1690100068-00&ServiceCd=730&Type=search", "url2": "http://seikeikaitoyama.com/" }, "geometry": { "type": "Point", "coordinates": [ 137.265202199999976, 36.7253746 ] } },
{ "type": "Feature", "properties": { "内容": "小規模多機能型居宅介護あらた【小規模多機能型居宅介護】富山市新庄北町31-36", "url": "https://www.kaigokensaku.mhlw.go.jp/16/index.php?action_kouhyou_detail_004_kani=true&JigyosyoCd=1690101678-00&ServiceCd=730&Type=search", "url2": null }, "geometry": { "type": "Point", "coordinates": [ 137.264401600000014, 36.7138793 ] } },
{ "type": "Feature", "properties": { "内容": "一休庵小規模多機能型居宅介護【小規模多機能型居宅介護】富山市四方１１３３－１", "url": "https://www.kaigokensaku.mhlw.go.jp/16/index.php?action_kouhyou_detail_004_kani=true&JigyosyoCd=1690100076-00&ServiceCd=730&Type=search", "url2": "http://wagou@ikkyuan.net" }, "geometry": { "type": "Point", "coordinates": [ 137.193219799999952, 36.7525974 ] } },
{ "type": "Feature", "properties": { "内容": "小規模多機能　お気良倶とやま【小規模多機能型居宅介護】富山県富山市高畠町一丁目10番17号", "url": "https://www.kaigokensaku.mhlw.go.jp/16/index.php?action_kouhyou_detail_004_kani=true&JigyosyoCd=1690100290-00&ServiceCd=730&Type=search", "url2": "http://www.kaigosoudan.com/" }, "geometry": { "type": "Point", "coordinates": [ 137.2303015, 36.7499489 ] } },
{ "type": "Feature", "properties": { "内容": "小規模多機能ホーム　コスモスの里【小規模多機能型居宅介護】富山市大江干３４番地１", "url": "https://www.kaigokensaku.mhlw.go.jp/16/index.php?action_kouhyou_detail_004_kani=true&JigyosyoCd=1690100159-00&ServiceCd=730&Type=search", "url2": "http.//www.kosumosu-sato.co.jp" }, "geometry": { "type": "Point", "coordinates": [ 137.26525879999997, 36.6914815 ] } },
{ "type": "Feature", "properties": { "内容": "小規模多機能型居宅介護　笑美寿【小規模多機能型居宅介護】富山県富山市中島2丁目1-43ケアセンター笑美寿", "url": "https://www.kaigokensaku.mhlw.go.jp/16/index.php?action_kouhyou_detail_004_kani=true&JigyosyoCd=1690100167-00&ServiceCd=730&Type=search", "url2": "http:/care-biz/16/cc-ebisu/" }, "geometry": { "type": "Point", "coordinates": [ 137.2203637, 36.7253177 ] } },
{ "type": "Feature", "properties": { "内容": "小規模多機能型居宅介護　多機能おおくぼの森【小規模多機能型居宅介護】富山県富山市下大久保1530-1", "url": "https://www.kaigokensaku.mhlw.go.jp/16/index.php?action_kouhyou_detail_004_kani=true&JigyosyoCd=1690101645-00&ServiceCd=730&Type=search", "url2": "https://osawano.com/" }, "geometry": { "type": "Point", "coordinates": [ 137.2078789, 36.609727 ] } },
{ "type": "Feature", "properties": { "内容": "小規模多機能型居宅介護事業所花みずき参番館【小規模多機能型居宅介護】富山県富山市曙町2番23号", "url": "https://www.kaigokensaku.mhlw.go.jp/16/index.php?action_kouhyou_detail_004_kani=true&JigyosyoCd=1690100399-00&ServiceCd=730&Type=search", "url2": "https://www.kaiboufukushi.com/" }, "geometry": { "type": "Point", "coordinates": [ 137.225469255819661, 36.699982934022003 ] } },
{ "type": "Feature", "properties": { "内容": "コミュニティホームせいふう【小規模多機能型居宅介護】富山県富山市水橋辻", "url": "https://www.kaigokensaku.mhlw.go.jp/16/index.php?action_kouhyou_detail_004_kani=true&JigyosyoCd=1690100472-00&ServiceCd=730&Type=search", "url2": "http://seifusou.e-294.net/" }, "geometry": { "type": "Point", "coordinates": [ 137.298229473680067, 36.746792510988826 ] } },
{ "type": "Feature", "properties": { "内容": "ケアステーションあざみ【小規模多機能型居宅介護】富山県富山市辰巳町二丁目４－１２", "url": "https://www.kaigokensaku.mhlw.go.jp/16/index.php?action_kouhyou_detail_004_kani=true&JigyosyoCd=1690100241-00&ServiceCd=730&Type=search", "url2": "http://sanjukai.jp/" }, "geometry": { "type": "Point", "coordinates": [ 137.221931899999959, 36.6838011 ] } },
{ "type": "Feature", "properties": { "内容": "射水万葉会天正寺サポートセンター小規模多機能型居宅介護【小規模多機能型居宅介護】富山市天正寺484番地1", "url": "https://www.kaigokensaku.mhlw.go.jp/16/index.php?action_kouhyou_detail_004_kani=true&JigyosyoCd=1690100274-00&ServiceCd=730&Type=search", "url2": "http://www.imizu-manyoukai.or.jp/" }, "geometry": { "type": "Point", "coordinates": [ 137.249300500000032, 36.6870307 ] } },
{ "type": "Feature", "properties": { "内容": "高齢者支援施設せせらぎの郷【小規模多機能型居宅介護】富山県富山市小原屋202", "url": "https://www.kaigokensaku.mhlw.go.jp/16/index.php?action_kouhyou_detail_004_kani=true&JigyosyoCd=1690101496-00&ServiceCd=730&Type=search", "url2": "https://syuaikai.com" }, "geometry": { "type": "Point", "coordinates": [ 137.283849054492151, 36.61178762908871 ] } },
{ "type": "Feature", "properties": { "内容": "小規模多機能型居宅みのり【小規模多機能型居宅介護】富山県富山市城川原一丁目17-14", "url": "https://www.kaigokensaku.mhlw.go.jp/16/index.php?action_kouhyou_detail_004_kani=true&JigyosyoCd=1690100571-00&ServiceCd=730&Type=search", "url2": "https://www.aikou-g.jp" }, "geometry": { "type": "Point", "coordinates": [ 137.228190700000027, 36.73126450000003 ] } },
{ "type": "Feature", "properties": { "内容": "小規模多機能型居宅なごみ【小規模多機能型居宅介護】富山県富山市飯野1-1", "url": "https://www.kaigokensaku.mhlw.go.jp/16/index.php?action_kouhyou_detail_004_kani=true&JigyosyoCd=1690100217-00&ServiceCd=730&Type=search", "url2": "https://www.aikou-g.jp/outline" }, "geometry": { "type": "Point", "coordinates": [ 137.249109200000021, 36.7193498 ] } },
{ "type": "Feature", "properties": { "内容": "ケアコミュニティ　にながわ【小規模多機能型居宅介護】二俣３２７番地４", "url": "https://www.kaigokensaku.mhlw.go.jp/16/index.php?action_kouhyou_detail_004_kani=true&JigyosyoCd=1690100449-00&ServiceCd=730&Type=search", "url2": "http://www.toyamajonankai.jp/" }, "geometry": { "type": "Point", "coordinates": [ 137.216331299999979, 36.6454421 ] } },
{ "type": "Feature", "properties": { "内容": "小規模多機能型　くれは陽光苑【小規模多機能型居宅介護】富山県富山市中老田８４４－１", "url": "https://www.kaigokensaku.mhlw.go.jp/16/index.php?action_kouhyou_detail_004_kani=true&JigyosyoCd=1690100589-00&ServiceCd=730&Type=search", "url2": "http://www.youkou-fukushikai.or.jp/k-youkouen" }, "geometry": { "type": "Point", "coordinates": [ 137.130061500000011, 36.7004662 ] } },
{ "type": "Feature", "properties": { "内容": "富山市北代１８９番地【小規模多機能型居宅介護】富山県富山市北代１８９番地", "url": "https://www.kaigokensaku.mhlw.go.jp/16/index.php?action_kouhyou_detail_004_kani=true&JigyosyoCd=1690101199-00&ServiceCd=730&Type=search", "url2": "http:asahicare.com" }, "geometry": { "type": "Point", "coordinates": [ 137.175441500000034, 36.7199345 ] } },
{ "type": "Feature", "properties": { "内容": "小規模多機能型ホーム　日和野【小規模多機能型居宅介護】富山市下野１７８４－６", "url": "https://www.kaigokensaku.mhlw.go.jp/16/index.php?action_kouhyou_detail_004_kani=true&JigyosyoCd=1690100134-00&ServiceCd=730&Type=search", "url2": "http://toyama-hiyori.jp/" }, "geometry": { "type": "Point", "coordinates": [ 137.180828600000041, 36.6932903 ] } },
{ "type": "Feature", "properties": { "内容": "とやま生協輝ゆとり～な【小規模多機能型居宅介護】富山県富山市藤木853-1", "url": "https://www.kaigokensaku.mhlw.go.jp/16/index.php?action_kouhyou_detail_004_kani=true&JigyosyoCd=1690101090-00&ServiceCd=730&Type=search", "url2": "http://www.toyamaken-coop.or.jp/fukushi/kagayaki-yutori-na/" }, "geometry": { "type": "Point", "coordinates": [ 137.265749992590372, 36.689219346911599 ] } },
{ "type": "Feature", "properties": { "内容": "小規模多機能型居宅介護森の住まい【小規模多機能型居宅介護】富山県高岡市福岡町江尻219-1", "url": "https://www.kaigokensaku.mhlw.go.jp/16/index.php?action_kouhyou_detail_004_kani=true&JigyosyoCd=1690200686-00&ServiceCd=730&Type=search", "url2": "http://www.morinosumai.net" }, "geometry": { "type": "Point", "coordinates": [ 136.939656, 36.700356 ] } },
{ "type": "Feature", "properties": { "内容": "ケアホームなかそね【小規模多機能型居宅介護】富山県高岡市中曽根２３７４", "url": "https://www.kaigokensaku.mhlw.go.jp/16/index.php?action_kouhyou_detail_004_kani=true&JigyosyoCd=1690200348-00&ServiceCd=730&Type=search", "url2": "https://www.site.medicalcare.toyama.jp" }, "geometry": { "type": "Point", "coordinates": [ 137.077668, 36.7695036 ] } },
{ "type": "Feature", "properties": { "内容": "とやませいきょう　輝城東【小規模多機能型居宅介護】富山県高岡市城東１丁目787番地", "url": "https://www.kaigokensaku.mhlw.go.jp/16/index.php?action_kouhyou_detail_004_kani=true&JigyosyoCd=1690200751-00&ServiceCd=730&Type=search", "url2": "http://www.toyamaken-coop.or.jp" }, "geometry": { "type": "Point", "coordinates": [ 137.030820153561848, 36.748261637589266 ] } },
{ "type": "Feature", "properties": { "内容": "春日の家【小規模多機能型居宅介護】高岡市戸出春日６２６", "url": "https://www.kaigokensaku.mhlw.go.jp/16/index.php?action_kouhyou_detail_004_kani=true&JigyosyoCd=1690200041-00&ServiceCd=730&Type=search", "url2": null }, "geometry": { "type": "Point", "coordinates": [ 137.000151499999987, 36.6944442 ] } },
{ "type": "Feature", "properties": { "内容": "ケアホーム国吉あいの風【小規模多機能型居宅介護】富山県高岡市国吉７５２番地１", "url": "https://www.kaigokensaku.mhlw.go.jp/16/index.php?action_kouhyou_detail_004_kani=true&JigyosyoCd=1690200090-00&ServiceCd=730&Type=search", "url2": "www.ainokaze.ne.jp" }, "geometry": { "type": "Point", "coordinates": [ 136.969364600000063, 36.7530177 ] } },
{ "type": "Feature", "properties": { "内容": "太陽の庵【小規模多機能型居宅介護】福岡町下蓑新３３６", "url": "https://www.kaigokensaku.mhlw.go.jp/16/index.php?action_kouhyou_detail_004_kani=true&JigyosyoCd=1690200231-00&ServiceCd=730&Type=search", "url2": null }, "geometry": { "type": "Point", "coordinates": [ 136.9292431, 36.7092581 ] } },
{ "type": "Feature", "properties": { "内容": "あさひの家小規模多機能型居宅介護【小規模多機能型居宅介護】富山県高岡市角560-1あさひの家", "url": "https://www.kaigokensaku.mhlw.go.jp/16/index.php?action_kouhyou_detail_004_kani=true&JigyosyoCd=1690200850-00&ServiceCd=730&Type=search", "url2": "https://akanekai.toyama.jp/" }, "geometry": { "type": "Point", "coordinates": [ 137.0375675, 36.7656078 ] } },
{ "type": "Feature", "properties": { "内容": "だいご中田館【小規模多機能型居宅介護】富山県高岡市下麻生89-2", "url": "https://www.kaigokensaku.mhlw.go.jp/16/index.php?action_kouhyou_detail_004_kani=true&JigyosyoCd=1690200470-00&ServiceCd=730&Type=search", "url2": "http://www.daigoen.com/" }, "geometry": { "type": "Point", "coordinates": [ 137.018507099999965, 36.6935704 ] } },
{ "type": "Feature", "properties": { "内容": "小規模多機能型居宅介護　だいご清水館【小規模多機能型居宅介護】高岡市清水町3丁目3-58", "url": "https://www.kaigokensaku.mhlw.go.jp/16/index.php?action_kouhyou_detail_004_kani=true&JigyosyoCd=1690200272-00&ServiceCd=730&Type=search", "url2": "http://www.daigoen.com" }, "geometry": { "type": "Point", "coordinates": [ 137.003898299999946, 36.7377201 ] } },
{ "type": "Feature", "properties": { "内容": "サンケア高岡北【小規模多機能型居宅介護】富山県高岡市長江464-1", "url": "https://www.kaigokensaku.mhlw.go.jp/16/index.php?action_kouhyou_detail_004_kani=true&JigyosyoCd=1690200603-00&ServiceCd=730&Type=search", "url2": "https://www.suncare-life.com/info/facilit" }, "geometry": { "type": "Point", "coordinates": [ 136.982648299999937, 36.7649198 ] } },
{ "type": "Feature", "properties": { "内容": "ケアホーム如意の里【小規模多機能型居宅介護】伏木本町１０－８", "url": "https://www.kaigokensaku.mhlw.go.jp/16/index.php?action_kouhyou_detail_004_kani=true&JigyosyoCd=1690200512-00&ServiceCd=730&Type=search", "url2": "ｗｗｗ2.tcnet.ne.jp/fusikien/" }, "geometry": { "type": "Point", "coordinates": [ 137.05501784942328, 36.799300675874335 ] } },
{ "type": "Feature", "properties": { "内容": "小規模多機能ホームひらすまあらいべ【小規模多機能型居宅介護】富山県高岡市木町1番40号", "url": "https://www.kaigokensaku.mhlw.go.jp/16/index.php?action_kouhyou_detail_004_kani=true&JigyosyoCd=1690200363-00&ServiceCd=730&Type=search", "url2": "araibe@ka3.so-net.ne.jp" }, "geometry": { "type": "Point", "coordinates": [ 137.01316769999994, 36.7622843 ] } },
{ "type": "Feature", "properties": { "内容": "ケアホームかたかごの郷【小規模多機能型居宅介護】富山県高岡市伏木古府２丁目６番２号", "url": "https://www.kaigokensaku.mhlw.go.jp/16/index.php?action_kouhyou_detail_004_kani=true&JigyosyoCd=1690200165-00&ServiceCd=730&Type=search", "url2": "http//www.webintelligence.co,jp" }, "geometry": { "type": "Point", "coordinates": [ 137.05104110000002, 36.7920536 ] } },
{ "type": "Feature", "properties": { "内容": "小規模多機能型居宅介護事業所小津の里【小規模多機能型居宅介護】富山県魚津市本町２－８－１２", "url": "https://www.kaigokensaku.mhlw.go.jp/16/index.php?action_kouhyou_detail_004_kani=true&JigyosyoCd=1690400013-00&ServiceCd=730&Type=search", "url2": "http://www.niikawa-fukushi.net/" }, "geometry": { "type": "Point", "coordinates": [ 137.396896500000025, 36.8168624 ] } },
{ "type": "Feature", "properties": { "内容": "小規模多機能型居宅介護事業所経田ちょうろく【小規模多機能型居宅介護】魚津市経田西町10‐90", "url": "https://www.kaigokensaku.mhlw.go.jp/16/index.php?action_kouhyou_detail_004_kani=true&JigyosyoCd=1690400039-00&ServiceCd=730&Type=search", "url2": "http://www.hospy.jp" }, "geometry": { "type": "Point", "coordinates": [ 137.411794500000042, 36.8480741 ] } },
{ "type": "Feature", "properties": { "内容": "小規模多機能型居宅介護事業所　あおぞらホーム【小規模多機能型居宅介護】川尻271-1", "url": "https://www.kaigokensaku.mhlw.go.jp/16/index.php?action_kouhyou_detail_004_kani=true&JigyosyoCd=1690500127-00&ServiceCd=730&Type=search", "url2": "https://kenbihukusikai-group.com/" }, "geometry": { "type": "Point", "coordinates": [ 136.965264199999979, 36.8275685 ] } },
{ "type": "Feature", "properties": { "内容": "朝日山ケアセンター【小規模多機能型居宅介護】朝日丘８３４－１", "url": "https://www.kaigokensaku.mhlw.go.jp/16/index.php?action_kouhyou_detail_004_kani=true&JigyosyoCd=1690500069-00&ServiceCd=730&Type=search", "url2": "https://www.manyounomori.jp/" }, "geometry": { "type": "Point", "coordinates": [ 136.978690850888938, 36.848737466363374 ] } },
{ "type": "Feature", "properties": { "内容": "ケアホーム　ひまわり【小規模多機能型居宅介護】富山県氷見市大野1337-3", "url": "https://www.kaigokensaku.mhlw.go.jp/16/index.php?action_kouhyou_detail_004_kani=true&JigyosyoCd=1690500101-00&ServiceCd=730&Type=search", "url2": "http://care-net.biz/test/16/taki4531" }, "geometry": { "type": "Point", "coordinates": [ 139.059667200000035, 35.6211421 ] } },
{ "type": "Feature", "properties": { "内容": "ありがとうホーム氷見【小規模多機能型居宅介護】氷見市十二町135", "url": "https://www.kaigokensaku.mhlw.go.jp/16/index.php?action_kouhyou_detail_004_kani=true&JigyosyoCd=1690500085-00&ServiceCd=730&Type=search", "url2": "http:www5.ocn.ne.jp/~mitaho/himi" }, "geometry": { "type": "Point", "coordinates": [ 136.9690746, 36.841236 ] } },
{ "type": "Feature", "properties": { "内容": "ありがとうホーム氷見（窪）【小規模多機能型居宅介護】窪2714-1", "url": "https://www.kaigokensaku.mhlw.go.jp/16/index.php?action_kouhyou_detail_004_kani=true&JigyosyoCd=1690500168-00&ServiceCd=730&Type=search", "url2": "http//www.mita-home.co.jp" }, "geometry": { "type": "Point", "coordinates": [ 136.6357104, 36.5256819 ] } },
{ "type": "Feature", "properties": { "内容": "ケアホームあお【小規模多機能型居宅介護】氷見市阿尾860-1", "url": "https://www.kaigokensaku.mhlw.go.jp/16/index.php?action_kouhyou_detail_004_kani=true&JigyosyoCd=1690500036-00&ServiceCd=730&Type=search", "url2": "http://cera-net.biz/16/medicalcare/" }, "geometry": { "type": "Point", "coordinates": [ 136.989407300000039, 36.8815028 ] } },
{ "type": "Feature", "properties": { "内容": "あいのかぜ【小規模多機能型居宅介護】富山県滑川市高塚866-12", "url": "https://www.kaigokensaku.mhlw.go.jp/16/index.php?action_kouhyou_detail_004_kani=true&JigyosyoCd=1690600018-00&ServiceCd=730&Type=search", "url2": null }, "geometry": { "type": "Point", "coordinates": [ 137.35824690000004, 36.777932399999983 ] } },
{ "type": "Feature", "properties": { "内容": "ふれあいほーむ\"なめりかわ一休庵\"【小規模多機能型居宅介護】富山県滑川市沖田新538", "url": "https://www.kaigokensaku.mhlw.go.jp/16/index.php?action_kouhyou_detail_004_kani=true&JigyosyoCd=1690600034-00&ServiceCd=730&Type=search", "url2": "http//www.lb-ikkyu.co.jp" }, "geometry": { "type": "Point", "coordinates": [ 137.344460300000037, 36.7548123 ] } },
{ "type": "Feature", "properties": { "内容": "とやませいきょう　輝くろべ【小規模多機能型居宅介護】富山県黒部市牧野750番1", "url": "https://www.kaigokensaku.mhlw.go.jp/16/index.php?action_kouhyou_detail_004_kani=true&JigyosyoCd=1690700149-00&ServiceCd=730&Type=search", "url2": "http://www.toyama.coop" }, "geometry": { "type": "Point", "coordinates": [ 137.443564949859137, 36.869963808518307 ] } },
{ "type": "Feature", "properties": { "内容": "ケアホーム生地【小規模多機能型居宅介護】富山県黒部市生地神区１８３−１", "url": "https://www.kaigokensaku.mhlw.go.jp/16/index.php?action_kouhyou_detail_004_kani=true&JigyosyoCd=1690700180-00&ServiceCd=730&Type=search", "url2": "http://www.care-s.com" }, "geometry": { "type": "Point", "coordinates": [ 137.422101, 36.8856908 ] } },
{ "type": "Feature", "properties": { "内容": "小規模多機能ホームかたかご【小規模多機能型居宅介護】富山県黒部市宇奈月町下立５０－１", "url": "https://www.kaigokensaku.mhlw.go.jp/16/index.php?action_kouhyou_detail_004_kani=true&JigyosyoCd=1690700040-00&ServiceCd=730&Type=search", "url2": "http://orahausu.jimdo.com/" }, "geometry": { "type": "Point", "coordinates": [ 137.527649800000063, 36.8641475 ] } },
{ "type": "Feature", "properties": { "内容": "ゆたか町の家【小規模多機能型居宅介護】豊町２丁目１３－６", "url": "https://www.kaigokensaku.mhlw.go.jp/16/index.php?action_kouhyou_detail_004_kani=true&JigyosyoCd=1690800113-00&ServiceCd=730&Type=search", "url2": null }, "geometry": { "type": "Point", "coordinates": [ 136.9549012, 36.6272894 ] } },
{ "type": "Feature", "properties": { "内容": "ケアタウンとなみ【小規模多機能型居宅介護】富山県砺波市庄川町青島208-1", "url": "https://www.kaigokensaku.mhlw.go.jp/16/index.php?action_kouhyou_detail_004_kani=true&JigyosyoCd=1690800121-00&ServiceCd=730&Type=search", "url2": "http://www.caretown-group.com/office/care_tonami/" }, "geometry": { "type": "Point", "coordinates": [ 136.983747, 36.5827956 ] } },
{ "type": "Feature", "properties": { "内容": "ケアホームあきもと【小規模多機能型居宅介護】富山県砺波市秋元289-1", "url": "https://www.kaigokensaku.mhlw.go.jp/16/index.php?action_kouhyou_detail_004_kani=true&JigyosyoCd=1690800147-00&ServiceCd=730&Type=search", "url2": null }, "geometry": { "type": "Point", "coordinates": [ 136.991836700000022, 36.6491005 ] } },
{ "type": "Feature", "properties": { "内容": "はぴねす小規模多機能すぎのき【小規模多機能型居宅介護】富山県砺波市杉木1丁目131番地", "url": "https://www.kaigokensaku.mhlw.go.jp/16/index.php?action_kouhyou_detail_004_kani=true&JigyosyoCd=1690800105-00&ServiceCd=730&Type=search", "url2": "http://www.hokufuku.com" }, "geometry": { "type": "Point", "coordinates": [ 136.953328599999963, 36.6477501 ] } },
{ "type": "Feature", "properties": { "内容": "小規模多機能型居宅介護支援事業所　はるかぜ庄東【小規模多機能型居宅介護】東保815-1小規模多機能型居宅介護支援事業所　はるかぜ庄東", "url": "https://www.kaigokensaku.mhlw.go.jp/16/index.php?action_kouhyou_detail_004_kani=true&JigyosyoCd=1690800063-00&ServiceCd=730&Type=search", "url2": null }, "geometry": { "type": "Point", "coordinates": [ 137.017507300000034, 36.6676381 ] } },
{ "type": "Feature", "properties": { "内容": "ケアタウンおやべ【小規模多機能型居宅介護】富山県小矢部市埴生2-47", "url": "https://www.kaigokensaku.mhlw.go.jp/16/index.php?action_kouhyou_detail_004_kani=true&JigyosyoCd=1690900012-00&ServiceCd=730&Type=search", "url2": "http://www.caretown-group.com/office/care_oyabe/" }, "geometry": { "type": "Point", "coordinates": [ 136.848274400000037, 36.6672009 ] } },
{ "type": "Feature", "properties": { "内容": "イエロガーデン石動【小規模多機能型居宅介護】富山県小矢部市観音町699番1", "url": "https://www.kaigokensaku.mhlw.go.jp/16/index.php?action_kouhyou_detail_004_kani=true&JigyosyoCd=1690900160-00&ServiceCd=730&Type=search", "url2": "https://www.yg-isurugi.org/" }, "geometry": { "type": "Point", "coordinates": [ 136.863418627508537, 36.677815990799211 ] } },
{ "type": "Feature", "properties": { "内容": "愛寿乃里【小規模多機能型居宅介護】富山県小矢部市福上３６２－１", "url": "https://www.kaigokensaku.mhlw.go.jp/16/index.php?action_kouhyou_detail_004_kani=true&JigyosyoCd=1690900111-00&ServiceCd=730&Type=search", "url2": "http://www.dream-aijyu.com/" }, "geometry": { "type": "Point", "coordinates": [ 136.878461, 36.647765 ] } },
{ "type": "Feature", "properties": { "内容": "はぁとふるケアあさがお【小規模多機能型居宅介護】西中野６９４－１", "url": "https://www.kaigokensaku.mhlw.go.jp/16/index.php?action_kouhyou_detail_004_kani=true&JigyosyoCd=1690900103-00&ServiceCd=730&Type=search", "url2": "warm-heart.sub.jp" }, "geometry": { "type": "Point", "coordinates": [ 136.880566044897478, 36.686775421659085 ] } },
{ "type": "Feature", "properties": { "内容": "あさがお田川【小規模多機能型居宅介護】富山県小矢部市田川2548", "url": "https://www.kaigokensaku.mhlw.go.jp/16/index.php?action_kouhyou_detail_004_kani=true&JigyosyoCd=1690900186-00&ServiceCd=730&Type=search", "url2": "warm-heart.sub.jp" }, "geometry": { "type": "Point", "coordinates": [ 136.883463400000011, 36.6963252 ] } },
{ "type": "Feature", "properties": { "内容": "福祉コミュニティ小矢部あいの風【小規模多機能型居宅介護】小矢部市茄子島２２６", "url": "https://www.kaigokensaku.mhlw.go.jp/16/index.php?action_kouhyou_detail_004_kani=true&JigyosyoCd=1690900079-00&ServiceCd=730&Type=search", "url2": "http://www.ainokaze.ne.jp" }, "geometry": { "type": "Point", "coordinates": [ 136.8748468, 36.6694897 ] } },
{ "type": "Feature", "properties": { "内容": "イエトカフェいずみ【小規模多機能型居宅介護】富山県南砺市和泉２６－１", "url": "https://www.kaigokensaku.mhlw.go.jp/16/index.php?action_kouhyou_detail_004_kani=true&JigyosyoCd=1691000143-00&ServiceCd=730&Type=search", "url2": null }, "geometry": { "type": "Point", "coordinates": [ 136.876618, 36.5761886 ] } },
{ "type": "Feature", "properties": { "内容": "ニチイケアセンター山見【小規模多機能型居宅介護】富山県南砺市山見330-2", "url": "https://www.kaigokensaku.mhlw.go.jp/16/index.php?action_kouhyou_detail_004_kani=true&JigyosyoCd=1691000085-00&ServiceCd=730&Type=search", "url2": null }, "geometry": { "type": "Point", "coordinates": [ 136.968848900000012, 36.5603784 ] } },
{ "type": "Feature", "properties": { "内容": "ケアタウン・なんと【小規模多機能型居宅介護】富山県南砺市新邸11-1", "url": "https://www.kaigokensaku.mhlw.go.jp/16/index.php?action_kouhyou_detail_004_kani=true&JigyosyoCd=1691000069-00&ServiceCd=730&Type=search", "url2": "http://www.caretown-group.com/office/care_nanto/" }, "geometry": { "type": "Point", "coordinates": [ 136.894088734393307, 36.568765135852985 ] } },
{ "type": "Feature", "properties": { "内容": "うららの郷【小規模多機能型居宅介護】富山県南砺市理休270番地ケアハウス城端うらら内2階", "url": "https://www.kaigokensaku.mhlw.go.jp/16/index.php?action_kouhyou_detail_004_kani=true&JigyosyoCd=1691000242-00&ServiceCd=730&Type=search", "url2": "https://care-net.biz/16/keijyukai/" }, "geometry": { "type": "Point", "coordinates": [ 136.9084762, 36.5126529 ] } },
{ "type": "Feature", "properties": { "内容": "みしま野苑ひかり小規模多機能型居宅介護事業所【小規模多機能型居宅介護】富山県射水市三ケ５２０", "url": "https://www.kaigokensaku.mhlw.go.jp/16/index.php?action_kouhyou_detail_004_kani=true&JigyosyoCd=1691100273-00&ServiceCd=730&Type=search", "url2": "http://www.rakusankai.com/" }, "geometry": { "type": "Point", "coordinates": [ 137.093731700000035, 36.7221542 ] } },
{ "type": "Feature", "properties": { "内容": "小規模多機能型居宅介護　りらいあんす【小規模多機能型居宅介護】富山県射水市寺塚原66ー4", "url": "https://www.kaigokensaku.mhlw.go.jp/16/index.php?action_kouhyou_detail_004_kani=true&JigyosyoCd=1691100075-00&ServiceCd=730&Type=search", "url2": "reliance-toyama.com" }, "geometry": { "type": "Point", "coordinates": [ 137.06291710000005, 36.7492889 ] } },
{ "type": "Feature", "properties": { "内容": "小規模多機能居宅介護　風乃里水戸田【小規模多機能型居宅介護】富山県射水市水戸田966-1", "url": "https://www.kaigokensaku.mhlw.go.jp/16/index.php?action_kouhyou_detail_004_kani=true&JigyosyoCd=1691100299-00&ServiceCd=730&Type=search", "url2": "Kazeno-sato.com/index.html" }, "geometry": { "type": "Point", "coordinates": [ 137.0690846, 36.7043784 ] } },
{ "type": "Feature", "properties": { "内容": "杜のつどい土合【小規模多機能型居宅介護】富山県射水市土合461-1", "url": "https://www.kaigokensaku.mhlw.go.jp/16/index.php?action_kouhyou_detail_004_kani=true&JigyosyoCd=1691100281-00&ServiceCd=730&Type=search", "url2": "http://www.nagata-medical.com" }, "geometry": { "type": "Point", "coordinates": [ 137.0374067797012, 36.718231134608992 ] } },
{ "type": "Feature", "properties": { "内容": "福祉プラザ七美　小規模多機能型居宅介護事業所【小規模多機能型居宅介護】富山県射水市七美879-1", "url": "https://www.kaigokensaku.mhlw.go.jp/16/index.php?action_kouhyou_detail_004_kani=true&JigyosyoCd=1691100166-00&ServiceCd=730&Type=search", "url2": "http://www.imizu-manyoukai.or.jp" }, "geometry": { "type": "Point", "coordinates": [ 137.14075349999996, 36.7522095 ] } },
{ "type": "Feature", "properties": { "内容": "射水万葉苑　本町サポートセンター【小規模多機能型居宅介護】富山県射水市本町3丁目17-8", "url": "https://www.kaigokensaku.mhlw.go.jp/16/index.php?action_kouhyou_detail_004_kani=true&JigyosyoCd=1691100042-00&ServiceCd=730&Type=search", "url2": "http://www.imizu-mannyoukai.or.jp" }, "geometry": { "type": "Point", "coordinates": [ 137.080697800000053, 36.7813887 ] } },
{ "type": "Feature", "properties": { "内容": "生活支援ハウスふるさと【小規模多機能型居宅介護】富山県射水市小島607-1", "url": "https://www.kaigokensaku.mhlw.go.jp/16/index.php?action_kouhyou_detail_004_kani=true&JigyosyoCd=1691100323-00&ServiceCd=730&Type=search", "url2": "http://furusato.webes.jp" }, "geometry": { "type": "Point", "coordinates": [ 137.065275700000029, 36.7346824 ] } },
{ "type": "Feature", "properties": { "内容": "いつでも来られま放生津【小規模多機能型居宅介護】富山県射水市放生津町3-15ラ・メール放生津　1階", "url": "https://www.kaigokensaku.mhlw.go.jp/16/index.php?action_kouhyou_detail_004_kani=true&JigyosyoCd=1691100372-00&ServiceCd=730&Type=search", "url2": "http://www.fktnet-toyama.com" }, "geometry": { "type": "Point", "coordinates": [ 137.083917096820073, 36.783827931580127 ] } },
{ "type": "Feature", "properties": { "内容": "ケアサークルひばり小規模多機能型居宅介護【小規模多機能型居宅介護】富山県射水市戸破4466-2", "url": "https://www.kaigokensaku.mhlw.go.jp/16/index.php?action_kouhyou_detail_004_kani=true&JigyosyoCd=1691100414-00&ServiceCd=730&Type=search", "url2": "care-net.biz/16/carecircle/" }, "geometry": { "type": "Point", "coordinates": [ 137.107847, 36.7252528 ] } },
{ "type": "Feature", "properties": { "内容": "ケアホームほりおか【小規模多機能型居宅介護】射水市射水町1丁目18", "url": "https://www.kaigokensaku.mhlw.go.jp/16/index.php?action_kouhyou_detail_004_kani=true&JigyosyoCd=1691100133-00&ServiceCd=730&Type=search", "url2": "http://care-net.biz/16/mdc-horioka/index.php" }, "geometry": { "type": "Point", "coordinates": [ 137.124311047885129, 36.768501746423823 ] } },
{ "type": "Feature", "properties": { "内容": "新湊BASEやっしゃっけ【小規模多機能型居宅介護】富山県射水市庄川本町25番12号", "url": "https://www.kaigokensaku.mhlw.go.jp/16/index.php?action_kouhyou_detail_004_kani=true&JigyosyoCd=1691100448-00&ServiceCd=730&Type=search", "url2": null }, "geometry": { "type": "Point", "coordinates": [ 137.071204555294798, 36.783154744097601 ] } },
{ "type": "Feature", "properties": { "内容": "小規模多機能　お気良倶上市【小規模多機能型居宅介護】富山県中新川郡上市町稗田32－1", "url": "https://www.kaigokensaku.mhlw.go.jp/16/index.php?action_kouhyou_detail_004_kani=true&JigyosyoCd=1691600066-00&ServiceCd=730&Type=search", "url2": "okirakukamiiti@kaigosoudan.co.jp" }, "geometry": { "type": "Point", "coordinates": [ 137.362013899999965, 36.6936005 ] } },
{ "type": "Feature", "properties": { "内容": "福来老・米沢【小規模多機能型居宅介護】中新川郡立山町米沢32番1", "url": "https://www.kaigokensaku.mhlw.go.jp/16/index.php?action_kouhyou_detail_004_kani=true&JigyosyoCd=1691600025-00&ServiceCd=730&Type=search", "url2": "http://www.net3-tv.net/~fukuro-yonezawa/" }, "geometry": { "type": "Point", "coordinates": [ 137.3195184, 36.6682942 ] } },
{ "type": "Feature", "properties": { "内容": "小規模多機能ホームうらら【小規模多機能型居宅介護】富山県下新川郡入善町上野689-4", "url": "https://www.kaigokensaku.mhlw.go.jp/16/index.php?action_kouhyou_detail_004_kani=true&JigyosyoCd=1691700031-00&ServiceCd=730&Type=search", "url2": "https://npo-partner.jp/" }, "geometry": { "type": "Point", "coordinates": [ 137.496220734393319, 36.929963709338494 ] } }
]
}
