{
"type": "FeatureCollection",
"name": "geo_16_定期巡回・随時対応型訪問介護看護",
"crs": { "type": "name", "properties": { "name": "urn:ogc:def:crs:OGC:1.3:CRS84" } },
"features": [
{ "type": "Feature", "properties": { "内容": "富山医療生活協同組合　定期巡回・随時対応型訪問介護看護ひまわり【定期巡回・随時対応型訪問介護看護】富山県富山市粟島２丁目2-1", "url": "https://www.kaigokensaku.mhlw.go.jp/16/index.php?action_kouhyou_detail_004_kani=true&JigyosyoCd=1690101371-00&ServiceCd=760&Type=search", "url2": "http://www.toyama-hcoop.com" }, "geometry": { "type": "Point", "coordinates": [ 137.2311924, 36.7244437 ] } },
{ "type": "Feature", "properties": { "内容": "定期巡回サ-ビスセンタ-　すみれ【定期巡回・随時対応型訪問介護看護】冨山県富山市上大久保1581-1希望ヶ丘ハウス内", "url": "https://www.kaigokensaku.mhlw.go.jp/16/index.php?action_kouhyou_detail_004_kani=true&JigyosyoCd=1690100977-00&ServiceCd=760&Type=search", "url2": "https://kibounosato.toyama.jp/kibougaokahouse/sumire/index.html" }, "geometry": { "type": "Point", "coordinates": [ 137.211477699999932, 36.5912144 ] } },
{ "type": "Feature", "properties": { "内容": "光風会みまもりステーション【定期巡回・随時対応型訪問介護看護】富山市本郷町262-15堀川南光風苑（ぬくもり館）", "url": "https://www.kaigokensaku.mhlw.go.jp/16/index.php?action_kouhyou_detail_004_kani=true&JigyosyoCd=1690100886-00&ServiceCd=760&Type=search", "url2": "https://koufuukai.jp/" }, "geometry": { "type": "Point", "coordinates": [ 137.232858393362449, 36.663029290004246 ] } },
{ "type": "Feature", "properties": { "内容": "みずほサポートセンター【定期巡回・随時対応型訪問介護看護】富山市婦中町上吉川132番地１", "url": "https://www.kaigokensaku.mhlw.go.jp/16/index.php?action_kouhyou_detail_004_kani=true&JigyosyoCd=1690100738-00&ServiceCd=760&Type=search", "url2": "http://www.imizu-manyoukai.or.jp/" }, "geometry": { "type": "Point", "coordinates": [ 137.136430500856875, 36.641416293908989 ] } },
{ "type": "Feature", "properties": { "内容": "射水万葉会　天正寺サポートセンター【定期巡回・随時対応型訪問介護看護】天正寺484番地1", "url": "https://www.kaigokensaku.mhlw.go.jp/16/index.php?action_kouhyou_detail_004_kani=true&JigyosyoCd=1690100704-00&ServiceCd=760&Type=search", "url2": "http://www.imizu-manyoukai.or.jp/" }, "geometry": { "type": "Point", "coordinates": [ 137.249285200000031, 36.6870483 ] } },
{ "type": "Feature", "properties": { "内容": "のむらサポートセンター定期巡回・随時対応型訪問介護看護【定期巡回・随時対応型訪問介護看護】富山県高岡市野村1817", "url": "https://www.kaigokensaku.mhlw.go.jp/16/index.php?action_kouhyou_detail_004_kani=true&JigyosyoCd=1690200439-00&ServiceCd=760&Type=search", "url2": "www.imizu-manyoukai.or.jp/" }, "geometry": { "type": "Point", "coordinates": [ 137.042061037177092, 36.762511556548155 ] } },
{ "type": "Feature", "properties": { "内容": "あさひの里定期巡回・随時対応型訪問介護【定期巡回・随時対応型訪問介護看護】富山県高岡市鷲北新185番地あさひの里", "url": "https://www.kaigokensaku.mhlw.go.jp/16/index.php?action_kouhyou_detail_004_kani=true&JigyosyoCd=1690200652-00&ServiceCd=760&Type=search", "url2": "http://akanekai.toyama.jp/" }, "geometry": { "type": "Point", "coordinates": [ 137.037859864843199, 36.766385972484763 ] } },
{ "type": "Feature", "properties": { "内容": "定期巡回　にこにこ【定期巡回・随時対応型訪問介護看護】富山県高岡市横田本町５番２１号サービス付き高齢者向け住宅　高志の郷", "url": "https://www.kaigokensaku.mhlw.go.jp/16/index.php?action_kouhyou_detail_004_kani=true&JigyosyoCd=1690200884-00&ServiceCd=760&Type=search", "url2": "http://www.fukuhoukai.jp/" }, "geometry": { "type": "Point", "coordinates": [ 136.998962, 36.751607 ] } },
{ "type": "Feature", "properties": { "内容": "魚津病院24時間訪問介護看護ステーション【定期巡回・随時対応型訪問介護看護】富山県魚津市友道７８９番地", "url": "https://www.kaigokensaku.mhlw.go.jp/16/index.php?action_kouhyou_detail_004_kani=true&JigyosyoCd=1690400062-00&ServiceCd=760&Type=search", "url2": "http://www.uozubyouin.jp" }, "geometry": { "type": "Point", "coordinates": [ 137.411361599999964, 36.8145605 ] } },
{ "type": "Feature", "properties": { "内容": "あいの手ケアセンター【定期巡回・随時対応型訪問介護看護】氷見市阿尾４１０番地", "url": "https://www.kaigokensaku.mhlw.go.jp/16/index.php?action_kouhyou_detail_004_kani=true&JigyosyoCd=1690500192-00&ServiceCd=760&Type=search", "url2": "https://himifukushikai.com/" }, "geometry": { "type": "Point", "coordinates": [ 136.98098559999994, 36.887549 ] } },
{ "type": "Feature", "properties": { "内容": "ケアステーション優悠【定期巡回・随時対応型訪問介護看護】富山県黒部市田家新738-1", "url": "https://www.kaigokensaku.mhlw.go.jp/16/index.php?action_kouhyou_detail_004_kani=true&JigyosyoCd=1690700107-00&ServiceCd=760&Type=search", "url2": "https://inkyokurabu.com/" }, "geometry": { "type": "Point", "coordinates": [ 137.436778900000036, 36.8528407 ] } },
{ "type": "Feature", "properties": { "内容": "福寿会北部定期巡回センター【定期巡回・随時対応型訪問介護看護】富山県南砺市松原678-1", "url": "https://www.kaigokensaku.mhlw.go.jp/16/index.php?action_kouhyou_detail_004_kani=true&JigyosyoCd=1691000168-00&ServiceCd=760&Type=search", "url2": "htt://fukuju.jp" }, "geometry": { "type": "Point", "coordinates": [ 136.928743299999951, 36.5962314 ] } },
{ "type": "Feature", "properties": { "内容": "福寿会南部定期巡回センター【定期巡回・随時対応型訪問介護看護】富山県南砺市福光1045番地", "url": "https://www.kaigokensaku.mhlw.go.jp/16/index.php?action_kouhyou_detail_004_kani=true&JigyosyoCd=1691000218-00&ServiceCd=760&Type=search", "url2": "http://fukuju.jp/" }, "geometry": { "type": "Point", "coordinates": [ 136.867550299999948, 36.5547854 ] } },
{ "type": "Feature", "properties": { "内容": "福祉プラザ七美【定期巡回・随時対応型訪問介護看護】七美879番地1", "url": "https://www.kaigokensaku.mhlw.go.jp/16/index.php?action_kouhyou_detail_004_kani=true&JigyosyoCd=1691100265-00&ServiceCd=760&Type=search", "url2": "http://www.imizu-manyoukai.or.jp" }, "geometry": { "type": "Point", "coordinates": [ 137.14075349999996, 36.7522095 ] } }
]
}
