{
"type": "FeatureCollection",
"name": "geo_16_特定福祉用具販売",
"crs": { "type": "name", "properties": { "name": "urn:ogc:def:crs:OGC:1.3:CRS84" } },
"features": [
{ "type": "Feature", "properties": { "内容": "アルク株式会社　富山支店【特定福祉用具販売】富山県富山市二口町５丁目１－４", "url2": "https://www.kaigokensaku.mhlw.go.jp/16/index.php?action_kouhyou_detail_004_kani=true&JigyosyoCd=1670113750-00&ServiceCd=410&Type=search" }, "geometry": { "type": "Point", "coordinates": [ 137.202349, 36.6697082 ] } },
{ "type": "Feature", "properties": { "内容": "ふくし百選テックみなみ【特定福祉用具販売】富山県富山市二口町五丁目6番地５", "url2": "https://www.kaigokensaku.mhlw.go.jp/16/index.php?action_kouhyou_detail_004_kani=true&JigyosyoCd=1670113990-00&ServiceCd=410&Type=search" }, "geometry": { "type": "Point", "coordinates": [ 137.203555, 36.6678424 ] } },
{ "type": "Feature", "properties": { "内容": "株式会社　えいる【特定福祉用具販売】富山県富山市新庄町3丁目ローズガーデン103号", "url2": "https://www.kaigokensaku.mhlw.go.jp/16/index.php?action_kouhyou_detail_004_kani=true&JigyosyoCd=1670114386-00&ServiceCd=410&Type=search" }, "geometry": { "type": "Point", "coordinates": [ 137.254701965562163, 36.69745137703601 ] } },
{ "type": "Feature", "properties": { "内容": "有限会社尚栄　福祉事業部【特定福祉用具販売】古沢６３１番地", "url2": "https://www.kaigokensaku.mhlw.go.jp/16/index.php?action_kouhyou_detail_004_kani=true&JigyosyoCd=1670114428-00&ServiceCd=410&Type=search" }, "geometry": { "type": "Point", "coordinates": [ 137.144482400000015, 36.6893707 ] } },
{ "type": "Feature", "properties": { "内容": "シルバーサポート富山店【特定福祉用具販売】富山市呉羽町６２４３－５", "url2": "https://www.kaigokensaku.mhlw.go.jp/16/index.php?action_kouhyou_detail_004_kani=true&JigyosyoCd=1670114576-00&ServiceCd=410&Type=search" }, "geometry": { "type": "Point", "coordinates": [ 137.169948699999964, 36.7110371 ] } },
{ "type": "Feature", "properties": { "内容": "株式会社サンスイコーポレーション【特定福祉用具販売】富山県富山市上冨居二丁目９番67号オフィス青木　202号", "url2": "https://www.kaigokensaku.mhlw.go.jp/16/index.php?action_kouhyou_detail_004_kani=true&JigyosyoCd=1670114634-00&ServiceCd=410&Type=search" }, "geometry": { "type": "Point", "coordinates": [ 137.2426408, 36.7074974 ] } },
{ "type": "Feature", "properties": { "内容": "とやまケアマネジメントセンター笑～にこ～【特定福祉用具販売】富山県富山市向新庄町5-6-24ポプリ101号", "url2": "https://www.kaigokensaku.mhlw.go.jp/16/index.php?action_kouhyou_detail_004_kani=true&JigyosyoCd=1670115102-00&ServiceCd=410&Type=search" }, "geometry": { "type": "Point", "coordinates": [ 137.2651311, 36.7039465 ] } },
{ "type": "Feature", "properties": { "内容": "GRNふくし【特定福祉用具販売】富山県富山市小西171番地1", "url2": "https://www.kaigokensaku.mhlw.go.jp/16/index.php?action_kouhyou_detail_004_kani=true&JigyosyoCd=1670115250-00&ServiceCd=410&Type=search" }, "geometry": { "type": "Point", "coordinates": [ 137.258271400000012, 36.7162981 ] } },
{ "type": "Feature", "properties": { "内容": "株式会社スリーティ運輸　ヘルスケア事業部　富山営業所【特定福祉用具販売】富山市二口町1丁目14番11", "url2": "https://www.kaigokensaku.mhlw.go.jp/16/index.php?action_kouhyou_detail_004_kani=true&JigyosyoCd=1670104627-00&ServiceCd=410&Type=search" }, "geometry": { "type": "Point", "coordinates": [ 137.203122386286623, 36.671160796719242 ] } },
{ "type": "Feature", "properties": { "内容": "ふくし百選【特定福祉用具販売】富山市上冨居2丁目2番27号", "url2": "https://www.kaigokensaku.mhlw.go.jp/16/index.php?action_kouhyou_detail_004_kani=true&JigyosyoCd=1670105053-00&ServiceCd=410&Type=search" }, "geometry": { "type": "Point", "coordinates": [ 137.241604413542149, 36.710024987891934 ] } },
{ "type": "Feature", "properties": { "内容": "サカヰ産業株式会社富山総合ガスセンター【特定福祉用具販売】富山市高木２４８１-６", "url2": "https://www.kaigokensaku.mhlw.go.jp/16/index.php?action_kouhyou_detail_004_kani=true&JigyosyoCd=1670103686-00&ServiceCd=410&Type=search" }, "geometry": { "type": "Point", "coordinates": [ 137.154697700000042, 36.7186587 ] } },
{ "type": "Feature", "properties": { "内容": "日本海綿業株式会社【特定福祉用具販売】富山県富山市飯野２－３", "url2": "https://www.kaigokensaku.mhlw.go.jp/16/index.php?action_kouhyou_detail_004_kani=true&JigyosyoCd=1670103637-00&ServiceCd=410&Type=search" }, "geometry": { "type": "Point", "coordinates": [ 137.252484099999947, 36.7164753 ] } },
{ "type": "Feature", "properties": { "内容": "有限会社北陸ケアサービス【特定福祉用具販売】富山市水橋中村町251番地1", "url2": "https://www.kaigokensaku.mhlw.go.jp/16/index.php?action_kouhyou_detail_004_kani=true&JigyosyoCd=1670103694-00&ServiceCd=410&Type=search" }, "geometry": { "type": "Point", "coordinates": [ 137.3051251, 36.7572721 ] } },
{ "type": "Feature", "properties": { "内容": "株式会社メディペック　富山営業所【特定福祉用具販売】富山市古沢332番地1", "url2": "https://www.kaigokensaku.mhlw.go.jp/16/index.php?action_kouhyou_detail_004_kani=true&JigyosyoCd=1670103744-00&ServiceCd=410&Type=search" }, "geometry": { "type": "Point", "coordinates": [ 137.144535200000064, 36.6942535 ] } },
{ "type": "Feature", "properties": { "内容": "株式会社　ヤマシタ　富山営業所【特定福祉用具販売】富山市掛尾町５２０－１", "url2": "https://www.kaigokensaku.mhlw.go.jp/16/index.php?action_kouhyou_detail_004_kani=true&JigyosyoCd=1670103645-00&ServiceCd=410&Type=search" }, "geometry": { "type": "Point", "coordinates": [ 137.208581699999968, 36.6626231 ] } },
{ "type": "Feature", "properties": { "内容": "ダスキンヘルスレント富山ステーション【特定福祉用具販売】富山市新庄町1-16-14", "url2": "https://www.kaigokensaku.mhlw.go.jp/16/index.php?action_kouhyou_detail_004_kani=true&JigyosyoCd=1670104171-00&ServiceCd=410&Type=search" }, "geometry": { "type": "Point", "coordinates": [ 137.253859221175986, 36.701010807847055 ] } },
{ "type": "Feature", "properties": { "内容": "ケア・サンエス　富山【特定福祉用具販売】富山市　黒崎　１２２－１", "url2": "https://www.kaigokensaku.mhlw.go.jp/16/index.php?action_kouhyou_detail_004_kani=true&JigyosyoCd=1670103751-00&ServiceCd=410&Type=search" }, "geometry": { "type": "Point", "coordinates": [ 137.210051300000032, 36.648436 ] } },
{ "type": "Feature", "properties": { "内容": "株式会社オリーブ【特定福祉用具販売】富山県富山市掛尾栄町2-2", "url2": "https://www.kaigokensaku.mhlw.go.jp/16/index.php?action_kouhyou_detail_004_kani=true&JigyosyoCd=1670114519-00&ServiceCd=410&Type=search" }, "geometry": { "type": "Point", "coordinates": [ 137.196875, 36.6680407 ] } },
{ "type": "Feature", "properties": { "内容": "株式会社エマーブル【特定福祉用具販売】富山県富山市牛島本町一丁目5番4号", "url2": "https://www.kaigokensaku.mhlw.go.jp/16/index.php?action_kouhyou_detail_004_kani=true&JigyosyoCd=1670115151-00&ServiceCd=410&Type=search" }, "geometry": { "type": "Point", "coordinates": [ 137.209624347596929, 36.704241962154008 ] } },
{ "type": "Feature", "properties": { "内容": "株式会社蓮【特定福祉用具販売】富山県富山市才覚寺280-1", "url2": "https://www.kaigokensaku.mhlw.go.jp/16/index.php?action_kouhyou_detail_004_kani=true&JigyosyoCd=1670115193-00&ServiceCd=410&Type=search" }, "geometry": { "type": "Point", "coordinates": [ 137.194470399999972, 36.6569819 ] } },
{ "type": "Feature", "properties": { "内容": "小野医療器株式会社オノケア事業部富山営業所【特定福祉用具販売】富山市黒瀬455-1", "url2": "https://www.kaigokensaku.mhlw.go.jp/16/index.php?action_kouhyou_detail_004_kani=true&JigyosyoCd=1670103777-00&ServiceCd=410&Type=search" }, "geometry": { "type": "Point", "coordinates": [ 137.201688737168553, 36.661523808106594 ] } },
{ "type": "Feature", "properties": { "内容": "北酸株式会社　医療事業部【特定福祉用具販売】富山市荒川1丁目1番88号", "url2": "https://www.kaigokensaku.mhlw.go.jp/16/index.php?action_kouhyou_detail_004_kani=true&JigyosyoCd=1670103629-00&ServiceCd=410&Type=search" }, "geometry": { "type": "Point", "coordinates": [ 137.245518299999958, 36.7007631 ] } },
{ "type": "Feature", "properties": { "内容": "株式会社ハシノメディカル富山【特定福祉用具販売】黒崎612-1", "url2": "https://www.kaigokensaku.mhlw.go.jp/16/index.php?action_kouhyou_detail_004_kani=true&JigyosyoCd=1670113107-00&ServiceCd=410&Type=search" }, "geometry": { "type": "Point", "coordinates": [ 137.202668600000038, 36.6551044 ] } },
{ "type": "Feature", "properties": { "内容": "株式会社トーカイ　富山営業所【特定福祉用具販売】富山県富山市黒崎620番1", "url2": "https://www.kaigokensaku.mhlw.go.jp/16/index.php?action_kouhyou_detail_004_kani=true&JigyosyoCd=1670103702-00&ServiceCd=410&Type=search" }, "geometry": { "type": "Point", "coordinates": [ 137.202088099999969, 36.6543156 ] } },
{ "type": "Feature", "properties": { "内容": "ふくし百選　高岡【特定福祉用具販売】高岡市佐野1197-4", "url2": "https://www.kaigokensaku.mhlw.go.jp/16/index.php?action_kouhyou_detail_004_kani=true&JigyosyoCd=1670202488-00&ServiceCd=410&Type=search" }, "geometry": { "type": "Point", "coordinates": [ 137.0005188, 36.7286154 ] } },
{ "type": "Feature", "properties": { "内容": "株式会社　ほのか【特定福祉用具販売】富山県高岡市宝町７－２７", "url2": "https://www.kaigokensaku.mhlw.go.jp/16/index.php?action_kouhyou_detail_004_kani=true&JigyosyoCd=1670201969-00&ServiceCd=410&Type=search" }, "geometry": { "type": "Point", "coordinates": [ 137.026242, 36.7557129 ] } },
{ "type": "Feature", "properties": { "内容": "福祉用具販売事業所フクシ住設【特定福祉用具販売】富山県高岡市戸出町5ｰ4ｰ26", "url2": "https://www.kaigokensaku.mhlw.go.jp/16/index.php?action_kouhyou_detail_004_kani=true&JigyosyoCd=1670202504-00&ServiceCd=410&Type=search" }, "geometry": { "type": "Point", "coordinates": [ 136.9678351, 36.6847113 ] } },
{ "type": "Feature", "properties": { "内容": "株式会社　永田メディカル　ヘルス事業部【特定福祉用具販売】富山県高岡市問屋町12番地", "url2": "https://www.kaigokensaku.mhlw.go.jp/16/index.php?action_kouhyou_detail_004_kani=true&JigyosyoCd=1670202611-00&ServiceCd=410&Type=search" }, "geometry": { "type": "Point", "coordinates": [ 137.0248963, 36.7309371 ] } },
{ "type": "Feature", "properties": { "内容": "ミライ【特定福祉用具販売】富山県高岡市問屋町38", "url2": "https://www.kaigokensaku.mhlw.go.jp/16/index.php?action_kouhyou_detail_004_kani=true&JigyosyoCd=1670202512-00&ServiceCd=410&Type=search" }, "geometry": { "type": "Point", "coordinates": [ 137.026473799999962, 36.7298132 ] } },
{ "type": "Feature", "properties": { "内容": "株式会社　トミキライフケア高岡支店【特定福祉用具販売】富山県高岡市内免4丁目6-38", "url2": "https://www.kaigokensaku.mhlw.go.jp/16/index.php?action_kouhyou_detail_004_kani=true&JigyosyoCd=1670201381-00&ServiceCd=410&Type=search" }, "geometry": { "type": "Point", "coordinates": [ 137.0070548, 36.7574597 ] } },
{ "type": "Feature", "properties": { "内容": "株式会社ハピネス【特定福祉用具販売】富山県高岡市野村1355-9", "url2": "https://www.kaigokensaku.mhlw.go.jp/16/index.php?action_kouhyou_detail_004_kani=true&JigyosyoCd=1670202298-00&ServiceCd=410&Type=search" }, "geometry": { "type": "Point", "coordinates": [ 137.041254799999933, 36.7559018 ] } },
{ "type": "Feature", "properties": { "内容": "株式会社龍雲【特定福祉用具販売】富山県高岡市野村1243-1", "url2": "https://www.kaigokensaku.mhlw.go.jp/16/index.php?action_kouhyou_detail_004_kani=true&JigyosyoCd=1670203080-00&ServiceCd=410&Type=search" }, "geometry": { "type": "Point", "coordinates": [ 137.038890100000032, 36.753099800000015 ] } },
{ "type": "Feature", "properties": { "内容": "福祉用具レンタル・販売まるしん【特定福祉用具販売】伏木一宮2丁目9-13", "url2": "https://www.kaigokensaku.mhlw.go.jp/16/index.php?action_kouhyou_detail_004_kani=true&JigyosyoCd=1670201712-00&ServiceCd=410&Type=search" }, "geometry": { "type": "Point", "coordinates": [ 137.051145432999846, 36.799529715860452 ] } },
{ "type": "Feature", "properties": { "内容": "株式会社　スマイルケア【特定福祉用具販売】高岡市昭和町2丁目2番8号", "url2": "https://www.kaigokensaku.mhlw.go.jp/16/index.php?action_kouhyou_detail_004_kani=true&JigyosyoCd=1670201407-00&ServiceCd=410&Type=search" }, "geometry": { "type": "Point", "coordinates": [ 136.999968208615115, 36.755772966261297 ] } },
{ "type": "Feature", "properties": { "内容": "つなぐ【特定福祉用具販売】富山県高岡市木津769-1", "url2": "https://www.kaigokensaku.mhlw.go.jp/16/index.php?action_kouhyou_detail_004_kani=true&JigyosyoCd=1670202686-00&ServiceCd=410&Type=search" }, "geometry": { "type": "Point", "coordinates": [ 136.994569, 36.735508 ] } },
{ "type": "Feature", "properties": { "内容": "株式会社エマーブル　高岡営業所【特定福祉用具販売】富山県高岡市宝町7番8号", "url2": "https://www.kaigokensaku.mhlw.go.jp/16/index.php?action_kouhyou_detail_004_kani=true&JigyosyoCd=1670203106-00&ServiceCd=410&Type=search" }, "geometry": { "type": "Point", "coordinates": [ 137.0273231, 36.7562371 ] } },
{ "type": "Feature", "properties": { "内容": "株式会社　西条ヘルスケアサ－ビス【特定福祉用具販売】富山県氷見市柳田　1354番地", "url2": "https://www.kaigokensaku.mhlw.go.jp/16/index.php?action_kouhyou_detail_004_kani=true&JigyosyoCd=1670500477-00&ServiceCd=410&Type=search" }, "geometry": { "type": "Point", "coordinates": [ 136.999063500000034, 36.8268976 ] } },
{ "type": "Feature", "properties": { "内容": "株式会社　北陸ケアサポート【特定福祉用具販売】菰原６５－１", "url2": "https://www.kaigokensaku.mhlw.go.jp/16/index.php?action_kouhyou_detail_004_kani=true&JigyosyoCd=1670600566-00&ServiceCd=410&Type=search" }, "geometry": { "type": "Point", "coordinates": [ 137.3344243, 36.7531481 ] } },
{ "type": "Feature", "properties": { "内容": "株式会社スマイルサポートわかば【特定福祉用具販売】富山県黒部市前沢2339", "url2": "https://www.kaigokensaku.mhlw.go.jp/16/index.php?action_kouhyou_detail_004_kani=true&JigyosyoCd=1670700523-00&ServiceCd=410&Type=search" }, "geometry": { "type": "Point", "coordinates": [ 137.441789400000062, 36.863048 ] } },
{ "type": "Feature", "properties": { "内容": "ライフサポート笑【特定福祉用具販売】富山県黒部市立野131番地1", "url2": "https://www.kaigokensaku.mhlw.go.jp/16/index.php?action_kouhyou_detail_004_kani=true&JigyosyoCd=1670700465-00&ServiceCd=410&Type=search" }, "geometry": { "type": "Point", "coordinates": [ 137.422756049073769, 36.876293482459992 ] } },
{ "type": "Feature", "properties": { "内容": "アルコットケア株式会社【特定福祉用具販売】富山県黒部市植木491-1", "url2": "https://www.kaigokensaku.mhlw.go.jp/16/index.php?action_kouhyou_detail_004_kani=true&JigyosyoCd=1670700580-00&ServiceCd=410&Type=search" }, "geometry": { "type": "Point", "coordinates": [ 137.4469116, 36.8819447 ] } },
{ "type": "Feature", "properties": { "内容": "株式会社スリーティ運輸ヘルスケア事業部砺波営業所【特定福祉用具販売】富山県砺波市鷹栖1907番地", "url2": "https://www.kaigokensaku.mhlw.go.jp/16/index.php?action_kouhyou_detail_004_kani=true&JigyosyoCd=1670800422-00&ServiceCd=410&Type=search" }, "geometry": { "type": "Point", "coordinates": [ 136.916816299999937, 36.6233805 ] } },
{ "type": "Feature", "properties": { "内容": "小野医療器株式会社【特定福祉用具販売】砺波市新又152-2", "url2": "https://www.kaigokensaku.mhlw.go.jp/16/index.php?action_kouhyou_detail_004_kani=true&JigyosyoCd=1670800398-00&ServiceCd=410&Type=search" }, "geometry": { "type": "Point", "coordinates": [ 136.96245156603311, 36.649977499466949 ] } },
{ "type": "Feature", "properties": { "内容": "クララのおてつだい【特定福祉用具販売】山見京願１７３９番地の２井波シッピングセンターアスモ１階", "url2": "https://www.kaigokensaku.mhlw.go.jp/16/index.php?action_kouhyou_detail_004_kani=true&JigyosyoCd=1671000378-00&ServiceCd=410&Type=search" }, "geometry": { "type": "Point", "coordinates": [ 136.96846259391782, 36.565607468548905 ] } },
{ "type": "Feature", "properties": { "内容": "福祉レンタルこもれび【特定福祉用具販売】富山県南砺市福野1657番地1", "url2": "https://www.kaigokensaku.mhlw.go.jp/16/index.php?action_kouhyou_detail_004_kani=true&JigyosyoCd=1671000444-00&ServiceCd=410&Type=search" }, "geometry": { "type": "Point", "coordinates": [ 136.920982900000013, 36.5925988 ] } },
{ "type": "Feature", "properties": { "内容": "株式会社エムアンドティ【特定福祉用具販売】城端４３１６－１　ＪＥＣビル１Ｆ", "url2": "https://www.kaigokensaku.mhlw.go.jp/16/index.php?action_kouhyou_detail_004_kani=true&JigyosyoCd=1671000188-00&ServiceCd=410&Type=search" }, "geometry": { "type": "Point", "coordinates": [ 136.9015777, 36.5119199 ] } },
{ "type": "Feature", "properties": { "内容": "ワイズケアステーション【特定福祉用具販売】富山県射水市赤井104番地1", "url2": "https://www.kaigokensaku.mhlw.go.jp/16/index.php?action_kouhyou_detail_004_kani=true&JigyosyoCd=1671100780-00&ServiceCd=410&Type=search" }, "geometry": { "type": "Point", "coordinates": [ 137.0719401, 36.7316841 ] } },
{ "type": "Feature", "properties": { "内容": "株式会社　ウィル【特定福祉用具販売】富山県射水市黒河3075", "url2": "https://www.kaigokensaku.mhlw.go.jp/16/index.php?action_kouhyou_detail_004_kani=true&JigyosyoCd=1671100103-00&ServiceCd=410&Type=search" }, "geometry": { "type": "Point", "coordinates": [ 137.1102747, 36.7019127 ] } },
{ "type": "Feature", "properties": { "内容": "ダスキンヘルスレント射水ステーション【特定福祉用具販売】富山県射水市鷲塚１０６－２", "url2": "https://www.kaigokensaku.mhlw.go.jp/16/index.php?action_kouhyou_detail_004_kani=true&JigyosyoCd=1671100137-00&ServiceCd=410&Type=search" }, "geometry": { "type": "Point", "coordinates": [ 137.121616962565668, 36.72039399841475 ] } },
{ "type": "Feature", "properties": { "内容": "菅原建設　株式会社　ライフケア事業部【特定福祉用具販売】金剛寺81", "url2": "https://www.kaigokensaku.mhlw.go.jp/16/index.php?action_kouhyou_detail_004_kani=true&JigyosyoCd=1671600870-00&ServiceCd=410&Type=search" }, "geometry": { "type": "Point", "coordinates": [ 137.3361923, 36.644019 ] } },
{ "type": "Feature", "properties": { "内容": "株式会社カインドハート【特定福祉用具販売】富山県中新川郡立山町前沢新町657ファーストガーデン1F", "url2": "https://www.kaigokensaku.mhlw.go.jp/16/index.php?action_kouhyou_detail_004_kani=true&JigyosyoCd=1671600854-00&ServiceCd=410&Type=search" }, "geometry": { "type": "Point", "coordinates": [ 137.312957899999986, 36.6656886 ] } },
{ "type": "Feature", "properties": { "内容": "株式会社　イリス【特定福祉用具販売】富山県下新川郡入善町入膳3436番地4", "url2": "https://www.kaigokensaku.mhlw.go.jp/16/index.php?action_kouhyou_detail_004_kani=true&JigyosyoCd=1671700381-00&ServiceCd=410&Type=search" }, "geometry": { "type": "Point", "coordinates": [ 137.504744100000039, 36.9324723 ] } }
]
}
