{
"type": "FeatureCollection",
"name": "geo_16_通所リハビリテーション",
"crs": { "type": "name", "properties": { "name": "urn:ogc:def:crs:OGC:1.3:CRS84" } },
"features": [
{ "type": "Feature", "properties": { "内容": "布谷整形外科医院【通所リハビリテーション】西四十物町3-8", "url2": "https://www.kaigokensaku.mhlw.go.jp/16/index.php?action_kouhyou_detail_004_kani=true&JigyosyoCd=1610112292-00&ServiceCd=160&Type=search" }, "geometry": { "type": "Point", "coordinates": [ 137.209391699999969, 36.6886361 ] } },
{ "type": "Feature", "properties": { "内容": "桝谷整形外科デイケア【通所リハビリテーション】富山県富山市丸の内2丁目3番地8号", "url2": "https://www.kaigokensaku.mhlw.go.jp/16/index.php?action_kouhyou_detail_004_kani=true&JigyosyoCd=1670101359-00&ServiceCd=160&Type=search" }, "geometry": { "type": "Point", "coordinates": [ 137.208516700000018, 36.6914745 ] } },
{ "type": "Feature", "properties": { "内容": "佐伯病院【通所リハビリテーション】富山県富山市中川原43-1", "url2": "https://www.kaigokensaku.mhlw.go.jp/16/index.php?action_kouhyou_detail_004_kani=true&JigyosyoCd=1610118190-00&ServiceCd=160&Type=search" }, "geometry": { "type": "Point", "coordinates": [ 137.244596692590306, 36.676161079107757 ] } },
{ "type": "Feature", "properties": { "内容": "波動歯科診療所【通所リハビリテーション】富山県富山市草島63-1", "url2": "https://www.kaigokensaku.mhlw.go.jp/16/index.php?action_kouhyou_detail_004_kani=true&JigyosyoCd=1630134359-00&ServiceCd=160&Type=search" }, "geometry": { "type": "Point", "coordinates": [ 137.207990099999961, 36.7466318 ] } },
{ "type": "Feature", "properties": { "内容": "富山リハビリテーションホーム　通所リハビリ【通所リハビリテーション】富山県富山市丸の内三丁目３番２２号", "url2": "https://www.kaigokensaku.mhlw.go.jp/16/index.php?action_kouhyou_detail_004_kani=true&JigyosyoCd=1670101441-00&ServiceCd=160&Type=search" }, "geometry": { "type": "Point", "coordinates": [ 137.2091471, 36.6912107 ] } },
{ "type": "Feature", "properties": { "内容": "富山協立病院　通所リハビリテーション　とよたシャキシャキ【通所リハビリテーション】富山市豊田町1丁目１－８", "url2": "https://www.kaigokensaku.mhlw.go.jp/16/index.php?action_kouhyou_detail_004_kani=true&JigyosyoCd=1670104239-00&ServiceCd=160&Type=search" }, "geometry": { "type": "Point", "coordinates": [ 137.233368299999938, 36.7245321 ] } },
{ "type": "Feature", "properties": { "内容": "いま泉病院通所リハビリテーション【通所リハビリテーション】.富山市今泉２２０", "url2": "https://www.kaigokensaku.mhlw.go.jp/16/index.php?action_kouhyou_detail_004_kani=true&JigyosyoCd=1670101235-00&ServiceCd=160&Type=search" }, "geometry": { "type": "Point", "coordinates": [ 137.212695, 36.668853 ] } },
{ "type": "Feature", "properties": { "内容": "通所リハビリテーションあいの風【通所リハビリテーション】富山市楠木３００番地", "url2": "https://www.kaigokensaku.mhlw.go.jp/16/index.php?action_kouhyou_detail_004_kani=true&JigyosyoCd=1670104668-00&ServiceCd=160&Type=search" }, "geometry": { "type": "Point", "coordinates": [ 137.256952800000022, 36.7316903 ] } },
{ "type": "Feature", "properties": { "内容": "大沢野老人保健施設　かがやき【通所リハビリテーション】富山県富山市春日３６２－１", "url2": "https://www.kaigokensaku.mhlw.go.jp/16/index.php?action_kouhyou_detail_004_kani=true&JigyosyoCd=1651580001-00&ServiceCd=160&Type=search" }, "geometry": { "type": "Point", "coordinates": [ 137.204757100000052, 36.5629262 ] } },
{ "type": "Feature", "properties": { "内容": "布谷整形外科医院　通所リハビリセンター【通所リハビリテーション】富山県富山市西四十物町3番8号", "url2": "https://www.kaigokensaku.mhlw.go.jp/16/index.php?action_kouhyou_detail_004_kani=true&JigyosyoCd=1610119347-00&ServiceCd=160&Type=search" }, "geometry": { "type": "Point", "coordinates": [ 137.209051312828024, 36.688744438920544 ] } },
{ "type": "Feature", "properties": { "内容": "長谷川病院通所リハビリテーションいぐり【通所リハビリテーション】富山県富山市星井町2丁目7番40号", "url2": "https://www.kaigokensaku.mhlw.go.jp/16/index.php?action_kouhyou_detail_004_kani=true&JigyosyoCd=1610116426-00&ServiceCd=160&Type=search" }, "geometry": { "type": "Point", "coordinates": [ 137.212229900000011, 36.6842066 ] } },
{ "type": "Feature", "properties": { "内容": "介護老人保健施設仁泉メディケア【通所リハビリテーション】富山市手屋2丁目135-1", "url2": "https://www.kaigokensaku.mhlw.go.jp/16/index.php?action_kouhyou_detail_004_kani=true&JigyosyoCd=1650180159-00&ServiceCd=160&Type=search" }, "geometry": { "type": "Point", "coordinates": [ 137.269549200000029, 36.7211364 ] } },
{ "type": "Feature", "properties": { "内容": "短時間型通所リハビリテーション「みなみ」【通所リハビリテーション】富山県富山市秋ヶ島145-1西能みなみ病院", "url2": "https://www.kaigokensaku.mhlw.go.jp/16/index.php?action_kouhyou_detail_004_kani=true&JigyosyoCd=1610117754-00&ServiceCd=160&Type=search" }, "geometry": { "type": "Point", "coordinates": [ 137.193255799999946, 36.6450081 ] } },
{ "type": "Feature", "properties": { "内容": "みどり苑通所リハビリテーション【通所リハビリテーション】富山県富山市秋ヶ島146番1", "url2": "https://www.kaigokensaku.mhlw.go.jp/16/index.php?action_kouhyou_detail_004_kani=true&JigyosyoCd=1670101706-00&ServiceCd=160&Type=search" }, "geometry": { "type": "Point", "coordinates": [ 137.193147400000043, 36.6446498 ] } },
{ "type": "Feature", "properties": { "内容": "老人保健施設シルバーケア栗山【通所リハビリテーション】富山市栗山字沢下割900", "url2": "https://www.kaigokensaku.mhlw.go.jp/16/index.php?action_kouhyou_detail_004_kani=true&JigyosyoCd=1650180076-00&ServiceCd=160&Type=search" }, "geometry": { "type": "Point", "coordinates": [ 137.2077716, 36.6211195 ] } },
{ "type": "Feature", "properties": { "内容": "通所リハビリテーション　きたまえ【通所リハビリテーション】富山市東岩瀬町２７５番地", "url2": "https://www.kaigokensaku.mhlw.go.jp/16/index.php?action_kouhyou_detail_004_kani=true&JigyosyoCd=1670112034-00&ServiceCd=160&Type=search" }, "geometry": { "type": "Point", "coordinates": [ 137.2290127, 36.7551234 ] } },
{ "type": "Feature", "properties": { "内容": "介護老人保健施設　アメニティ月岡　通所リハビリテーション【通所リハビリテーション】富山市月岡町２丁目１８９番地", "url2": "https://www.kaigokensaku.mhlw.go.jp/16/index.php?action_kouhyou_detail_004_kani=true&JigyosyoCd=1650180100-00&ServiceCd=160&Type=search" }, "geometry": { "type": "Point", "coordinates": [ 137.264052600000014, 36.6244531 ] } },
{ "type": "Feature", "properties": { "内容": "富山西リハビリテーション病院【通所リハビリテーション】富山県富山市婦中町下轡田1010", "url2": "https://www.kaigokensaku.mhlw.go.jp/16/index.php?action_kouhyou_detail_004_kani=true&JigyosyoCd=1610119248-00&ServiceCd=160&Type=search" }, "geometry": { "type": "Point", "coordinates": [ 137.173452200000042, 36.6594113 ] } },
{ "type": "Feature", "properties": { "内容": "富山老人保健施設【通所リハビリテーション】富山県富山市上千俵町９８－１", "url2": "https://www.kaigokensaku.mhlw.go.jp/16/index.php?action_kouhyou_detail_004_kani=true&JigyosyoCd=1670101136-00&ServiceCd=160&Type=search" }, "geometry": { "type": "Point", "coordinates": [ 137.244307, 36.6269555 ] } },
{ "type": "Feature", "properties": { "内容": "栗山病院通所リハビリテーション【通所リハビリテーション】富山県富山市開発133番地", "url2": "https://www.kaigokensaku.mhlw.go.jp/16/index.php?action_kouhyou_detail_004_kani=true&JigyosyoCd=1670101250-00&ServiceCd=160&Type=search" }, "geometry": { "type": "Point", "coordinates": [ 137.246162300000037, 36.6313494 ] } },
{ "type": "Feature", "properties": { "内容": "佐伯病院【通所リハビリテーション】富山県富山市中川原４３－１", "url2": "https://www.kaigokensaku.mhlw.go.jp/16/index.php?action_kouhyou_detail_004_kani=true&JigyosyoCd=1610118778-00&ServiceCd=160&Type=search" }, "geometry": { "type": "Point", "coordinates": [ 137.244631499999969, 36.6760853 ] } },
{ "type": "Feature", "properties": { "内容": "みわ苑通所リハビリテーション【通所リハビリテーション】富山県富山市小中290-1", "url2": "https://www.kaigokensaku.mhlw.go.jp/16/index.php?action_kouhyou_detail_004_kani=true&JigyosyoCd=1670101458-00&ServiceCd=160&Type=search" }, "geometry": { "type": "Point", "coordinates": [ 137.21276510000007, 36.6394232 ] } },
{ "type": "Feature", "properties": { "内容": "デイケアおきな【通所リハビリテーション】富山市元町二丁目３番２０号", "url2": "https://www.kaigokensaku.mhlw.go.jp/16/index.php?action_kouhyou_detail_004_kani=true&JigyosyoCd=1610118117-00&ServiceCd=160&Type=search" }, "geometry": { "type": "Point", "coordinates": [ 137.230347700000038, 36.6888227 ] } },
{ "type": "Feature", "properties": { "内容": "介護老人保健施設　シルバーケア今泉【通所リハビリテーション】富山市今泉218番地", "url2": "https://www.kaigokensaku.mhlw.go.jp/16/index.php?action_kouhyou_detail_004_kani=true&JigyosyoCd=1650180019-00&ServiceCd=160&Type=search" }, "geometry": { "type": "Point", "coordinates": [ 137.212167300000033, 36.6691613 ] } },
{ "type": "Feature", "properties": { "内容": "老人保健施設　チューリップ苑　通所リハビリテーション【通所リハビリテーション】富山県富山市長江五丁目４番３３号", "url2": "https://www.kaigokensaku.mhlw.go.jp/16/index.php?action_kouhyou_detail_004_kani=true&JigyosyoCd=1670101482-00&ServiceCd=160&Type=search" }, "geometry": { "type": "Point", "coordinates": [ 137.245310356869481, 36.687669969207526 ] } },
{ "type": "Feature", "properties": { "内容": "医療法人社団　正啓会　成和病院【通所リハビリテーション】富山県富山市針原中町336", "url2": "https://www.kaigokensaku.mhlw.go.jp/16/index.php?action_kouhyou_detail_004_kani=true&JigyosyoCd=1610114637-00&ServiceCd=160&Type=search" }, "geometry": { "type": "Point", "coordinates": [ 137.265105, 36.724574699999984 ] } },
{ "type": "Feature", "properties": { "内容": "清幸会　島田病院【通所リハビリテーション】富山県富山市下新北町6番52号", "url2": "https://www.kaigokensaku.mhlw.go.jp/16/index.php?action_kouhyou_detail_004_kani=true&JigyosyoCd=1670101219-00&ServiceCd=160&Type=search" }, "geometry": { "type": "Point", "coordinates": [ 137.219516800000065, 36.7169437 ] } },
{ "type": "Feature", "properties": { "内容": "老人保健施設　白雲荘【通所リハビリテーション】富山市流杉123番地", "url2": "https://www.kaigokensaku.mhlw.go.jp/16/index.php?action_kouhyou_detail_004_kani=true&JigyosyoCd=1650180043-00&ServiceCd=160&Type=search" }, "geometry": { "type": "Point", "coordinates": [ 137.275503299999968, 36.6589716 ] } },
{ "type": "Feature", "properties": { "内容": "リハビリセンター　あんじゅーる【通所リハビリテーション】富山市上二杉420-3", "url2": "https://www.kaigokensaku.mhlw.go.jp/16/index.php?action_kouhyou_detail_004_kani=true&JigyosyoCd=1670104775-00&ServiceCd=160&Type=search" }, "geometry": { "type": "Point", "coordinates": [ 137.202661900000066, 36.5910172 ] } },
{ "type": "Feature", "properties": { "内容": "八尾老人保健施設　風の庭【通所リハビリテーション】富山県富山市八尾町福島7-42", "url2": "https://www.kaigokensaku.mhlw.go.jp/16/index.php?action_kouhyou_detail_004_kani=true&JigyosyoCd=1651880005-00&ServiceCd=160&Type=search" }, "geometry": { "type": "Point", "coordinates": [ 137.1377397, 36.5963545 ] } },
{ "type": "Feature", "properties": { "内容": "通所リハビリテーション山室【通所リハビリテーション】富山県富山市山室44－1", "url2": "https://www.kaigokensaku.mhlw.go.jp/16/index.php?action_kouhyou_detail_004_kani=true&JigyosyoCd=1610117671-00&ServiceCd=160&Type=search" }, "geometry": { "type": "Point", "coordinates": [ 137.24164769999993, 36.6685006 ] } },
{ "type": "Feature", "properties": { "内容": "介護老人保健施設レインボー通所リハビリテーション【通所リハビリテーション】富山市水橋新堀１", "url2": "https://www.kaigokensaku.mhlw.go.jp/16/index.php?action_kouhyou_detail_004_kani=true&JigyosyoCd=1670101508-00&ServiceCd=160&Type=search" }, "geometry": { "type": "Point", "coordinates": [ 137.303562899999946, 36.7162657 ] } },
{ "type": "Feature", "properties": { "内容": "介護老人保健施設シルバーケア羽根苑デイケアセンター【通所リハビリテーション】富山県富山市婦中町羽根1092番2", "url2": "https://www.kaigokensaku.mhlw.go.jp/16/index.php?action_kouhyou_detail_004_kani=true&JigyosyoCd=1651880138-00&ServiceCd=160&Type=search" }, "geometry": { "type": "Point", "coordinates": [ 137.140079317721529, 36.659269682254802 ] } },
{ "type": "Feature", "properties": { "内容": "富山医療生活協同組合　水橋診療所【通所リハビリテーション】富山県富山市水橋舘町59-1", "url2": "https://www.kaigokensaku.mhlw.go.jp/16/index.php?action_kouhyou_detail_004_kani=true&JigyosyoCd=1610115014-00&ServiceCd=160&Type=search" }, "geometry": { "type": "Point", "coordinates": [ 137.312124400000016, 36.755442 ] } },
{ "type": "Feature", "properties": { "内容": "医療法人社団城南会　城南通所リハビリセンター【通所リハビリテーション】富山県富山市太郎丸本町一丁目8番1", "url2": "https://www.kaigokensaku.mhlw.go.jp/16/index.php?action_kouhyou_detail_004_kani=true&JigyosyoCd=1670115474-00&ServiceCd=160&Type=search" }, "geometry": { "type": "Point", "coordinates": [ 137.212236542991604, 36.677968537864096 ] } },
{ "type": "Feature", "properties": { "内容": "富山県リハビリテーション病院・こども支援センター【通所リハビリテーション】富山県富山市下飯野３６番地", "url2": "https://www.kaigokensaku.mhlw.go.jp/16/index.php?action_kouhyou_detail_004_kani=true&JigyosyoCd=1610113811-00&ServiceCd=160&Type=search" }, "geometry": { "type": "Point", "coordinates": [ 137.266233779623462, 36.74504933392577 ] } },
{ "type": "Feature", "properties": { "内容": "介護老人保健施設シルバーケア城南【通所リハビリテーション】富山県富山市太郎丸西町一丁目6番6", "url2": "https://www.kaigokensaku.mhlw.go.jp/16/index.php?action_kouhyou_detail_004_kani=true&JigyosyoCd=1650180118-00&ServiceCd=160&Type=search" }, "geometry": { "type": "Point", "coordinates": [ 137.209456100000011, 36.677335 ] } },
{ "type": "Feature", "properties": { "内容": "万葉病院【通所リハビリテーション】富山県高岡市西海老坂字大坪362番", "url2": "https://www.kaigokensaku.mhlw.go.jp/16/index.php?action_kouhyou_detail_004_kani=true&JigyosyoCd=1610211888-00&ServiceCd=160&Type=search" }, "geometry": { "type": "Point", "coordinates": [ 136.998989232004561, 36.777639068697347 ] } },
{ "type": "Feature", "properties": { "内容": "高岡老人保健施設　長寿苑【通所リハビリテーション】富山県高岡市京田７２", "url2": "https://www.kaigokensaku.mhlw.go.jp/16/index.php?action_kouhyou_detail_004_kani=true&JigyosyoCd=1650280009-00&ServiceCd=160&Type=search" }, "geometry": { "type": "Point", "coordinates": [ 137.016588800000022, 36.7320767 ] } },
{ "type": "Feature", "properties": { "内容": "やすらぎ通所リハビリテーション【通所リハビリテーション】富山県高岡市美幸町1丁目1番53号", "url2": "https://www.kaigokensaku.mhlw.go.jp/16/index.php?action_kouhyou_detail_004_kani=true&JigyosyoCd=1650280025-00&ServiceCd=160&Type=search" }, "geometry": { "type": "Point", "coordinates": [ 136.998072500000035, 36.7558292 ] } },
{ "type": "Feature", "properties": { "内容": "老人保健施設さくら苑【通所リハビリテーション】高岡市福岡町大野１４５", "url2": "https://www.kaigokensaku.mhlw.go.jp/16/index.php?action_kouhyou_detail_004_kani=true&JigyosyoCd=1652180009-00&ServiceCd=160&Type=search" }, "geometry": { "type": "Point", "coordinates": [ 136.935855800000013, 36.7196319 ] } },
{ "type": "Feature", "properties": { "内容": "老人保健施設しきのケアセンター【通所リハビリテーション】富山県高岡市鷲北新480", "url2": "https://www.kaigokensaku.mhlw.go.jp/16/index.php?action_kouhyou_detail_004_kani=true&JigyosyoCd=1650280041-00&ServiceCd=160&Type=search" }, "geometry": { "type": "Point", "coordinates": [ 137.037265700000034, 36.766606 ] } },
{ "type": "Feature", "properties": { "内容": "デイケア　光ヶ丘【通所リハビリテーション】富山県高岡市西藤平蔵313", "url2": "https://www.kaigokensaku.mhlw.go.jp/16/index.php?action_kouhyou_detail_004_kani=true&JigyosyoCd=1670200300-00&ServiceCd=160&Type=search" }, "geometry": { "type": "Point", "coordinates": [ 136.985816800000066, 36.7072474 ] } },
{ "type": "Feature", "properties": { "内容": "きぼう通所リハビリテーション【通所リハビリテーション】富山県高岡市和田１０５５", "url2": "https://www.kaigokensaku.mhlw.go.jp/16/index.php?action_kouhyou_detail_004_kani=true&JigyosyoCd=1650280058-00&ServiceCd=160&Type=search" }, "geometry": { "type": "Point", "coordinates": [ 136.983398, 36.7350586 ] } },
{ "type": "Feature", "properties": { "内容": "アルカディア雨晴【通所リハビリテーション】高岡市太田桜谷23-1", "url2": "https://www.kaigokensaku.mhlw.go.jp/16/index.php?action_kouhyou_detail_004_kani=true&JigyosyoCd=1650280033-00&ServiceCd=160&Type=search" }, "geometry": { "type": "Point", "coordinates": [ 137.033544161268651, 36.814858288571088 ] } },
{ "type": "Feature", "properties": { "内容": "介護老人保健施設おおぞら【通所リハビリテーション】富山県高岡市京田490番地", "url2": "https://www.kaigokensaku.mhlw.go.jp/16/index.php?action_kouhyou_detail_004_kani=true&JigyosyoCd=1650280017-00&ServiceCd=160&Type=search" }, "geometry": { "type": "Point", "coordinates": [ 137.0172973, 36.728266 ] } },
{ "type": "Feature", "properties": { "内容": "医療法人社団宮本内科小児科医院デイケアステーションかがやき【通所リハビリテーション】魚津市新角川1-8-4", "url2": "https://www.kaigokensaku.mhlw.go.jp/16/index.php?action_kouhyou_detail_004_kani=true&JigyosyoCd=1610411025-00&ServiceCd=160&Type=search" }, "geometry": { "type": "Point", "coordinates": [ 137.3963496, 36.812074 ] } },
{ "type": "Feature", "properties": { "内容": "介護療養型老人保健施設ちょうろく【通所リハビリテーション】富山県魚津市石垣389番地", "url2": "https://www.kaigokensaku.mhlw.go.jp/16/index.php?action_kouhyou_detail_004_kani=true&JigyosyoCd=1650480047-00&ServiceCd=160&Type=search" }, "geometry": { "type": "Point", "coordinates": [ 137.4426906, 36.8050837 ] } },
{ "type": "Feature", "properties": { "内容": "老人保健施設ちょうろく【通所リハビリテーション】富山県魚津市石垣３８９番地", "url2": "https://www.kaigokensaku.mhlw.go.jp/16/index.php?action_kouhyou_detail_004_kani=true&JigyosyoCd=1650480021-00&ServiceCd=160&Type=search" }, "geometry": { "type": "Point", "coordinates": [ 137.4426906, 36.8050837 ] } },
{ "type": "Feature", "properties": { "内容": "スコール予防通所リハビリセンター【通所リハビリテーション】富山県魚津市本江１－２６", "url2": "https://www.kaigokensaku.mhlw.go.jp/16/index.php?action_kouhyou_detail_004_kani=true&JigyosyoCd=1670400561-00&ServiceCd=160&Type=search" }, "geometry": { "type": "Point", "coordinates": [ 137.407573700000057, 36.8172266 ] } },
{ "type": "Feature", "properties": { "内容": "魚津老人保健施設通所リハビリセンター【通所リハビリテーション】富山県魚津市友道789番地", "url2": "https://www.kaigokensaku.mhlw.go.jp/16/index.php?action_kouhyou_detail_004_kani=true&JigyosyoCd=1650480005-00&ServiceCd=160&Type=search" }, "geometry": { "type": "Point", "coordinates": [ 137.411204199999929, 36.8145575 ] } },
{ "type": "Feature", "properties": { "内容": "新川老人保健施設【通所リハビリテーション】富山県魚津市住吉236", "url2": "https://www.kaigokensaku.mhlw.go.jp/16/index.php?action_kouhyou_detail_004_kani=true&JigyosyoCd=1650480062-00&ServiceCd=160&Type=search" }, "geometry": { "type": "Point", "coordinates": [ 137.399328, 36.8002419 ] } },
{ "type": "Feature", "properties": { "内容": "老人保健施設エルダーヴィラ氷見【通所リハビリテーション】富山県氷見市余川南山50番地", "url2": "https://www.kaigokensaku.mhlw.go.jp/16/index.php?action_kouhyou_detail_004_kani=true&JigyosyoCd=1650580010-00&ServiceCd=160&Type=search" }, "geometry": { "type": "Point", "coordinates": [ 136.951222199999961, 36.8828797 ] } },
{ "type": "Feature", "properties": { "内容": "金沢医科大学氷見市民病院【通所リハビリテーション】富山県氷見市鞍川１１３０番地", "url2": "https://www.kaigokensaku.mhlw.go.jp/16/index.php?action_kouhyou_detail_004_kani=true&JigyosyoCd=1670500519-00&ServiceCd=160&Type=search" }, "geometry": { "type": "Point", "coordinates": [ 136.968057600000066, 36.8553644 ] } },
{ "type": "Feature", "properties": { "内容": "老人保健施設　アルカディア氷見【通所リハビリテーション】富山県氷見市鞍川1878-1", "url2": "https://www.kaigokensaku.mhlw.go.jp/16/index.php?action_kouhyou_detail_004_kani=true&JigyosyoCd=1650580028-00&ServiceCd=160&Type=search" }, "geometry": { "type": "Point", "coordinates": [ 136.958850200000029, 36.8503149 ] } },
{ "type": "Feature", "properties": { "内容": "医療法人社団　秀林会　吉見病院【通所リハビリテーション】富山県滑川市清水町３番２５号", "url2": "https://www.kaigokensaku.mhlw.go.jp/16/index.php?action_kouhyou_detail_004_kani=true&JigyosyoCd=1610610469-00&ServiceCd=160&Type=search" }, "geometry": { "type": "Point", "coordinates": [ 137.3437487, 36.7634206 ] } },
{ "type": "Feature", "properties": { "内容": "老人保健施設なごみ苑【通所リハビリテーション】富山県滑川市野町1686番地", "url2": "https://www.kaigokensaku.mhlw.go.jp/16/index.php?action_kouhyou_detail_004_kani=true&JigyosyoCd=1650680000-00&ServiceCd=160&Type=search" }, "geometry": { "type": "Point", "coordinates": [ 137.368174599999946, 36.763512 ] } },
{ "type": "Feature", "properties": { "内容": "むらおかクリニック　デイケア　てまりの丘【通所リハビリテーション】富山県黒部市生地神区370番地", "url2": "https://www.kaigokensaku.mhlw.go.jp/16/index.php?action_kouhyou_detail_004_kani=true&JigyosyoCd=1610710616-00&ServiceCd=160&Type=search" }, "geometry": { "type": "Point", "coordinates": [ 137.42002679999996, 36.8884917 ] } },
{ "type": "Feature", "properties": { "内容": "医療法人社団平成会桜井病院　ほほえみ【通所リハビリテーション】富山県黒部市荻生6675番地の5", "url2": "https://www.kaigokensaku.mhlw.go.jp/16/index.php?action_kouhyou_detail_004_kani=true&JigyosyoCd=1610710350-00&ServiceCd=160&Type=search" }, "geometry": { "type": "Point", "coordinates": [ 137.455349, 36.873269 ] } },
{ "type": "Feature", "properties": { "内容": "池田リハビリテーション病院　通所リハビリテーション事業所【通所リハビリテーション】富山県黒部市荻生821", "url2": "https://www.kaigokensaku.mhlw.go.jp/16/index.php?action_kouhyou_detail_004_kani=true&JigyosyoCd=1610710558-00&ServiceCd=160&Type=search" }, "geometry": { "type": "Point", "coordinates": [ 137.469502, 36.8878395 ] } },
{ "type": "Feature", "properties": { "内容": "黒部市介護老人保健施設カリエール【通所リハビリテーション】富山県黒部市牧野693", "url2": "https://www.kaigokensaku.mhlw.go.jp/16/index.php?action_kouhyou_detail_004_kani=true&JigyosyoCd=1650780024-00&ServiceCd=160&Type=search" }, "geometry": { "type": "Point", "coordinates": [ 137.442223300629024, 36.870448002995609 ] } },
{ "type": "Feature", "properties": { "内容": "老人保健施設あかり苑【通所リハビリテーション】富山県砺波市寿町2番38号", "url2": "https://www.kaigokensaku.mhlw.go.jp/16/index.php?action_kouhyou_detail_004_kani=true&JigyosyoCd=1650880006-00&ServiceCd=160&Type=search" }, "geometry": { "type": "Point", "coordinates": [ 136.956603399999949, 36.6435398 ] } },
{ "type": "Feature", "properties": { "内容": "砺波誠友病院【通所リハビリテーション】砺波市大窪17-1", "url2": "https://www.kaigokensaku.mhlw.go.jp/16/index.php?action_kouhyou_detail_004_kani=true&JigyosyoCd=1610810507-00&ServiceCd=160&Type=search" }, "geometry": { "type": "Point", "coordinates": [ 136.980573700000036, 36.6544299 ] } },
{ "type": "Feature", "properties": { "内容": "となみ三輪病院【通所リハビリテーション】砺波市頼成６０５番地", "url2": "https://www.kaigokensaku.mhlw.go.jp/16/index.php?action_kouhyou_detail_004_kani=true&JigyosyoCd=1610810523-00&ServiceCd=160&Type=search" }, "geometry": { "type": "Point", "coordinates": [ 137.00840119999998, 36.6366867 ] } },
{ "type": "Feature", "properties": { "内容": "介護老人保健施設　ケアポート庄川　通所リハビリテーション【通所リハビリテーション】富山県砺波市庄川町金屋字岩黒38-1", "url2": "https://www.kaigokensaku.mhlw.go.jp/16/index.php?action_kouhyou_detail_004_kani=true&JigyosyoCd=1672000310-00&ServiceCd=160&Type=search" }, "geometry": { "type": "Point", "coordinates": [ 136.98471502590337, 36.565038415879755 ] } },
{ "type": "Feature", "properties": { "内容": "にしの老人保健施設【通所リハビリテーション】小矢部市本町3-38", "url2": "https://www.kaigokensaku.mhlw.go.jp/16/index.php?action_kouhyou_detail_004_kani=true&JigyosyoCd=1650980004-00&ServiceCd=160&Type=search" }, "geometry": { "type": "Point", "coordinates": [ 136.866519599999947, 36.6748251 ] } },
{ "type": "Feature", "properties": { "内容": "介護老人保健施設ゆうゆうハウス【通所リハビリテーション】富山県小矢部市島３２２番地", "url2": "https://www.kaigokensaku.mhlw.go.jp/16/index.php?action_kouhyou_detail_004_kani=true&JigyosyoCd=1650980012-00&ServiceCd=160&Type=search" }, "geometry": { "type": "Point", "coordinates": [ 136.876132900000016, 36.6661179 ] } },
{ "type": "Feature", "properties": { "内容": "介護老人保健施設葵の園・なんと【通所リハビリテーション】富山県南砺市天池字二番野島1555番3", "url2": "https://www.kaigokensaku.mhlw.go.jp/16/index.php?action_kouhyou_detail_004_kani=true&JigyosyoCd=1652180017-00&ServiceCd=160&Type=search" }, "geometry": { "type": "Point", "coordinates": [ 136.90378080000005, 36.5425379 ] } },
{ "type": "Feature", "properties": { "内容": "ふくの若葉病院【通所リハビリテーション】富山県南砺市苗島367番地", "url2": "https://www.kaigokensaku.mhlw.go.jp/16/index.php?action_kouhyou_detail_004_kani=true&JigyosyoCd=1612010635-00&ServiceCd=160&Type=search" }, "geometry": { "type": "Point", "coordinates": [ 136.9317628, 36.586319 ] } },
{ "type": "Feature", "properties": { "内容": "介護老人保健施設　城端うらら【通所リハビリテーション】富山県南砺市理休270番地", "url2": "https://www.kaigokensaku.mhlw.go.jp/16/index.php?action_kouhyou_detail_004_kani=true&JigyosyoCd=1652080019-00&ServiceCd=160&Type=search" }, "geometry": { "type": "Point", "coordinates": [ 136.9084229, 36.5125942 ] } },
{ "type": "Feature", "properties": { "内容": "南砺市民病院デイケアセンター【通所リハビリテーション】南砺市井波９３８番地", "url2": "https://www.kaigokensaku.mhlw.go.jp/16/index.php?action_kouhyou_detail_004_kani=true&JigyosyoCd=1612010395-00&ServiceCd=160&Type=search" }, "geometry": { "type": "Point", "coordinates": [ 136.973431600000026, 36.5703135 ] } },
{ "type": "Feature", "properties": { "内容": "矢野神経内科デイケア【通所リハビリテーション】富山県射水市本町1-13-1", "url2": "https://www.kaigokensaku.mhlw.go.jp/16/index.php?action_kouhyou_detail_004_kani=true&JigyosyoCd=1670300159-00&ServiceCd=160&Type=search" }, "geometry": { "type": "Point", "coordinates": [ 137.07433160000005, 36.7831467 ] } },
{ "type": "Feature", "properties": { "内容": "老人保健施設みしま野苑一穂【通所リハビリテーション】富山県射水市三ヶ508", "url2": "https://www.kaigokensaku.mhlw.go.jp/16/index.php?action_kouhyou_detail_004_kani=true&JigyosyoCd=1651980003-00&ServiceCd=160&Type=search" }, "geometry": { "type": "Point", "coordinates": [ 137.1003197, 36.726165 ] } },
{ "type": "Feature", "properties": { "内容": "山田医院【通所リハビリテーション】富山県射水市三ヶ835", "url2": "https://www.kaigokensaku.mhlw.go.jp/16/index.php?action_kouhyou_detail_004_kani=true&JigyosyoCd=1611910629-00&ServiceCd=160&Type=search" }, "geometry": { "type": "Point", "coordinates": [ 137.0990782, 36.7250512 ] } },
{ "type": "Feature", "properties": { "内容": "介護老人保健施設　サンセリテ【通所リハビリテーション】富山県射水市朴木244番地", "url2": "https://www.kaigokensaku.mhlw.go.jp/16/index.php?action_kouhyou_detail_004_kani=true&JigyosyoCd=1650380007-00&ServiceCd=160&Type=search" }, "geometry": { "type": "Point", "coordinates": [ 137.076998900000035, 36.7588826 ] } },
{ "type": "Feature", "properties": { "内容": "くるみ介護センター【通所リハビリテーション】富山県射水市大島北野４８番地", "url2": "https://www.kaigokensaku.mhlw.go.jp/16/index.php?action_kouhyou_detail_004_kani=true&JigyosyoCd=1671900056-00&ServiceCd=160&Type=search" }, "geometry": { "type": "Point", "coordinates": [ 137.052226499999961, 36.7450864 ] } },
{ "type": "Feature", "properties": { "内容": "上市老人保健施設　つるぎの庭【通所リハビリテーション】富山県中新川郡上市町森尻704番地", "url2": "https://www.kaigokensaku.mhlw.go.jp/16/index.php?action_kouhyou_detail_004_kani=true&JigyosyoCd=1651680017-00&ServiceCd=160&Type=search" }, "geometry": { "type": "Point", "coordinates": [ 137.354797100000042, 36.7180254 ] } },
{ "type": "Feature", "properties": { "内容": "老人保健施設　ケアホーム　陽風の里【通所リハビリテーション】富山県中新川郡立山町大石原254番地", "url2": "https://www.kaigokensaku.mhlw.go.jp/16/index.php?action_kouhyou_detail_004_kani=true&JigyosyoCd=1671600953-00&ServiceCd=160&Type=search" }, "geometry": { "type": "Point", "coordinates": [ 137.2988502, 36.6634167 ] } },
{ "type": "Feature", "properties": { "内容": "入善老人保健施設　こぶしの庭【通所リハビリテーション】富山県下新川郡入善町小杉64", "url2": "https://www.kaigokensaku.mhlw.go.jp/16/index.php?action_kouhyou_detail_004_kani=true&JigyosyoCd=1651780007-00&ServiceCd=160&Type=search" }, "geometry": { "type": "Point", "coordinates": [ 137.526088399999907, 36.9180617 ] } },
{ "type": "Feature", "properties": { "内容": "しまだいいん【通所リハビリテーション】富山県下新川郡入善町高畠269", "url2": "https://www.kaigokensaku.mhlw.go.jp/16/index.php?action_kouhyou_detail_004_kani=true&JigyosyoCd=1611710854-00&ServiceCd=160&Type=search" }, "geometry": { "type": "Point", "coordinates": [ 137.434181699999954, 36.9208508 ] } },
{ "type": "Feature", "properties": { "内容": "入善老人保健施設こぶしの庭【通所リハビリテーション】富山県下新川郡入善町小杉64", "url2": "https://www.kaigokensaku.mhlw.go.jp/16/index.php?action_kouhyou_detail_004_kani=true&JigyosyoCd=1651780023-00&ServiceCd=160&Type=search" }, "geometry": { "type": "Point", "coordinates": [ 137.5260056, 36.9177867 ] } },
{ "type": "Feature", "properties": { "内容": "医療法人社団秋桜　丸川病院　通所リハビリテーション【通所リハビリテーション】富山県下新川郡入善町青島396番地1", "url2": "https://www.kaigokensaku.mhlw.go.jp/16/index.php?action_kouhyou_detail_004_kani=true&JigyosyoCd=1611710870-00&ServiceCd=160&Type=search" }, "geometry": { "type": "Point", "coordinates": [ 137.5105572, 36.9267707 ] } },
{ "type": "Feature", "properties": { "内容": "介護老人保健施設　つるさんかめさん通所リハビリテーション【通所リハビリテーション】富山県下新川郡朝日町泊新５番地", "url2": "https://www.kaigokensaku.mhlw.go.jp/16/index.php?action_kouhyou_detail_004_kani=true&JigyosyoCd=1651780015-00&ServiceCd=160&Type=search" }, "geometry": { "type": "Point", "coordinates": [ 137.564684700000043, 36.9616739 ] } },
{ "type": "Feature", "properties": { "内容": "あさひ総合病院【通所リハビリテーション】富山県下新川郡朝日町泊477", "url2": "https://www.kaigokensaku.mhlw.go.jp/16/index.php?action_kouhyou_detail_004_kani=true&JigyosyoCd=1611710839-00&ServiceCd=160&Type=search" }, "geometry": { "type": "Point", "coordinates": [ 137.5614275, 36.9601476 ] } }
]
}
