{
"type": "FeatureCollection",
"name": "geo_16_介護医療院",
"crs": { "type": "name", "properties": { "name": "urn:ogc:def:crs:OGC:1.3:CRS84" } },
"features": [
{ "type": "Feature", "properties": { "内容": "いま泉病院　介護医療院【介護医療院】富山県富山市今泉220番地", "url": "https://www.kaigokensaku.mhlw.go.jp/16/index.php?action_kouhyou_detail_004_kani=true&JigyosyoCd=16B0100022-00&ServiceCd=550&Type=search", "url2": "https://izumikai.mutsumi-gr.jp/" }, "geometry": { "type": "Point", "coordinates": [ 137.212514899999974, 36.6688775 ] } },
{ "type": "Feature", "properties": { "内容": "栗山介護医療院【介護医療院】富山市開発133番地", "url": "https://www.kaigokensaku.mhlw.go.jp/16/index.php?action_kouhyou_detail_004_kani=true&JigyosyoCd=16B0100097-00&ServiceCd=550&Type=search", "url2": "http:/kishin-kai.com" }, "geometry": { "type": "Point", "coordinates": [ 137.2461717, 36.6313767 ] } },
{ "type": "Feature", "properties": { "内容": "医療法人社団城南会　城南内科介護医療院【介護医療院】富山県富山市太郎丸西町一丁目6番6", "url": "https://www.kaigokensaku.mhlw.go.jp/16/index.php?action_kouhyou_detail_004_kani=true&JigyosyoCd=16B0100063-00&ServiceCd=550&Type=search", "url2": "https://jonankai.or.jp/jnmlc/" }, "geometry": { "type": "Point", "coordinates": [ 137.209459399999957, 36.6772019 ] } },
{ "type": "Feature", "properties": { "内容": "医療法人社団城南会　富山城南病院介護医療院【介護医療院】富山県富山市太郎丸本町一丁目8番1", "url": "https://www.kaigokensaku.mhlw.go.jp/16/index.php?action_kouhyou_detail_004_kani=true&JigyosyoCd=16B0100089-00&ServiceCd=550&Type=search", "url2": "https://jonankai.or.jp/tjmlc/" }, "geometry": { "type": "Point", "coordinates": [ 137.212185718521312, 36.677968583323846 ] } },
{ "type": "Feature", "properties": { "内容": "誠友病院介護医療院【介護医療院】富山県富山市上千俵町103番地", "url": "https://www.kaigokensaku.mhlw.go.jp/16/index.php?action_kouhyou_detail_004_kani=true&JigyosyoCd=16B0100105-00&ServiceCd=550&Type=search", "url2": null }, "geometry": { "type": "Point", "coordinates": [ 137.244007900000014, 36.6265431 ] } },
{ "type": "Feature", "properties": { "内容": "おおやま病院介護医療院【介護医療院】富山県富山市花崎８５", "url": "https://www.kaigokensaku.mhlw.go.jp/16/index.php?action_kouhyou_detail_004_kani=true&JigyosyoCd=16B0100055-00&ServiceCd=550&Type=search", "url2": "https://www.ooyamahp.or.jp/" }, "geometry": { "type": "Point", "coordinates": [ 137.280953599999947, 36.6096914 ] } },
{ "type": "Feature", "properties": { "内容": "友愛温泉病院介護医療院【介護医療院】富山県富山市婦中町新町2131", "url": "https://www.kaigokensaku.mhlw.go.jp/16/index.php?action_kouhyou_detail_004_kani=true&JigyosyoCd=16B0100048-00&ServiceCd=550&Type=search", "url2": "http://www.yuuai-byouinkai.or.jp/" }, "geometry": { "type": "Point", "coordinates": [ 137.123379631352236, 36.663255359360043 ] } },
{ "type": "Feature", "properties": { "内容": "流杉病院介護医療院【介護医療院】富山県富山市流杉１２０番地", "url": "https://www.kaigokensaku.mhlw.go.jp/16/index.php?action_kouhyou_detail_004_kani=true&JigyosyoCd=16B0100014-00&ServiceCd=550&Type=search", "url2": "https://www.nagaresugi.com/" }, "geometry": { "type": "Point", "coordinates": [ 137.276267224745169, 36.65865484180064 ] } },
{ "type": "Feature", "properties": { "内容": "富山西総合病院介護医療院【介護医療院】富山県富山市婦中町下轡田1019", "url": "https://www.kaigokensaku.mhlw.go.jp/16/index.php?action_kouhyou_detail_004_kani=true&JigyosyoCd=16B0100139-00&ServiceCd=550&Type=search", "url2": "https://toyama-nishi.jp/" }, "geometry": { "type": "Point", "coordinates": [ 137.174278609787024, 36.660009348577034 ] } },
{ "type": "Feature", "properties": { "内容": "介護医療院　尽誠会【介護医療院】富山県富山市水橋辻ヶ堂466-1", "url": "https://www.kaigokensaku.mhlw.go.jp/16/index.php?action_kouhyou_detail_004_kani=true&JigyosyoCd=16B0100071-00&ServiceCd=550&Type=search", "url2": "https://nomura-hospital.jp" }, "geometry": { "type": "Point", "coordinates": [ 137.2970986, 36.7454789 ] } },
{ "type": "Feature", "properties": { "内容": "萩野病院介護医療院【介護医療院】富山市婦中町萩島315-1", "url": "https://www.kaigokensaku.mhlw.go.jp/16/index.php?action_kouhyou_detail_004_kani=true&JigyosyoCd=16B0100113-00&ServiceCd=550&Type=search", "url2": "https://hagino-hp.jp/" }, "geometry": { "type": "Point", "coordinates": [ 137.1792419, 36.6284238 ] } },
{ "type": "Feature", "properties": { "内容": "介護医療院　せいわ【介護医療院】針原中町３３６", "url": "https://www.kaigokensaku.mhlw.go.jp/16/index.php?action_kouhyou_detail_004_kani=true&JigyosyoCd=16B0100030-00&ServiceCd=550&Type=search", "url2": "http://seikeikaitoyama.com/" }, "geometry": { "type": "Point", "coordinates": [ 137.264967100000035, 36.7244601 ] } },
{ "type": "Feature", "properties": { "内容": "丹保病院介護医療院【介護医療院】大坪町1丁目1番3号", "url": "https://www.kaigokensaku.mhlw.go.jp/16/index.php?action_kouhyou_detail_004_kani=true&JigyosyoCd=16B0200020-00&ServiceCd=550&Type=search", "url2": "www.kuwayamakai.jp/" }, "geometry": { "type": "Point", "coordinates": [ 137.018052500000067, 36.7544993 ] } },
{ "type": "Feature", "properties": { "内容": "介護医療院高陵クリニック【介護医療院】富山県高岡市野村23-1", "url": "https://www.kaigokensaku.mhlw.go.jp/16/index.php?action_kouhyou_detail_004_kani=true&JigyosyoCd=16B0200046-00&ServiceCd=550&Type=search", "url2": "https://www.ko-cli.com/" }, "geometry": { "type": "Point", "coordinates": [ 137.0272455, 36.7377142 ] } },
{ "type": "Feature", "properties": { "内容": "介護医療院　光ヶ丘【介護医療院】富山県高岡市西藤平蔵313番地", "url": "https://www.kaigokensaku.mhlw.go.jp/16/index.php?action_kouhyou_detail_004_kani=true&JigyosyoCd=16B0200012-00&ServiceCd=550&Type=search", "url2": "http://shirankai.net/" }, "geometry": { "type": "Point", "coordinates": [ 136.985906099999966, 36.706623800000017 ] } },
{ "type": "Feature", "properties": { "内容": "万葉病院介護医療院【介護医療院】高岡市西海老坂字大坪362番", "url": "https://www.kaigokensaku.mhlw.go.jp/16/index.php?action_kouhyou_detail_004_kani=true&JigyosyoCd=16B0200038-00&ServiceCd=550&Type=search", "url2": "https:www.kawagisikai-manyo.com" }, "geometry": { "type": "Point", "coordinates": [ 136.998981442486922, 36.777645245676808 ] } },
{ "type": "Feature", "properties": { "内容": "魚津病院介護医療院【介護医療院】富山県魚津市友道789番地", "url": "https://www.kaigokensaku.mhlw.go.jp/16/index.php?action_kouhyou_detail_004_kani=true&JigyosyoCd=16B0400026-00&ServiceCd=550&Type=search", "url2": "http://www.uozubyouin.jp/" }, "geometry": { "type": "Point", "coordinates": [ 137.411361599999964, 36.8145605 ] } },
{ "type": "Feature", "properties": { "内容": "新川病院介護医療院【介護医療院】富山県魚津市住吉２３６番地", "url": "https://www.kaigokensaku.mhlw.go.jp/16/index.php?action_kouhyou_detail_004_kani=true&JigyosyoCd=16B0400018-00&ServiceCd=550&Type=search", "url2": "http://www.fukujukai.com" }, "geometry": { "type": "Point", "coordinates": [ 137.399404499999946, 36.8002485 ] } },
{ "type": "Feature", "properties": { "内容": "陽和温泉病院介護医療院【介護医療院】富山県氷見市堀田4-1", "url": "https://www.kaigokensaku.mhlw.go.jp/16/index.php?action_kouhyou_detail_004_kani=true&JigyosyoCd=16B0500015-00&ServiceCd=550&Type=search", "url2": "http://www.yuuai-byouinkai.or.jp/facilities/youwa/" }, "geometry": { "type": "Point", "coordinates": [ 136.972749799999974, 36.8127288 ] } },
{ "type": "Feature", "properties": { "内容": "吉見病院　介護医療院【介護医療院】富山県滑川市清水町３番２５号", "url": "https://www.kaigokensaku.mhlw.go.jp/16/index.php?action_kouhyou_detail_004_kani=true&JigyosyoCd=16B0600013-00&ServiceCd=550&Type=search", "url2": "https://yoshimi-hospital.jp" }, "geometry": { "type": "Point", "coordinates": [ 137.3437487, 36.7634206 ] } },
{ "type": "Feature", "properties": { "内容": "池田リハビリテーション病院　　介護医療院【介護医療院】富山県黒部市荻生821番地", "url": "https://www.kaigokensaku.mhlw.go.jp/16/index.php?action_kouhyou_detail_004_kani=true&JigyosyoCd=16B0700011-00&ServiceCd=550&Type=search", "url2": "http://www.ikeda-reha.co.jp" }, "geometry": { "type": "Point", "coordinates": [ 137.469861300000048, 36.8881281 ] } },
{ "type": "Feature", "properties": { "内容": "黒部温泉病院介護医療院【介護医療院】富山県黒部市窪野929番地", "url": "https://www.kaigokensaku.mhlw.go.jp/16/index.php?action_kouhyou_detail_004_kani=true&JigyosyoCd=16B0700029-00&ServiceCd=550&Type=search", "url2": "http://www.yuuai-byouinkai.or.jp" }, "geometry": { "type": "Point", "coordinates": [ 137.444595772491454, 36.851411716069983 ] } },
{ "type": "Feature", "properties": { "内容": "砺波サンシャイン介護医療院【介護医療院】砺波市鷹栖５７５番地", "url": "https://www.kaigokensaku.mhlw.go.jp/16/index.php?action_kouhyou_detail_004_kani=true&JigyosyoCd=16B0800027-00&ServiceCd=550&Type=search", "url2": "https://www.tonami-shp.com/" }, "geometry": { "type": "Point", "coordinates": [ 136.939799599999986, 36.6353007 ] } },
{ "type": "Feature", "properties": { "内容": "となみ三輪病院　介護医療院【介護医療院】砺波市頼成605", "url": "https://www.kaigokensaku.mhlw.go.jp/16/index.php?action_kouhyou_detail_004_kani=true&JigyosyoCd=16B0800019-00&ServiceCd=550&Type=search", "url2": "http://www.sanikai.or.jp/" }, "geometry": { "type": "Point", "coordinates": [ 137.008493700000031, 36.6365671 ] } },
{ "type": "Feature", "properties": { "内容": "砺波誠友病院介護医療院【介護医療院】富山県砺波市大窪17-1", "url": "https://www.kaigokensaku.mhlw.go.jp/16/index.php?action_kouhyou_detail_004_kani=true&JigyosyoCd=16B0800035-00&ServiceCd=550&Type=search", "url2": null }, "geometry": { "type": "Point", "coordinates": [ 136.980804, 36.6546312 ] } },
{ "type": "Feature", "properties": { "内容": "西野介護医療院【介護医療院】富山県小矢部市本町6-30西野内科病院", "url": "https://www.kaigokensaku.mhlw.go.jp/16/index.php?action_kouhyou_detail_004_kani=true&JigyosyoCd=16B0900033-00&ServiceCd=550&Type=search", "url2": "http://www.nishinokai.jp" }, "geometry": { "type": "Point", "coordinates": [ 136.8682063, 36.6749484 ] } },
{ "type": "Feature", "properties": { "内容": "太田病院【介護医療院】富山県小矢部市新富町3-11", "url": "https://www.kaigokensaku.mhlw.go.jp/16/index.php?action_kouhyou_detail_004_kani=true&JigyosyoCd=16B0900041-00&ServiceCd=550&Type=search", "url2": "http://www.otahospital.com" }, "geometry": { "type": "Point", "coordinates": [ 136.869667299999946, 36.6775827 ] } },
{ "type": "Feature", "properties": { "内容": "西野介護医療院【介護医療院】本町3-33", "url": "https://www.kaigokensaku.mhlw.go.jp/16/index.php?action_kouhyou_detail_004_kani=true&JigyosyoCd=16B0900058-00&ServiceCd=550&Type=search", "url2": "http://www.nishinokai.jp" }, "geometry": { "type": "Point", "coordinates": [ 139.6814066, 35.6902783 ] } },
{ "type": "Feature", "properties": { "内容": "小矢部大家病院介護医療院【介護医療院】富山県小矢部市島321番地", "url": "https://www.kaigokensaku.mhlw.go.jp/16/index.php?action_kouhyou_detail_004_kani=true&JigyosyoCd=16B0900017-00&ServiceCd=550&Type=search", "url2": "http/www1.tst.ne.jp/ohkahp/" }, "geometry": { "type": "Point", "coordinates": [ 136.8761101, 36.6654196 ] } },
{ "type": "Feature", "properties": { "内容": "つざわ津田介護医療院【介護医療院】富山県小矢部市新西117番1号", "url": "https://www.kaigokensaku.mhlw.go.jp/16/index.php?action_kouhyou_detail_004_kani=true&JigyosyoCd=16B0900025-00&ServiceCd=550&Type=search", "url2": "https://tsudahp.jp/" }, "geometry": { "type": "Point", "coordinates": [ 136.8957346, 36.629516 ] } },
{ "type": "Feature", "properties": { "内容": "南砺中央介護医療院【介護医療院】富山県南砺市梅野2007-5", "url": "https://www.kaigokensaku.mhlw.go.jp/16/index.php?action_kouhyou_detail_004_kani=true&JigyosyoCd=16B1000015-00&ServiceCd=550&Type=search", "url2": "https://nantohp.city.nanto.toyama.jp/medical_facility" }, "geometry": { "type": "Point", "coordinates": [ 136.903787, 36.5417969 ] } },
{ "type": "Feature", "properties": { "内容": "くるみ介護医療院【介護医療院】富山県射水市大島北野48", "url": "https://www.kaigokensaku.mhlw.go.jp/16/index.php?action_kouhyou_detail_004_kani=true&JigyosyoCd=16B1100013-00&ServiceCd=550&Type=search", "url2": "https://www.kurumi.or.jp" }, "geometry": { "type": "Point", "coordinates": [ 137.0524527, 36.7449769 ] } }
]
}
