{
"type": "FeatureCollection",
"name": "geo_16_地域密着型介護老人福祉施設入所者生活介護",
"crs": { "type": "name", "properties": { "name": "urn:ogc:def:crs:OGC:1.3:CRS84" } },
"features": [
{ "type": "Feature", "properties": { "内容": "特別養護老人ホームひかり苑【地域密着型介護老人福祉施設入所者生活介護】西田地方町2丁目10番11", "url": "https://www.kaigokensaku.mhlw.go.jp/16/index.php?action_kouhyou_detail_004_kani=true&JigyosyoCd=1690100514-00&ServiceCd=540&Type=search", "url2": "http://www.funankai.jp" }, "geometry": { "type": "Point", "coordinates": [ 137.2054842, 36.682623 ] } },
{ "type": "Feature", "properties": { "内容": "地域密着型特別養護老人ホーム　至宝館すまはぴ【地域密着型介護老人福祉施設入所者生活介護】富山県富山市堀川町375-1", "url": "https://www.kaigokensaku.mhlw.go.jp/16/index.php?action_kouhyou_detail_004_kani=true&JigyosyoCd=1690101066-00&ServiceCd=540&Type=search", "url2": "http://shihoukai.or.jp/" }, "geometry": { "type": "Point", "coordinates": [ 137.2147698, 36.6656174 ] } },
{ "type": "Feature", "properties": { "内容": "福祉コミュニティ呉羽あいの風【地域密着型介護老人福祉施設入所者生活介護】富山市野々上340福祉コミュニティ呉羽あいの風", "url": "https://www.kaigokensaku.mhlw.go.jp/16/index.php?action_kouhyou_detail_004_kani=true&JigyosyoCd=1690101157-00&ServiceCd=540&Type=search", "url2": "www.ainokaze.ne.jp" }, "geometry": { "type": "Point", "coordinates": [ 137.138729099999978, 36.7229712 ] } },
{ "type": "Feature", "properties": { "内容": "地域密着型特別養護老人ホームささづ苑かすが【地域密着型介護老人福祉施設入所者生活介護】富山市下タ林２３７", "url": "https://www.kaigokensaku.mhlw.go.jp/16/index.php?action_kouhyou_detail_004_kani=true&JigyosyoCd=1690100993-00&ServiceCd=540&Type=search", "url2": "http://osawano.com" }, "geometry": { "type": "Point", "coordinates": [ 137.209229934640433, 36.56391169179539 ] } },
{ "type": "Feature", "properties": { "内容": "特別養護老人ホームあしたねの森【地域密着型介護老人福祉施設入所者生活介護】富山県富山市新庄町2丁目15-32", "url": "https://www.kaigokensaku.mhlw.go.jp/16/index.php?action_kouhyou_detail_004_kani=true&JigyosyoCd=1690100803-00&ServiceCd=540&Type=search", "url2": "http://www.ashitanenomori.jp" }, "geometry": { "type": "Point", "coordinates": [ 137.25573989999998, 36.6997302 ] } },
{ "type": "Feature", "properties": { "内容": "堀川南光風苑【地域密着型介護老人福祉施設入所者生活介護】富山県富山市本郷町262-15", "url": "https://www.kaigokensaku.mhlw.go.jp/16/index.php?action_kouhyou_detail_004_kani=true&JigyosyoCd=1690100852-00&ServiceCd=540&Type=search", "url2": "https://koufuukai.jp/" }, "geometry": { "type": "Point", "coordinates": [ 137.234891507795737, 36.662956136802855 ] } },
{ "type": "Feature", "properties": { "内容": "くまの光風苑【地域密着型介護老人福祉施設入所者生活介護】富山市南金屋111番地", "url": "https://www.kaigokensaku.mhlw.go.jp/16/index.php?action_kouhyou_detail_004_kani=true&JigyosyoCd=1690100126-00&ServiceCd=540&Type=search", "url2": "https://www.koufuukai.jp/" }, "geometry": { "type": "Point", "coordinates": [ 137.231574599999931, 36.6343102 ] } },
{ "type": "Feature", "properties": { "内容": "サテライト特養せいふう【地域密着型介護老人福祉施設入所者生活介護】富山県富山市水橋辻", "url": "https://www.kaigokensaku.mhlw.go.jp/16/index.php?action_kouhyou_detail_004_kani=true&JigyosyoCd=1690100456-00&ServiceCd=540&Type=search", "url2": "http://seifusou.e-294.net/" }, "geometry": { "type": "Point", "coordinates": [ 137.2982902, 36.7468705 ] } },
{ "type": "Feature", "properties": { "内容": "高齢者支援施設せせらぎの郷【地域密着型介護老人福祉施設入所者生活介護】富山県富山市小原屋202", "url": "https://www.kaigokensaku.mhlw.go.jp/16/index.php?action_kouhyou_detail_004_kani=true&JigyosyoCd=1690101132-00&ServiceCd=540&Type=search", "url2": "https://syuaikai.com" }, "geometry": { "type": "Point", "coordinates": [ 137.284030359524536, 36.611672344162713 ] } },
{ "type": "Feature", "properties": { "内容": "地域密着型特別養護老人ホームささづ苑【地域密着型介護老人福祉施設入所者生活介護】富山県富山市下タ林141", "url": "https://www.kaigokensaku.mhlw.go.jp/16/index.php?action_kouhyou_detail_004_kani=true&JigyosyoCd=1690100753-00&ServiceCd=540&Type=search", "url2": "https://osawano.com" }, "geometry": { "type": "Point", "coordinates": [ 137.205420900000036, 36.5633262 ] } },
{ "type": "Feature", "properties": { "内容": "特別養護老人ホームみのり【地域密着型介護老人福祉施設入所者生活介護】富山県富山市城川原一丁目17-14", "url": "https://www.kaigokensaku.mhlw.go.jp/16/index.php?action_kouhyou_detail_004_kani=true&JigyosyoCd=1690100555-00&ServiceCd=540&Type=search", "url2": null }, "geometry": { "type": "Point", "coordinates": [ 137.228190700000027, 36.73126450000003 ] } },
{ "type": "Feature", "properties": { "内容": "特別養護老人ホームなごみ【地域密着型介護老人福祉施設入所者生活介護】富山県富山市飯野１－１", "url": "https://www.kaigokensaku.mhlw.go.jp/16/index.php?action_kouhyou_detail_004_kani=true&JigyosyoCd=1690100233-00&ServiceCd=540&Type=search", "url2": "https://www.aikou-g.jp/outline" }, "geometry": { "type": "Point", "coordinates": [ 137.249109200000021, 36.7193498 ] } },
{ "type": "Feature", "properties": { "内容": "ユニットケアにながわ【地域密着型介護老人福祉施設入所者生活介護】富山市二俣327番地4", "url": "https://www.kaigokensaku.mhlw.go.jp/16/index.php?action_kouhyou_detail_004_kani=true&JigyosyoCd=1690100423-00&ServiceCd=540&Type=search", "url2": "http://www.toyamajonankai.jp/" }, "geometry": { "type": "Point", "coordinates": [ 137.216331299999979, 36.6454421 ] } },
{ "type": "Feature", "properties": { "内容": "小規模特別養護老人ホームくれは陽光苑【地域密着型介護老人福祉施設入所者生活介護】富山県富山市中老田844－1", "url": "https://www.kaigokensaku.mhlw.go.jp/16/index.php?action_kouhyou_detail_004_kani=true&JigyosyoCd=1690100613-00&ServiceCd=540&Type=search", "url2": "http://www.youkou-fukushikai.or.jp/k-youkouen/" }, "geometry": { "type": "Point", "coordinates": [ 137.130061500000011, 36.7004662 ] } },
{ "type": "Feature", "properties": { "内容": "地域密着型小規模特別養護老人ホーム　雅【地域密着型介護老人福祉施設入所者生活介護】富山県高岡市問屋町190-1", "url": "https://www.kaigokensaku.mhlw.go.jp/16/index.php?action_kouhyou_detail_004_kani=true&JigyosyoCd=1690200827-00&ServiceCd=540&Type=search", "url2": "https://www.miyabi-fukushi.com" }, "geometry": { "type": "Point", "coordinates": [ 137.029063900000011, 36.7306678 ] } },
{ "type": "Feature", "properties": { "内容": "福祉コミュニティ高岡あいの風【地域密着型介護老人福祉施設入所者生活介護】富山県高岡市内免5丁目50番1", "url": "https://www.kaigokensaku.mhlw.go.jp/16/index.php?action_kouhyou_detail_004_kani=true&JigyosyoCd=1690200561-00&ServiceCd=540&Type=search", "url2": "www.ainokaze.ne.jp" }, "geometry": { "type": "Point", "coordinates": [ 137.003510799999958, 36.7557988 ] } },
{ "type": "Feature", "properties": { "内容": "特別養護老人ホーム　だいご苑【地域密着型介護老人福祉施設入所者生活介護】富山県高岡市醍醐１２５７番地", "url": "https://www.kaigokensaku.mhlw.go.jp/16/index.php?action_kouhyou_detail_004_kani=true&JigyosyoCd=1690200553-00&ServiceCd=540&Type=search", "url2": "http:/www.daigoen.com" }, "geometry": { "type": "Point", "coordinates": [ 136.962027227053113, 36.696194298728273 ] } },
{ "type": "Feature", "properties": { "内容": "サンケア高岡北【地域密着型介護老人福祉施設入所者生活介護】富山県高岡市長江464-1", "url": "https://www.kaigokensaku.mhlw.go.jp/16/index.php?action_kouhyou_detail_004_kani=true&JigyosyoCd=1690200629-00&ServiceCd=540&Type=search", "url2": "https://www.suncare-life.com/info/facilit" }, "geometry": { "type": "Point", "coordinates": [ 120.8728615, 31.846940099999987 ] } },
{ "type": "Feature", "properties": { "内容": "特別養護老人ホーム藤園苑ひびき【地域密着型介護老人福祉施設入所者生活介護】富山県高岡市早川390-1", "url": "https://www.kaigokensaku.mhlw.go.jp/16/index.php?action_kouhyou_detail_004_kani=true&JigyosyoCd=1690200959-00&ServiceCd=540&Type=search", "url2": "http://www.fujisonoen.or.jp/" }, "geometry": { "type": "Point", "coordinates": [ 136.9883266, 36.7467455 ] } },
{ "type": "Feature", "properties": { "内容": "地域密着型小規模特別養護老人ホーム　雅京田【地域密着型介護老人福祉施設入所者生活介護】京田281-1", "url": "https://www.kaigokensaku.mhlw.go.jp/16/index.php?action_kouhyou_detail_004_kani=true&JigyosyoCd=1690200926-00&ServiceCd=540&Type=search", "url2": "www.miyabi-fukushi.com" }, "geometry": { "type": "Point", "coordinates": [ 137.0124289, 36.7310374 ] } },
{ "type": "Feature", "properties": { "内容": "地域密着型特別養護老人ホーム　片貝ヴィーラ【地域密着型介護老人福祉施設入所者生活介護】富山県魚津市島尻1520番", "url": "https://www.kaigokensaku.mhlw.go.jp/16/index.php?action_kouhyou_detail_004_kani=true&JigyosyoCd=1690400021-00&ServiceCd=540&Type=search", "url2": "http://www.niikawa-fukushi.net/" }, "geometry": { "type": "Point", "coordinates": [ 137.469502299999931, 36.7906972 ] } },
{ "type": "Feature", "properties": { "内容": "特別養護老人ホーム　氷見鶴寿苑【地域密着型介護老人福祉施設入所者生活介護】富山県氷見市鞍川1902-4", "url": "https://www.kaigokensaku.mhlw.go.jp/16/index.php?action_kouhyou_detail_004_kani=true&JigyosyoCd=1690500150-00&ServiceCd=540&Type=search", "url2": "https://sanpuku.meijukai.com" }, "geometry": { "type": "Point", "coordinates": [ 136.958649795084426, 36.850750354370696 ] } },
{ "type": "Feature", "properties": { "内容": "地域密着型特別養護老人ホーム越路さくら【地域密着型介護老人福祉施設入所者生活介護】荻生７１２０番２地域密着型特別養護老人ホーム越路さくら", "url": "https://www.kaigokensaku.mhlw.go.jp/16/index.php?action_kouhyou_detail_004_kani=true&JigyosyoCd=1690700081-00&ServiceCd=540&Type=search", "url2": "http://koshijisakura.e-294.net/" }, "geometry": { "type": "Point", "coordinates": [ 137.459584100000029, 36.8806403 ] } },
{ "type": "Feature", "properties": { "内容": "地域密着型特別養護老人ホーム越野荘【地域密着型介護老人福祉施設入所者生活介護】富山県黒部市若栗2111", "url": "https://www.kaigokensaku.mhlw.go.jp/16/index.php?action_kouhyou_detail_004_kani=true&JigyosyoCd=1690700123-00&ServiceCd=540&Type=search", "url2": "http://koshinosou.e-294.net" }, "geometry": { "type": "Point", "coordinates": [ 137.488287, 36.8658266 ] } },
{ "type": "Feature", "properties": { "内容": "イエローガーデン石動【地域密着型介護老人福祉施設入所者生活介護】富山県小矢部市観音町６９９番１イエローガーデン石動", "url": "https://www.kaigokensaku.mhlw.go.jp/16/index.php?action_kouhyou_detail_004_kani=true&JigyosyoCd=1690900152-00&ServiceCd=540&Type=search", "url2": "htts://www.yg-isurugi.org/" }, "geometry": { "type": "Point", "coordinates": [ 136.865103, 36.6770971 ] } },
{ "type": "Feature", "properties": { "内容": "福祉コミュニティ小矢部あいの風【地域密着型介護老人福祉施設入所者生活介護】けあほーむおやべあいのかぜ", "url": "https://www.kaigokensaku.mhlw.go.jp/16/index.php?action_kouhyou_detail_004_kani=true&JigyosyoCd=1690900178-00&ServiceCd=540&Type=search", "url2": "http://www.ainokaze.ne.jp" }, "geometry": { "type": "Point", "coordinates": [ 136.874847, 36.66949 ] } },
{ "type": "Feature", "properties": { "内容": "特別養護老人ホーム　やすらぎ荘【地域密着型介護老人福祉施設入所者生活介護】富山県南砺市天池１５７０番地", "url": "https://www.kaigokensaku.mhlw.go.jp/16/index.php?action_kouhyou_detail_004_kani=true&JigyosyoCd=1691000101-00&ServiceCd=540&Type=search", "url2": "http://fukujyu.jp/" }, "geometry": { "type": "Point", "coordinates": [ 136.904055029214078, 36.545270281738361 ] } },
{ "type": "Feature", "properties": { "内容": "特別養護老人ホーム　和の郷【地域密着型介護老人福祉施設入所者生活介護】富山県射水市殿村136番地", "url": "https://www.kaigokensaku.mhlw.go.jp/16/index.php?action_kouhyou_detail_004_kani=true&JigyosyoCd=1691100216-00&ServiceCd=540&Type=search", "url2": "http://www.nagomishinminato.com" }, "geometry": { "type": "Point", "coordinates": [ 137.090661899999986, 36.7460262 ] } },
{ "type": "Feature", "properties": { "内容": "地域密着型特別養護老人ホーム　湯崎野苑【地域密着型介護老人福祉施設入所者生活介護】富山県中新川郡上市町湯崎野206番地1", "url": "https://www.kaigokensaku.mhlw.go.jp/16/index.php?action_kouhyou_detail_004_kani=true&JigyosyoCd=1691600157-00&ServiceCd=540&Type=search", "url2": "http://yusakinoen.com/" }, "geometry": { "type": "Point", "coordinates": [ 137.37074640000003, 36.6956172 ] } },
{ "type": "Feature", "properties": { "内容": "地域密着型特別養護老人ホーム喜楽苑【地域密着型介護老人福祉施設入所者生活介護】富山県下新川郡入善町舟見１１０８番地", "url": "https://www.kaigokensaku.mhlw.go.jp/16/index.php?action_kouhyou_detail_004_kani=true&JigyosyoCd=1691700155-00&ServiceCd=540&Type=search", "url2": "http://www.funamijurakuen.jp/" }, "geometry": { "type": "Point", "coordinates": [ 137.553225500000053, 36.8811763 ] } },
{ "type": "Feature", "properties": { "内容": "特別養護老人ホーム舟見寿楽苑【地域密着型介護老人福祉施設入所者生活介護】富山県下新川郡入善町舟見1664番地", "url": "https://www.kaigokensaku.mhlw.go.jp/16/index.php?action_kouhyou_detail_004_kani=true&JigyosyoCd=1691700122-00&ServiceCd=540&Type=search", "url2": "http://www.funamijurakuen.jp/" }, "geometry": { "type": "Point", "coordinates": [ 137.5595303, 36.8779188 ] } }
]
}
