{
"type": "FeatureCollection",
"name": "geo_16_訪問介護",
"crs": { "type": "name", "properties": { "name": "urn:ogc:def:crs:OGC:1.3:CRS84" } },
"features": [
{ "type": "Feature", "properties": { "内容": "若葉会訪問介護事業所【訪問介護】富山市石金１丁目２番３０号", "url2": "https://www.kaigokensaku.mhlw.go.jp/16/index.php?action_kouhyou_detail_004_kani=true&JigyosyoCd=1670104585-00&ServiceCd=110&Type=search" }, "geometry": { "type": "Point", "coordinates": [ 137.230347700000038, 36.6888227 ] } },
{ "type": "Feature", "properties": { "内容": "フールケア富山ヘルパーステーション【訪問介護】黒瀬北町2丁目3番3", "url2": "https://www.kaigokensaku.mhlw.go.jp/16/index.php?action_kouhyou_detail_004_kani=true&JigyosyoCd=1670112166-00&ServiceCd=110&Type=search" }, "geometry": { "type": "Point", "coordinates": [ 137.202101800000037, 36.6666974 ] } },
{ "type": "Feature", "properties": { "内容": "ありがとうホーム新屋訪問介護【訪問介護】富山県富山市新屋73-2ウインク101号室", "url2": "https://www.kaigokensaku.mhlw.go.jp/16/index.php?action_kouhyou_detail_004_kani=true&JigyosyoCd=1670114683-00&ServiceCd=110&Type=search" }, "geometry": { "type": "Point", "coordinates": [ 137.249683799999957, 36.7244815 ] } },
{ "type": "Feature", "properties": { "内容": "訪問介護事業所　自薦サポートセンター【訪問介護】富山県富山市月岡西緑町１３８番地", "url2": "https://www.kaigokensaku.mhlw.go.jp/16/index.php?action_kouhyou_detail_004_kani=true&JigyosyoCd=1670114667-00&ServiceCd=110&Type=search" }, "geometry": { "type": "Point", "coordinates": [ 137.245456099999956, 36.6168584 ] } },
{ "type": "Feature", "properties": { "内容": "コメチャンカイゴサービス【訪問介護】富山県富山市金山新東510", "url2": "https://www.kaigokensaku.mhlw.go.jp/16/index.php?action_kouhyou_detail_004_kani=true&JigyosyoCd=1670113768-00&ServiceCd=110&Type=search" }, "geometry": { "type": "Point", "coordinates": [ 137.214647499999955, 36.73852440000001 ] } },
{ "type": "Feature", "properties": { "内容": "スマイルワン【訪問介護】富山県富山市堀川町580-21", "url2": "https://www.kaigokensaku.mhlw.go.jp/16/index.php?action_kouhyou_detail_004_kani=true&JigyosyoCd=1670113594-00&ServiceCd=110&Type=search" }, "geometry": { "type": "Point", "coordinates": [ 137.219552799999974, 36.660046 ] } },
{ "type": "Feature", "properties": { "内容": "ヘルパーステーション愛の家【訪問介護】富山市西緑町134", "url2": "https://www.kaigokensaku.mhlw.go.jp/16/index.php?action_kouhyou_detail_004_kani=true&JigyosyoCd=1670115003-00&ServiceCd=110&Type=search" }, "geometry": { "type": "Point", "coordinates": [ 137.2456944, 36.6174935 ] } },
{ "type": "Feature", "properties": { "内容": "花いちごヘルパーステーション【訪問介護】富山県富山市上冨居2-9-38", "url2": "https://www.kaigokensaku.mhlw.go.jp/16/index.php?action_kouhyou_detail_004_kani=true&JigyosyoCd=1670112117-00&ServiceCd=110&Type=search" }, "geometry": { "type": "Point", "coordinates": [ 137.243504300000041, 36.7084232 ] } },
{ "type": "Feature", "properties": { "内容": "アルペン室谷クリニック訪問介護ステーション【訪問介護】富山市東岩瀬町275番地", "url2": "https://www.kaigokensaku.mhlw.go.jp/16/index.php?action_kouhyou_detail_004_kani=true&JigyosyoCd=1670101862-00&ServiceCd=110&Type=search" }, "geometry": { "type": "Point", "coordinates": [ 137.2290127, 36.7551234 ] } },
{ "type": "Feature", "properties": { "内容": "にこサポケアサービス【訪問介護】富山市横内585番地", "url2": "https://www.kaigokensaku.mhlw.go.jp/16/index.php?action_kouhyou_detail_004_kani=true&JigyosyoCd=1670111929-00&ServiceCd=110&Type=search" }, "geometry": { "type": "Point", "coordinates": [ 137.258163135582009, 36.666333647114598 ] } },
{ "type": "Feature", "properties": { "内容": "ヘルパーステーションすこやか富山【訪問介護】富山市大泉東町１丁目２－１４", "url2": "https://www.kaigokensaku.mhlw.go.jp/16/index.php?action_kouhyou_detail_004_kani=true&JigyosyoCd=1670104122-00&ServiceCd=110&Type=search" }, "geometry": { "type": "Point", "coordinates": [ 137.227826225165927, 36.683412613913433 ] } },
{ "type": "Feature", "properties": { "内容": "訪問介護事業所みのり【訪問介護】下堀6番地2", "url2": "https://www.kaigokensaku.mhlw.go.jp/16/index.php?action_kouhyou_detail_004_kani=true&JigyosyoCd=1670113545-00&ServiceCd=110&Type=search" }, "geometry": { "type": "Point", "coordinates": [ 137.229363, 36.6589823 ] } },
{ "type": "Feature", "properties": { "内容": "ありがとうホーム呉羽【訪問介護】富山県富山市吉作491-1", "url2": "https://www.kaigokensaku.mhlw.go.jp/16/index.php?action_kouhyou_detail_004_kani=true&JigyosyoCd=1670114592-00&ServiceCd=110&Type=search" }, "geometry": { "type": "Point", "coordinates": [ 137.163844235582019, 36.706851679818882 ] } },
{ "type": "Feature", "properties": { "内容": "訪問介護　小島麗贈【訪問介護】富山県富山市天正寺488", "url2": "https://www.kaigokensaku.mhlw.go.jp/16/index.php?action_kouhyou_detail_004_kani=true&JigyosyoCd=1670114931-00&ServiceCd=110&Type=search" }, "geometry": { "type": "Point", "coordinates": [ 137.2498335, 36.6871374 ] } },
{ "type": "Feature", "properties": { "内容": "晴風荘ホームヘルパーステーション【訪問介護】富山県富山市水橋辻", "url2": "https://www.kaigokensaku.mhlw.go.jp/16/index.php?action_kouhyou_detail_004_kani=true&JigyosyoCd=1670104577-00&ServiceCd=110&Type=search" }, "geometry": { "type": "Point", "coordinates": [ 137.297848599999952, 36.7459844 ] } },
{ "type": "Feature", "properties": { "内容": "ヘルパーステーションケアーズおおさわの【訪問介護】富山県富山市上二杉４２０－２", "url2": "https://www.kaigokensaku.mhlw.go.jp/16/index.php?action_kouhyou_detail_004_kani=true&JigyosyoCd=1671500229-00&ServiceCd=110&Type=search" }, "geometry": { "type": "Point", "coordinates": [ 137.202661900000066, 36.5910172 ] } },
{ "type": "Feature", "properties": { "内容": "ヘルパーステーション　コクエー【訪問介護】富山市中川原新町２７４－５", "url2": "https://www.kaigokensaku.mhlw.go.jp/16/index.php?action_kouhyou_detail_004_kani=true&JigyosyoCd=1670102829-00&ServiceCd=110&Type=search" }, "geometry": { "type": "Point", "coordinates": [ 137.244372200000043, 36.6758941 ] } },
{ "type": "Feature", "properties": { "内容": "かりゆしヘルパーステーション【訪問介護】富山県富山市婦中町中名903番地33", "url2": "https://www.kaigokensaku.mhlw.go.jp/16/index.php?action_kouhyou_detail_004_kani=true&JigyosyoCd=1671800371-00&ServiceCd=110&Type=search" }, "geometry": { "type": "Point", "coordinates": [ 137.166880900000024, 36.644399 ] } },
{ "type": "Feature", "properties": { "内容": "富山リハビリホームヘルプサービス事業所【訪問介護】富山市丸の内2丁目3番8号", "url2": "https://www.kaigokensaku.mhlw.go.jp/16/index.php?action_kouhyou_detail_004_kani=true&JigyosyoCd=1670100906-00&ServiceCd=110&Type=search" }, "geometry": { "type": "Point", "coordinates": [ 137.208516700000018, 36.6914745 ] } },
{ "type": "Feature", "properties": { "内容": "富山西ヘルパーステーション【訪問介護】富山県富山市婦中町下轡田1001ラ・サンテ富山西", "url2": "https://www.kaigokensaku.mhlw.go.jp/16/index.php?action_kouhyou_detail_004_kani=true&JigyosyoCd=1670114816-00&ServiceCd=110&Type=search" }, "geometry": { "type": "Point", "coordinates": [ 137.17281081891025, 36.659941224384397 ] } },
{ "type": "Feature", "properties": { "内容": "うちくるケア富山【訪問介護】富山県富山市西野新47番地", "url2": "https://www.kaigokensaku.mhlw.go.jp/16/index.php?action_kouhyou_detail_004_kani=true&JigyosyoCd=1670114113-00&ServiceCd=110&Type=search" }, "geometry": { "type": "Point", "coordinates": [ 137.264104948687617, 36.663328558952074 ] } },
{ "type": "Feature", "properties": { "内容": "ケアサポート　アイリス【訪問介護】富山県富山市松若町11-20", "url2": "https://www.kaigokensaku.mhlw.go.jp/16/index.php?action_kouhyou_detail_004_kani=true&JigyosyoCd=1670112646-00&ServiceCd=110&Type=search" }, "geometry": { "type": "Point", "coordinates": [ 137.225204397863365, 36.715398156315374 ] } },
{ "type": "Feature", "properties": { "内容": "山田地域福祉事業所　雪つばき【訪問介護】富山県富山市山田湯935", "url2": "https://www.kaigokensaku.mhlw.go.jp/16/index.php?action_kouhyou_detail_004_kani=true&JigyosyoCd=1670114303-00&ServiceCd=110&Type=search" }, "geometry": { "type": "Point", "coordinates": [ 137.0809538, 36.5797625 ] } },
{ "type": "Feature", "properties": { "内容": "カナディアンホーム訪問介護ステーション【訪問介護】富山市経田1231ホクサン空港通り店", "url2": "https://www.kaigokensaku.mhlw.go.jp/16/index.php?action_kouhyou_detail_004_kani=true&JigyosyoCd=1670115359-00&ServiceCd=110&Type=search" }, "geometry": { "type": "Point", "coordinates": [ 137.191685645368921, 36.651679309783347 ] } },
{ "type": "Feature", "properties": { "内容": "訪問介護ステーション笑～にこ～【訪問介護】富山県富山市向新庄町5-6-24ポプリ101号", "url2": "https://www.kaigokensaku.mhlw.go.jp/16/index.php?action_kouhyou_detail_004_kani=true&JigyosyoCd=1670115136-00&ServiceCd=110&Type=search" }, "geometry": { "type": "Point", "coordinates": [ 137.2651311, 36.7039465 ] } },
{ "type": "Feature", "properties": { "内容": "訪問介護事業所ベストライフケア【訪問介護】富山県富山市黒瀬459-1", "url2": "https://www.kaigokensaku.mhlw.go.jp/16/index.php?action_kouhyou_detail_004_kani=true&JigyosyoCd=1670115169-00&ServiceCd=110&Type=search" }, "geometry": { "type": "Point", "coordinates": [ 137.201558, 36.6618156 ] } },
{ "type": "Feature", "properties": { "内容": "オークスヘルパーステーション【訪問介護】富山市中島4-2-14", "url2": "https://www.kaigokensaku.mhlw.go.jp/16/index.php?action_kouhyou_detail_004_kani=true&JigyosyoCd=1670111770-00&ServiceCd=110&Type=search" }, "geometry": { "type": "Point", "coordinates": [ 137.225646500000039, 36.7268705 ] } },
{ "type": "Feature", "properties": { "内容": "訪問介護事業所　コスモスの里【訪問介護】富山市大江干３０－３", "url2": "https://www.kaigokensaku.mhlw.go.jp/16/index.php?action_kouhyou_detail_004_kani=true&JigyosyoCd=1670112612-00&ServiceCd=110&Type=search" }, "geometry": { "type": "Point", "coordinates": [ 137.26558650000004, 36.6916287 ] } },
{ "type": "Feature", "properties": { "内容": "訪問介護事業所ライフパートナー【訪問介護】富山市中市1丁目27番22号", "url2": "https://www.kaigokensaku.mhlw.go.jp/16/index.php?action_kouhyou_detail_004_kani=true&JigyosyoCd=1670115052-00&ServiceCd=110&Type=search" }, "geometry": { "type": "Point", "coordinates": [ 137.2402909, 36.6793674 ] } },
{ "type": "Feature", "properties": { "内容": "さくらヘルパーステーション【訪問介護】富山県富山市水橋市田袋108-1", "url2": "https://www.kaigokensaku.mhlw.go.jp/16/index.php?action_kouhyou_detail_004_kani=true&JigyosyoCd=1670104304-00&ServiceCd=110&Type=search" }, "geometry": { "type": "Point", "coordinates": [ 137.289433300000042, 36.7269335 ] } },
{ "type": "Feature", "properties": { "内容": "ヘルパーセンター『みらい』【訪問介護】富山市下赤江町2-3-14", "url2": "https://www.kaigokensaku.mhlw.go.jp/16/index.php?action_kouhyou_detail_004_kani=true&JigyosyoCd=1670103884-00&ServiceCd=110&Type=search" }, "geometry": { "type": "Point", "coordinates": [ 137.2327186, 36.7161553 ] } },
{ "type": "Feature", "properties": { "内容": "紙ふうせん【訪問介護】富山県富山市犬島三丁目８番２３号", "url2": "https://www.kaigokensaku.mhlw.go.jp/16/index.php?action_kouhyou_detail_004_kani=true&JigyosyoCd=1670102191-00&ServiceCd=110&Type=search" }, "geometry": { "type": "Point", "coordinates": [ 137.233823499999971, 36.7350503 ] } },
{ "type": "Feature", "properties": { "内容": "ファミリーサポートアミーゴ【訪問介護】富山県富山市茶屋町２１０番地", "url2": "https://www.kaigokensaku.mhlw.go.jp/16/index.php?action_kouhyou_detail_004_kani=true&JigyosyoCd=1670113362-00&ServiceCd=110&Type=search" }, "geometry": { "type": "Point", "coordinates": [ 137.1800144, 36.7125349 ] } },
{ "type": "Feature", "properties": { "内容": "もなみヘルパーステーション【訪問介護】富山県富山市太郎丸本町一丁目10番23住宅型有料老人ホーム　シニアライフもなみ内", "url2": "https://www.kaigokensaku.mhlw.go.jp/16/index.php?action_kouhyou_detail_004_kani=true&JigyosyoCd=1670115508-00&ServiceCd=110&Type=search" }, "geometry": { "type": "Point", "coordinates": [ 137.2123813, 36.6773813 ] } },
{ "type": "Feature", "properties": { "内容": "サルビア訪問介護事業所【訪問介護】富山県富山市婦中町速星339番セラビ速星110号室", "url2": "https://www.kaigokensaku.mhlw.go.jp/16/index.php?action_kouhyou_detail_004_kani=true&JigyosyoCd=1670115524-00&ServiceCd=110&Type=search" }, "geometry": { "type": "Point", "coordinates": [ 137.1634397, 36.6620275 ] } },
{ "type": "Feature", "properties": { "内容": "彩和ヘルパーステーション【訪問介護】千成町33番15号", "url2": "https://www.kaigokensaku.mhlw.go.jp/16/index.php?action_kouhyou_detail_004_kani=true&JigyosyoCd=1670115532-00&ServiceCd=110&Type=search" }, "geometry": { "type": "Point", "coordinates": [ 137.245580399999966, 36.717294099999989 ] } },
{ "type": "Feature", "properties": { "内容": "あい訪問介護センター【訪問介護】富山県富山市中川原128番1", "url2": "https://www.kaigokensaku.mhlw.go.jp/16/index.php?action_kouhyou_detail_004_kani=true&JigyosyoCd=1670115557-00&ServiceCd=110&Type=search" }, "geometry": { "type": "Point", "coordinates": [ 137.2542286, 36.6749593 ] } },
{ "type": "Feature", "properties": { "内容": "ヘルパーステーションくるり【訪問介護】月岡町６丁目1313-1", "url2": "https://www.kaigokensaku.mhlw.go.jp/16/index.php?action_kouhyou_detail_004_kani=true&JigyosyoCd=1670115300-00&ServiceCd=110&Type=search" }, "geometry": { "type": "Point", "coordinates": [ 137.2430042, 36.6305272 ] } },
{ "type": "Feature", "properties": { "内容": "ヘルパーセンターセンチュリー【訪問介護】富山市金代7番地", "url2": "https://www.kaigokensaku.mhlw.go.jp/16/index.php?action_kouhyou_detail_004_kani=true&JigyosyoCd=1670104460-00&ServiceCd=110&Type=search" }, "geometry": { "type": "Point", "coordinates": [ 137.258389875925502, 36.688727062489079 ] } },
{ "type": "Feature", "properties": { "内容": "正栄ウェルフェア訪問介護事業所【訪問介護】富山市秋吉１４７－１", "url2": "https://www.kaigokensaku.mhlw.go.jp/16/index.php?action_kouhyou_detail_004_kani=true&JigyosyoCd=1670112265-00&ServiceCd=110&Type=search" }, "geometry": { "type": "Point", "coordinates": [ 137.247074708340961, 36.676952258838064 ] } },
{ "type": "Feature", "properties": { "内容": "ヘルパーステーション　まる～な【訪問介護】富山県富山市月見町４丁目42番地", "url2": "https://www.kaigokensaku.mhlw.go.jp/16/index.php?action_kouhyou_detail_004_kani=true&JigyosyoCd=1670104098-00&ServiceCd=110&Type=search" }, "geometry": { "type": "Point", "coordinates": [ 137.245187399999963, 36.6293274 ] } },
{ "type": "Feature", "properties": { "内容": "アースサポート富山【訪問介護】富山県富山市大町22番地14松倉ビル1F", "url2": "https://www.kaigokensaku.mhlw.go.jp/16/index.php?action_kouhyou_detail_004_kani=true&JigyosyoCd=1670111523-00&ServiceCd=110&Type=search" }, "geometry": { "type": "Point", "coordinates": [ 137.219397556066951, 36.667619513267006 ] } },
{ "type": "Feature", "properties": { "内容": "富山県富山市花園町３丁目４－１９ＡＫビル３階【訪問介護】富山県富山市花園町３丁目４－１９AKビル３階", "url2": "https://www.kaigokensaku.mhlw.go.jp/16/index.php?action_kouhyou_detail_004_kani=true&JigyosyoCd=1670115177-00&ServiceCd=110&Type=search" }, "geometry": { "type": "Point", "coordinates": [ 137.2091385, 36.6798553 ] } },
{ "type": "Feature", "properties": { "内容": "ソーロング株式会社【訪問介護】富山市向新庄町7丁目8番16号", "url2": "https://www.kaigokensaku.mhlw.go.jp/16/index.php?action_kouhyou_detail_004_kani=true&JigyosyoCd=1670104767-00&ServiceCd=110&Type=search" }, "geometry": { "type": "Point", "coordinates": [ 137.266105299999907, 36.7115346 ] } },
{ "type": "Feature", "properties": { "内容": "みどり苑ケアステーション【訪問介護】富山県富山市秋ケ島146-1", "url2": "https://www.kaigokensaku.mhlw.go.jp/16/index.php?action_kouhyou_detail_004_kani=true&JigyosyoCd=1670115318-00&ServiceCd=110&Type=search" }, "geometry": { "type": "Point", "coordinates": [ 137.193138800000014, 36.6447224 ] } },
{ "type": "Feature", "properties": { "内容": "翠十字会ホームヘルパーステーション【訪問介護】富山県富山市上千俵町９８－１番地", "url2": "https://www.kaigokensaku.mhlw.go.jp/16/index.php?action_kouhyou_detail_004_kani=true&JigyosyoCd=1670100377-00&ServiceCd=110&Type=search" }, "geometry": { "type": "Point", "coordinates": [ 137.244307, 36.6269555 ] } },
{ "type": "Feature", "properties": { "内容": "チューリップ苑　在宅介護支援センター【訪問介護】富山県富山市長江五丁目４番３３号", "url2": "https://www.kaigokensaku.mhlw.go.jp/16/index.php?action_kouhyou_detail_004_kani=true&JigyosyoCd=1670100914-00&ServiceCd=110&Type=search" }, "geometry": { "type": "Point", "coordinates": [ 137.245331814541601, 36.687652762207321 ] } },
{ "type": "Feature", "properties": { "内容": "のむら訪問介護ステーション【訪問介護】富山県富山市水橋畠等297", "url2": "https://www.kaigokensaku.mhlw.go.jp/16/index.php?action_kouhyou_detail_004_kani=true&JigyosyoCd=1670114832-00&ServiceCd=110&Type=search" }, "geometry": { "type": "Point", "coordinates": [ 137.3069946, 36.7478653 ] } },
{ "type": "Feature", "properties": { "内容": "ヘルパーステーション針原【訪問介護】富山県富山市針原中町355番地", "url2": "https://www.kaigokensaku.mhlw.go.jp/16/index.php?action_kouhyou_detail_004_kani=true&JigyosyoCd=1670114063-00&ServiceCd=110&Type=search" }, "geometry": { "type": "Point", "coordinates": [ 137.2642495, 36.724508 ] } },
{ "type": "Feature", "properties": { "内容": "ヘルパ－ステ－ション　すみれ【訪問介護】富山県富山市上大久保1585-1サ－ビス付き高齢者向け住宅希望の郷内", "url2": "https://www.kaigokensaku.mhlw.go.jp/16/index.php?action_kouhyou_detail_004_kani=true&JigyosyoCd=1670113016-00&ServiceCd=110&Type=search" }, "geometry": { "type": "Point", "coordinates": [ 137.211477699999932, 36.5912144 ] } },
{ "type": "Feature", "properties": { "内容": "訪問介護ステーションほの字【訪問介護】富山県富山市黒瀬北町2－13－12　プレジデント高陽101", "url2": "https://www.kaigokensaku.mhlw.go.jp/16/index.php?action_kouhyou_detail_004_kani=true&JigyosyoCd=1670114329-00&ServiceCd=110&Type=search" }, "geometry": { "type": "Point", "coordinates": [ 137.201130206235462, 36.665116511224653 ] } },
{ "type": "Feature", "properties": { "内容": "株式会社　Ｈ・クオリティ．タケダ【訪問介護】富山県富山市下堀５１番１号", "url2": "https://www.kaigokensaku.mhlw.go.jp/16/index.php?action_kouhyou_detail_004_kani=true&JigyosyoCd=1670114840-00&ServiceCd=110&Type=search" }, "geometry": { "type": "Point", "coordinates": [ 137.226302940188873, 36.661240902216193 ] } },
{ "type": "Feature", "properties": { "内容": "訪問介護ステーション　希【訪問介護】富山県富山市太田2204", "url2": "https://www.kaigokensaku.mhlw.go.jp/16/index.php?action_kouhyou_detail_004_kani=true&JigyosyoCd=1670114568-00&ServiceCd=110&Type=search" }, "geometry": { "type": "Point", "coordinates": [ 137.2380852, 36.6664581 ] } },
{ "type": "Feature", "properties": { "内容": "ヘルパーステーション　リベロ【訪問介護】富山県富山市東中野町3-7-13", "url2": "https://www.kaigokensaku.mhlw.go.jp/16/index.php?action_kouhyou_detail_004_kani=true&JigyosyoCd=1670114295-00&ServiceCd=110&Type=search" }, "geometry": { "type": "Point", "coordinates": [ 137.221172023506, 36.679424481415566 ] } },
{ "type": "Feature", "properties": { "内容": "ケアサポートジョジョ【訪問介護】富山県富山市藤木1542-1", "url2": "https://www.kaigokensaku.mhlw.go.jp/16/index.php?action_kouhyou_detail_004_kani=true&JigyosyoCd=1670113172-00&ServiceCd=110&Type=search" }, "geometry": { "type": "Point", "coordinates": [ 137.271244817474297, 36.68651693481209 ] } },
{ "type": "Feature", "properties": { "内容": "ヘルパーステーションなないろ【訪問介護】富山県富山市長江本町18番1号", "url2": "https://www.kaigokensaku.mhlw.go.jp/16/index.php?action_kouhyou_detail_004_kani=true&JigyosyoCd=1670114881-00&ServiceCd=110&Type=search" }, "geometry": { "type": "Point", "coordinates": [ 137.2421454, 36.6859803 ] } },
{ "type": "Feature", "properties": { "内容": "訪問介護ステーション呉羽【訪問介護】富山県富山市追分茶屋４７２番１ケアコミュニティまるとみ", "url2": "https://www.kaigokensaku.mhlw.go.jp/16/index.php?action_kouhyou_detail_004_kani=true&JigyosyoCd=1670114469-00&ServiceCd=110&Type=search" }, "geometry": { "type": "Point", "coordinates": [ 137.169121300000029, 36.7088075 ] } },
{ "type": "Feature", "properties": { "内容": "ヘルパーステーションふれあいの里ひろた【訪問介護】富山県富山市鍋田17-50", "url2": "https://www.kaigokensaku.mhlw.go.jp/16/index.php?action_kouhyou_detail_004_kani=true&JigyosyoCd=1670115011-00&ServiceCd=110&Type=search" }, "geometry": { "type": "Point", "coordinates": [ 137.244845700000013, 36.7144937 ] } },
{ "type": "Feature", "properties": { "内容": "ヘルパーステーションみんなの輪【訪問介護】富山県富山市大宮町24番地", "url2": "https://www.kaigokensaku.mhlw.go.jp/16/index.php?action_kouhyou_detail_004_kani=true&JigyosyoCd=1670104338-00&ServiceCd=110&Type=search" }, "geometry": { "type": "Point", "coordinates": [ 137.247401862283709, 36.660494592575709 ] } },
{ "type": "Feature", "properties": { "内容": "新庄ヒルズヘルパーステーション【訪問介護】富山市向新庄町4丁目１４－４８", "url2": "https://www.kaigokensaku.mhlw.go.jp/16/index.php?action_kouhyou_detail_004_kani=true&JigyosyoCd=1670104817-00&ServiceCd=110&Type=search" }, "geometry": { "type": "Point", "coordinates": [ 137.267103, 36.7036811 ] } },
{ "type": "Feature", "properties": { "内容": "株式会社ケア・ワールド【訪問介護】富山県富山市布瀬町南2丁目9番地2", "url2": "https://www.kaigokensaku.mhlw.go.jp/16/index.php?action_kouhyou_detail_004_kani=true&JigyosyoCd=1670102928-00&ServiceCd=110&Type=search" }, "geometry": { "type": "Point", "coordinates": [ 137.202205500000019, 36.674454300000029 ] } },
{ "type": "Feature", "properties": { "内容": "ヘルパーセンターコロネット【訪問介護】富山県富山市堀川町374番地2", "url2": "https://www.kaigokensaku.mhlw.go.jp/16/index.php?action_kouhyou_detail_004_kani=true&JigyosyoCd=1670103017-00&ServiceCd=110&Type=search" }, "geometry": { "type": "Point", "coordinates": [ 137.215067, 36.6654924 ] } },
{ "type": "Feature", "properties": { "内容": "サンウェルズ才覚寺ヘルパーステーション【訪問介護】富山県富山市才覚寺２５９太陽のプリズム才覚寺", "url2": "https://www.kaigokensaku.mhlw.go.jp/16/index.php?action_kouhyou_detail_004_kani=true&JigyosyoCd=1670114014-00&ServiceCd=110&Type=search" }, "geometry": { "type": "Point", "coordinates": [ 137.194005599999969, 36.6542542 ] } },
{ "type": "Feature", "properties": { "内容": "さんうえるずにしあらやへるぱーすてーしょん【訪問介護】富山県富山市西荒屋990", "url2": "https://www.kaigokensaku.mhlw.go.jp/16/index.php?action_kouhyou_detail_004_kani=true&JigyosyoCd=1670112513-00&ServiceCd=110&Type=search" }, "geometry": { "type": "Point", "coordinates": [ 137.193476696789503, 36.651602224442392 ] } },
{ "type": "Feature", "properties": { "内容": "訪問介護事業所　樹【訪問介護】富山県富山市太田口通り２丁目５-１サワダビル１階", "url2": "https://www.kaigokensaku.mhlw.go.jp/16/index.php?action_kouhyou_detail_004_kani=true&JigyosyoCd=1670114097-00&ServiceCd=110&Type=search" }, "geometry": { "type": "Point", "coordinates": [ 137.214635920911689, 36.685925973614758 ] } },
{ "type": "Feature", "properties": { "内容": "ツクイ富山【訪問介護】富山市稲荷元町2丁目8-9アクトピアトヤマ　１階", "url2": "https://www.kaigokensaku.mhlw.go.jp/16/index.php?action_kouhyou_detail_004_kani=true&JigyosyoCd=1670100195-00&ServiceCd=110&Type=search" }, "geometry": { "type": "Point", "coordinates": [ 137.228444599999989, 36.6961577 ] } },
{ "type": "Feature", "properties": { "内容": "ニチイケアセンター呉羽【訪問介護】富山県富山市呉羽町7320-14アーバンつつじヶ丘2-F", "url2": "https://www.kaigokensaku.mhlw.go.jp/16/index.php?action_kouhyou_detail_004_kani=true&JigyosyoCd=1670114733-00&ServiceCd=110&Type=search" }, "geometry": { "type": "Point", "coordinates": [ 137.174136, 36.7102369 ] } },
{ "type": "Feature", "properties": { "内容": "ニチイケアセンター藤の木【訪問介護】富山県富山市大島2丁目608　ハウスプラスビル", "url2": "https://www.kaigokensaku.mhlw.go.jp/16/index.php?action_kouhyou_detail_004_kani=true&JigyosyoCd=1670114709-00&ServiceCd=110&Type=search" }, "geometry": { "type": "Point", "coordinates": [ 137.273370200000045, 36.672031 ] } },
{ "type": "Feature", "properties": { "内容": "ニチイケアセンター富山東【訪問介護】富山県富山市中田２丁目２－２４メゾンヴィレ・マール３０１号", "url2": "https://www.kaigokensaku.mhlw.go.jp/16/index.php?action_kouhyou_detail_004_kani=true&JigyosyoCd=1670114998-00&ServiceCd=110&Type=search" }, "geometry": { "type": "Point", "coordinates": [ 137.246125799999987, 36.7481142 ] } },
{ "type": "Feature", "properties": { "内容": "ニチイケアセンター安養坊【訪問介護】富山市安養坊256-1", "url2": "https://www.kaigokensaku.mhlw.go.jp/16/index.php?action_kouhyou_detail_004_kani=true&JigyosyoCd=1670111846-00&ServiceCd=110&Type=search" }, "geometry": { "type": "Point", "coordinates": [ 137.19312930000001, 36.7103159 ] } },
{ "type": "Feature", "properties": { "内容": "ニチイケアセンター富山【訪問介護】富山県富山市下奥井1-19-16", "url2": "https://www.kaigokensaku.mhlw.go.jp/16/index.php?action_kouhyou_detail_004_kani=true&JigyosyoCd=1670102811-00&ServiceCd=110&Type=search" }, "geometry": { "type": "Point", "coordinates": [ 137.223216500000035, 36.7126499 ] } },
{ "type": "Feature", "properties": { "内容": "こもれびの森マロンケアサ－ビス【訪問介護】富山県富山市今泉西部町２番地５　ＶＩＰﾊｲﾂ日本海２０１号室", "url2": "https://www.kaigokensaku.mhlw.go.jp/16/index.php?action_kouhyou_detail_004_kani=true&JigyosyoCd=1670104718-00&ServiceCd=110&Type=search" }, "geometry": { "type": "Point", "coordinates": [ 137.210372199999938, 36.6739648 ] } },
{ "type": "Feature", "properties": { "内容": "訪問介護ビルト【訪問介護】富山県富山市館出町2丁目4-4", "url2": "https://www.kaigokensaku.mhlw.go.jp/16/index.php?action_kouhyou_detail_004_kani=true&JigyosyoCd=1670113214-00&ServiceCd=110&Type=search" }, "geometry": { "type": "Point", "coordinates": [ 137.232633315108586, 36.69447301872475 ] } },
{ "type": "Feature", "properties": { "内容": "ふる里の風訪問介護事業所【訪問介護】富山県富山市上赤江町1-12-6サービス付高齢者住宅内", "url2": "https://www.kaigokensaku.mhlw.go.jp/16/index.php?action_kouhyou_detail_004_kani=true&JigyosyoCd=1670112877-00&ServiceCd=110&Type=search" }, "geometry": { "type": "Point", "coordinates": [ 137.232069271163908, 36.709517021278785 ] } },
{ "type": "Feature", "properties": { "内容": "フールケア訪問介護事業所【訪問介護】富山県富山市新庄町2丁目7番10号", "url2": "https://www.kaigokensaku.mhlw.go.jp/16/index.php?action_kouhyou_detail_004_kani=true&JigyosyoCd=1670114675-00&ServiceCd=110&Type=search" }, "geometry": { "type": "Point", "coordinates": [ 137.258685761880514, 36.702583615108047 ] } },
{ "type": "Feature", "properties": { "内容": "おあしす訪問介護事業所【訪問介護】富山県富山市中島3丁目8番33号", "url2": "https://www.kaigokensaku.mhlw.go.jp/16/index.php?action_kouhyou_detail_004_kani=true&JigyosyoCd=1670114394-00&ServiceCd=110&Type=search" }, "geometry": { "type": "Point", "coordinates": [ 137.220669300000054, 36.72001 ] } },
{ "type": "Feature", "properties": { "内容": "あかりケアサービス【訪問介護】冨山市奥田本町3-8", "url2": "https://www.kaigokensaku.mhlw.go.jp/16/index.php?action_kouhyou_detail_004_kani=true&JigyosyoCd=1670104965-00&ServiceCd=110&Type=search" }, "geometry": { "type": "Point", "coordinates": [ 137.222565061285451, 36.713610545281647 ] } },
{ "type": "Feature", "properties": { "内容": "訪問介護ステーション東の郷【訪問介護】中川原5-4オーキッド中川原", "url2": "https://www.kaigokensaku.mhlw.go.jp/16/index.php?action_kouhyou_detail_004_kani=true&JigyosyoCd=1670114402-00&ServiceCd=110&Type=search" }, "geometry": { "type": "Point", "coordinates": [ 137.251237299999957, 36.7036018 ] } },
{ "type": "Feature", "properties": { "内容": "ヘルパーステーション虹の丘【訪問介護】富山県富山市水橋小路287-1", "url2": "https://www.kaigokensaku.mhlw.go.jp/16/index.php?action_kouhyou_detail_004_kani=true&JigyosyoCd=1670103892-00&ServiceCd=110&Type=search" }, "geometry": { "type": "Point", "coordinates": [ 137.2914333, 36.7208898 ] } },
{ "type": "Feature", "properties": { "内容": "吉田内科クリニック・ホームヘルプサービス有限会社【訪問介護】富山県富山市吉作365-6", "url2": "https://www.kaigokensaku.mhlw.go.jp/16/index.php?action_kouhyou_detail_004_kani=true&JigyosyoCd=1670100203-00&ServiceCd=110&Type=search" }, "geometry": { "type": "Point", "coordinates": [ 137.1646356, 36.710249 ] } },
{ "type": "Feature", "properties": { "内容": "ヘルパー処あんき家【訪問介護】富山県富山市常盤台16番12号", "url2": "https://www.kaigokensaku.mhlw.go.jp/16/index.php?action_kouhyou_detail_004_kani=true&JigyosyoCd=1670115045-00&ServiceCd=110&Type=search" }, "geometry": { "type": "Point", "coordinates": [ 137.252532094442756, 36.692579642662601 ] } },
{ "type": "Feature", "properties": { "内容": "合同会社　サポートハウス　牧さん家【訪問介護】富山市西長江２丁目１－２", "url2": "https://www.kaigokensaku.mhlw.go.jp/16/index.php?action_kouhyou_detail_004_kani=true&JigyosyoCd=1670111945-00&ServiceCd=110&Type=search" }, "geometry": { "type": "Point", "coordinates": [ 137.236969199999976, 36.6943165 ] } },
{ "type": "Feature", "properties": { "内容": "桜谷の里ヘルパーステーション【訪問介護】富山市石坂新８３０番地1", "url2": "https://www.kaigokensaku.mhlw.go.jp/16/index.php?action_kouhyou_detail_004_kani=true&JigyosyoCd=1670112448-00&ServiceCd=110&Type=search" }, "geometry": { "type": "Point", "coordinates": [ 137.199011599999949, 36.7153905 ] } },
{ "type": "Feature", "properties": { "内容": "すみれ苑ヘルパーセンター【訪問介護】富山市横越180番地", "url2": "https://www.kaigokensaku.mhlw.go.jp/16/index.php?action_kouhyou_detail_004_kani=true&JigyosyoCd=1670100518-00&ServiceCd=110&Type=search" }, "geometry": { "type": "Point", "coordinates": [ 137.283783099999937, 36.7515253 ] } },
{ "type": "Feature", "properties": { "内容": "アルペンヘルパーステーション【訪問介護】富山市小西１７６番地", "url2": "https://www.kaigokensaku.mhlw.go.jp/16/index.php?action_kouhyou_detail_004_kani=true&JigyosyoCd=1670100708-00&ServiceCd=110&Type=search" }, "geometry": { "type": "Point", "coordinates": [ 137.257730700000025, 36.7253049 ] } },
{ "type": "Feature", "properties": { "内容": "訪問介護ステーションあいの風　呉羽事業所【訪問介護】野々上340", "url2": "https://www.kaigokensaku.mhlw.go.jp/16/index.php?action_kouhyou_detail_004_kani=true&JigyosyoCd=1670113883-00&ServiceCd=110&Type=search" }, "geometry": { "type": "Point", "coordinates": [ 135.595546300000024, 34.5628784 ] } },
{ "type": "Feature", "properties": { "内容": "ヘルパーステーション花みずき【訪問介護】富山県富山市稲荷町4丁目3-16", "url2": "https://www.kaigokensaku.mhlw.go.jp/16/index.php?action_kouhyou_detail_004_kani=true&JigyosyoCd=1670104262-00&ServiceCd=110&Type=search" }, "geometry": { "type": "Point", "coordinates": [ 137.233586, 36.696355 ] } },
{ "type": "Feature", "properties": { "内容": "ヘルパーステーション花みずき弐番館【訪問介護】富山県富山市曙町2番23号", "url2": "https://www.kaigokensaku.mhlw.go.jp/16/index.php?action_kouhyou_detail_004_kani=true&JigyosyoCd=1670104841-00&ServiceCd=110&Type=search" }, "geometry": { "type": "Point", "coordinates": [ 137.225466800000049, 36.7002348 ] } },
{ "type": "Feature", "properties": { "内容": "光風会みまもりステーション【訪問介護】富山県富山市本郷町262-15堀川南光風苑　ぬくもり館", "url2": "https://www.kaigokensaku.mhlw.go.jp/16/index.php?action_kouhyou_detail_004_kani=true&JigyosyoCd=1670100625-00&ServiceCd=110&Type=search" }, "geometry": { "type": "Point", "coordinates": [ 137.232885034858356, 36.663033434151714 ] } },
{ "type": "Feature", "properties": { "内容": "天正寺サポートセンター【訪問介護】富山市天正寺４８４番地1", "url2": "https://www.kaigokensaku.mhlw.go.jp/16/index.php?action_kouhyou_detail_004_kani=true&JigyosyoCd=1670111937-00&ServiceCd=110&Type=search" }, "geometry": { "type": "Point", "coordinates": [ 137.249285200000031, 36.6870483 ] } },
{ "type": "Feature", "properties": { "内容": "ヘルパーステーション永楽【訪問介護】永楽町41番22号", "url2": "https://www.kaigokensaku.mhlw.go.jp/16/index.php?action_kouhyou_detail_004_kani=true&JigyosyoCd=1670112240-00&ServiceCd=110&Type=search" }, "geometry": { "type": "Point", "coordinates": [ 137.220194900000024, 36.7026843 ] } },
{ "type": "Feature", "properties": { "内容": "しみずまち敬寿苑ホームヘルパーステーション【訪問介護】富山市清水町二丁目6－23", "url2": "https://www.kaigokensaku.mhlw.go.jp/16/index.php?action_kouhyou_detail_004_kani=true&JigyosyoCd=1670102993-00&ServiceCd=110&Type=search" }, "geometry": { "type": "Point", "coordinates": [ 137.225909651698316, 36.688866107279679 ] } },
{ "type": "Feature", "properties": { "内容": "敬寿苑ホームヘルパーステーション【訪問介護】富山県富山市今泉西部町12番地１", "url2": "https://www.kaigokensaku.mhlw.go.jp/16/index.php?action_kouhyou_detail_004_kani=true&JigyosyoCd=1670100526-00&ServiceCd=110&Type=search" }, "geometry": { "type": "Point", "coordinates": [ 137.209067499007574, 36.673543416153485 ] } },
{ "type": "Feature", "properties": { "内容": "ヘルパーステーション和合【訪問介護】富山市布目１９６６番地1特別養護老人ホーム　和合ハイツ", "url2": "https://www.kaigokensaku.mhlw.go.jp/16/index.php?action_kouhyou_detail_004_kani=true&JigyosyoCd=1670112869-00&ServiceCd=110&Type=search" }, "geometry": { "type": "Point", "coordinates": [ 137.190431399999966, 36.7468618 ] } },
{ "type": "Feature", "properties": { "内容": "正栄ウェルフェア長江訪問介護事業所【訪問介護】二口町５丁目１０－６", "url2": "https://www.kaigokensaku.mhlw.go.jp/16/index.php?action_kouhyou_detail_004_kani=true&JigyosyoCd=1670113636-00&ServiceCd=110&Type=search" }, "geometry": { "type": "Point", "coordinates": [ 137.20209061887951, 36.668145764600993 ] } },
{ "type": "Feature", "properties": { "内容": "ホームヘルプサービスしおんの家【訪問介護】富山市水橋辻ヶ堂801番地1", "url2": "https://www.kaigokensaku.mhlw.go.jp/16/index.php?action_kouhyou_detail_004_kani=true&JigyosyoCd=1670102316-00&ServiceCd=110&Type=search" }, "geometry": { "type": "Point", "coordinates": [ 137.296132510450747, 36.754913445687677 ] } },
{ "type": "Feature", "properties": { "内容": "ヘルパーステーションささえ愛【訪問介護】富山市中島３丁目１番１号", "url2": "https://www.kaigokensaku.mhlw.go.jp/16/index.php?action_kouhyou_detail_004_kani=true&JigyosyoCd=1670104007-00&ServiceCd=110&Type=search" }, "geometry": { "type": "Point", "coordinates": [ 137.218602899999951, 36.7217681 ] } },
{ "type": "Feature", "properties": { "内容": "ふくし百選　ケア・アシスト　あずみ【訪問介護】富山県富山市上冨居2-2-27", "url2": "https://www.kaigokensaku.mhlw.go.jp/16/index.php?action_kouhyou_detail_004_kani=true&JigyosyoCd=1670113099-00&ServiceCd=110&Type=search" }, "geometry": { "type": "Point", "coordinates": [ 137.241600697236919, 36.711220564490567 ] } },
{ "type": "Feature", "properties": { "内容": "北陸メディカルサービス株式会社　介護事業部【訪問介護】富山市奥井町4番36号", "url2": "https://www.kaigokensaku.mhlw.go.jp/16/index.php?action_kouhyou_detail_004_kani=true&JigyosyoCd=1670100138-00&ServiceCd=110&Type=search" }, "geometry": { "type": "Point", "coordinates": [ 137.224702799999932, 36.7048064 ] } },
{ "type": "Feature", "properties": { "内容": "北陸介護ステーション株式会社　しあわせ【訪問介護】堀川町８番地", "url2": "https://www.kaigokensaku.mhlw.go.jp/16/index.php?action_kouhyou_detail_004_kani=true&JigyosyoCd=1670104791-00&ServiceCd=110&Type=search" }, "geometry": { "type": "Point", "coordinates": [ 137.224284, 36.659850599999984 ] } },
{ "type": "Feature", "properties": { "内容": "ヘルパーステーションマーガレット【訪問介護】富山市西長江2丁目3-47", "url2": "https://www.kaigokensaku.mhlw.go.jp/16/index.php?action_kouhyou_detail_004_kani=true&JigyosyoCd=1670112356-00&ServiceCd=110&Type=search" }, "geometry": { "type": "Point", "coordinates": [ 137.239027891484824, 36.693120838653805 ] } },
{ "type": "Feature", "properties": { "内容": "あすケアとやま訪問介護事業所【訪問介護】富山県富山市寺町９番１", "url2": "https://www.kaigokensaku.mhlw.go.jp/16/index.php?action_kouhyou_detail_004_kani=true&JigyosyoCd=1670113123-00&ServiceCd=110&Type=search" }, "geometry": { "type": "Point", "coordinates": [ 137.171207237067904, 36.694032696279123 ] } },
{ "type": "Feature", "properties": { "内容": "ケアステーション　ラポール【訪問介護】富山市中市2-8-41", "url2": "https://www.kaigokensaku.mhlw.go.jp/16/index.php?action_kouhyou_detail_004_kani=true&JigyosyoCd=1670102670-00&ServiceCd=110&Type=search" }, "geometry": { "type": "Point", "coordinates": [ 137.237631, 36.6782021 ] } },
{ "type": "Feature", "properties": { "内容": "ヘルパーステーション金泉寺【訪問介護】富山県富山市手屋3丁目8-40", "url2": "https://www.kaigokensaku.mhlw.go.jp/16/index.php?action_kouhyou_detail_004_kani=true&JigyosyoCd=1670113511-00&ServiceCd=110&Type=search" }, "geometry": { "type": "Point", "coordinates": [ 137.26597463372957, 36.718626001050488 ] } },
{ "type": "Feature", "properties": { "内容": "有限会社　中央ケアーサポート【訪問介護】富山市二口町5丁目4番地1テフィスD棟1階B号室", "url2": "https://www.kaigokensaku.mhlw.go.jp/16/index.php?action_kouhyou_detail_004_kani=true&JigyosyoCd=1670100997-00&ServiceCd=110&Type=search" }, "geometry": { "type": "Point", "coordinates": [ 137.202793019611136, 36.668786640778563 ] } },
{ "type": "Feature", "properties": { "内容": "老人介護事業所　あさひホーム【訪問介護】富山市吉作４２６１－５", "url2": "https://www.kaigokensaku.mhlw.go.jp/16/index.php?action_kouhyou_detail_004_kani=true&JigyosyoCd=1670103066-00&ServiceCd=110&Type=search" }, "geometry": { "type": "Point", "coordinates": [ 137.1756507, 36.7199866 ] } },
{ "type": "Feature", "properties": { "内容": "ヘルパーステーション鵜坂【訪問介護】富山県富山市婦中町鵜坂139", "url2": "https://www.kaigokensaku.mhlw.go.jp/16/index.php?action_kouhyou_detail_004_kani=true&JigyosyoCd=1670113206-00&ServiceCd=110&Type=search" }, "geometry": { "type": "Point", "coordinates": [ 137.1886144, 36.6748209 ] } },
{ "type": "Feature", "properties": { "内容": "富山地域福祉事業所サポートハウスぽぴー【訪問介護】富山県富山市寺町けや木台71", "url2": "https://www.kaigokensaku.mhlw.go.jp/16/index.php?action_kouhyou_detail_004_kani=true&JigyosyoCd=1670100849-00&ServiceCd=110&Type=search" }, "geometry": { "type": "Point", "coordinates": [ 137.175241452406112, 36.698716763545271 ] } },
{ "type": "Feature", "properties": { "内容": "訪問介護ステーションぽかぽか【訪問介護】富山県富山市水橋川原町６３番地", "url2": "https://www.kaigokensaku.mhlw.go.jp/16/index.php?action_kouhyou_detail_004_kani=true&JigyosyoCd=1670115565-00&ServiceCd=110&Type=search" }, "geometry": { "type": "Point", "coordinates": [ 137.3015136, 36.7547473 ] } },
{ "type": "Feature", "properties": { "内容": "医心館訪問介護ステーション富山【訪問介護】富山県富山市今泉185番地1", "url2": "https://www.kaigokensaku.mhlw.go.jp/16/index.php?action_kouhyou_detail_004_kani=true&JigyosyoCd=1670115573-00&ServiceCd=110&Type=search" }, "geometry": { "type": "Point", "coordinates": [ 137.2123784, 36.6672366 ] } },
{ "type": "Feature", "properties": { "内容": "ヘルパーステーションエンジョイライフ黒瀬【訪問介護】黒瀬218番地1", "url2": "https://www.kaigokensaku.mhlw.go.jp/16/index.php?action_kouhyou_detail_004_kani=true&JigyosyoCd=1670115599-00&ServiceCd=110&Type=search" }, "geometry": { "type": "Point", "coordinates": [ 137.20236, 36.659237 ] } },
{ "type": "Feature", "properties": { "内容": "ハッピーとやま【訪問介護】富山県富山市高畠町1丁目10番17号", "url2": "https://www.kaigokensaku.mhlw.go.jp/16/index.php?action_kouhyou_detail_004_kani=true&JigyosyoCd=1671500054-00&ServiceCd=110&Type=search" }, "geometry": { "type": "Point", "coordinates": [ 137.230477955294759, 36.749979804748392 ] } },
{ "type": "Feature", "properties": { "内容": "ニチイケアセンター婦中【訪問介護】富山県富山市婦中町上田島32-2", "url2": "https://www.kaigokensaku.mhlw.go.jp/16/index.php?action_kouhyou_detail_004_kani=true&JigyosyoCd=1671800223-00&ServiceCd=110&Type=search" }, "geometry": { "type": "Point", "coordinates": [ 137.173910299999989, 36.6689491 ] } },
{ "type": "Feature", "properties": { "内容": "はなさき苑ホームヘルプセンター【訪問介護】富山県富山市花崎80番地", "url2": "https://www.kaigokensaku.mhlw.go.jp/16/index.php?action_kouhyou_detail_004_kani=true&JigyosyoCd=1671500088-00&ServiceCd=110&Type=search" }, "geometry": { "type": "Point", "coordinates": [ 137.279862699999967, 36.6100076 ] } },
{ "type": "Feature", "properties": { "内容": "椿寿荘ヘルパーステーション【訪問介護】富山県富山市八尾町奥田80番地", "url2": "https://www.kaigokensaku.mhlw.go.jp/16/index.php?action_kouhyou_detail_004_kani=true&JigyosyoCd=1671800413-00&ServiceCd=110&Type=search" }, "geometry": { "type": "Point", "coordinates": [ 137.1311624, 36.6186518 ] } },
{ "type": "Feature", "properties": { "内容": "ふるさと敬寿苑ホームヘルパーステーション【訪問介護】富山県富山市婦中町羽根1092番地2", "url2": "https://www.kaigokensaku.mhlw.go.jp/16/index.php?action_kouhyou_detail_004_kani=true&JigyosyoCd=1671800330-00&ServiceCd=110&Type=search" }, "geometry": { "type": "Point", "coordinates": [ 137.140519199999972, 36.659941 ] } },
{ "type": "Feature", "properties": { "内容": "北陸メディカルサービス株式会社八尾営業所【訪問介護】富山市八尾町福島字牧野１０１番地１", "url2": "https://www.kaigokensaku.mhlw.go.jp/16/index.php?action_kouhyou_detail_004_kani=true&JigyosyoCd=1671800488-00&ServiceCd=110&Type=search" }, "geometry": { "type": "Point", "coordinates": [ 137.134187500000053, 36.5803092 ] } },
{ "type": "Feature", "properties": { "内容": "ヘルパーセンターフィール【訪問介護】黒瀬435−1", "url2": "https://www.kaigokensaku.mhlw.go.jp/16/index.php?action_kouhyou_detail_004_kani=true&JigyosyoCd=1670104726-00&ServiceCd=110&Type=search" }, "geometry": { "type": "Point", "coordinates": [ 137.20172382582814, 36.661286446281352 ] } },
{ "type": "Feature", "properties": { "内容": "ニチイケアセンター大沢野【訪問介護】富山県　富山市　高内　２区387-4　サントピア41　1F", "url2": "https://www.kaigokensaku.mhlw.go.jp/16/index.php?action_kouhyou_detail_004_kani=true&JigyosyoCd=1670105145-00&ServiceCd=110&Type=search" }, "geometry": { "type": "Point", "coordinates": [ 137.20766679999997, 36.5780042 ] } },
{ "type": "Feature", "properties": { "内容": "訪問介護事業所エイト・ビイト【訪問介護】富山県富山市加納264-2", "url2": "https://www.kaigokensaku.mhlw.go.jp/16/index.php?action_kouhyou_detail_004_kani=true&JigyosyoCd=1670115185-00&ServiceCd=110&Type=search" }, "geometry": { "type": "Point", "coordinates": [ 137.196753, 36.5815163 ] } },
{ "type": "Feature", "properties": { "内容": "在宅介護あおい【訪問介護】富山県富山市下奥井1丁目4番2号", "url2": "https://www.kaigokensaku.mhlw.go.jp/16/index.php?action_kouhyou_detail_004_kani=true&JigyosyoCd=1670103355-00&ServiceCd=110&Type=search" }, "geometry": { "type": "Point", "coordinates": [ 137.225160800000026, 36.7145803 ] } },
{ "type": "Feature", "properties": { "内容": "ヘルパーステーションわかな【訪問介護】富山市上赤江町２－８－４４－１", "url2": "https://www.kaigokensaku.mhlw.go.jp/16/index.php?action_kouhyou_detail_004_kani=true&JigyosyoCd=1670102720-00&ServiceCd=110&Type=search" }, "geometry": { "type": "Point", "coordinates": [ 137.2294134, 36.7103003 ] } },
{ "type": "Feature", "properties": { "内容": "ＪＡあおば介護サービスセンター【訪問介護】富山県富山市八尾町黒田2702-1", "url2": "https://www.kaigokensaku.mhlw.go.jp/16/index.php?action_kouhyou_detail_004_kani=true&JigyosyoCd=1671800215-00&ServiceCd=110&Type=search" }, "geometry": { "type": "Point", "coordinates": [ 137.163493429296892, 36.601162257641043 ] } },
{ "type": "Feature", "properties": { "内容": "笑ひ　訪問介護【訪問介護】富山市五福4区116", "url2": "https://www.kaigokensaku.mhlw.go.jp/16/index.php?action_kouhyou_detail_004_kani=true&JigyosyoCd=1670104288-00&ServiceCd=110&Type=search" }, "geometry": { "type": "Point", "coordinates": [ 137.186062900000024, 36.7037788 ] } },
{ "type": "Feature", "properties": { "内容": "訪問介護ステーションまめなけ【訪問介護】富山市八尾町福島七丁目42番地", "url2": "https://www.kaigokensaku.mhlw.go.jp/16/index.php?action_kouhyou_detail_004_kani=true&JigyosyoCd=1670114725-00&ServiceCd=110&Type=search" }, "geometry": { "type": "Point", "coordinates": [ 137.137580299999968, 36.5964704 ] } },
{ "type": "Feature", "properties": { "内容": "Coco楽笑訪問介護ステーション【訪問介護】富山県富山市蓮町４丁目6-3Coco楽笑", "url2": "https://www.kaigokensaku.mhlw.go.jp/16/index.php?action_kouhyou_detail_004_kani=true&JigyosyoCd=1670115409-00&ServiceCd=110&Type=search" }, "geometry": { "type": "Point", "coordinates": [ 137.2314585, 36.7412944 ] } },
{ "type": "Feature", "properties": { "内容": "ホームヘルプサービス乙姫【訪問介護】富山県富山市堀川小泉町1-10-8　日之出ハイツ102", "url2": "https://www.kaigokensaku.mhlw.go.jp/16/index.php?action_kouhyou_detail_004_kani=true&JigyosyoCd=1670114857-00&ServiceCd=110&Type=search" }, "geometry": { "type": "Point", "coordinates": [ 137.222695897812173, 36.678011141150201 ] } },
{ "type": "Feature", "properties": { "内容": "ニチイケアセンター堀川【訪問介護】富山市富山市本郷新３６", "url2": "https://www.kaigokensaku.mhlw.go.jp/16/index.php?action_kouhyou_detail_004_kani=true&JigyosyoCd=1670100450-00&ServiceCd=110&Type=search" }, "geometry": { "type": "Point", "coordinates": [ 137.22953480000001, 36.670142 ] } },
{ "type": "Feature", "properties": { "内容": "ヘルパーステーションありがとうホーム【訪問介護】富山県富山市東町1-5-8クリスタルビル201", "url2": "https://www.kaigokensaku.mhlw.go.jp/16/index.php?action_kouhyou_detail_004_kani=true&JigyosyoCd=1670114584-00&ServiceCd=110&Type=search" }, "geometry": { "type": "Point", "coordinates": [ 137.238654900000029, 36.690936 ] } },
{ "type": "Feature", "properties": { "内容": "三寿苑介護サービスセンター【訪問介護】富山市大島三丁目１４７番地", "url2": "https://www.kaigokensaku.mhlw.go.jp/16/index.php?action_kouhyou_detail_004_kani=true&JigyosyoCd=1670100393-00&ServiceCd=110&Type=search" }, "geometry": { "type": "Point", "coordinates": [ 137.278030400000034, 36.6740811 ] } },
{ "type": "Feature", "properties": { "内容": "梨雲苑ヘルパーセンター【訪問介護】富山県富山市吉作1725番地", "url2": "https://www.kaigokensaku.mhlw.go.jp/16/index.php?action_kouhyou_detail_004_kani=true&JigyosyoCd=1670101722-00&ServiceCd=110&Type=search" }, "geometry": { "type": "Point", "coordinates": [ 137.153270199999952, 36.7122291 ] } },
{ "type": "Feature", "properties": { "内容": "ヘルパーステーション心【訪問介護】富山県富山市元町1丁目3番22号矢郷ビル1F", "url2": "https://www.kaigokensaku.mhlw.go.jp/16/index.php?action_kouhyou_detail_004_kani=true&JigyosyoCd=1670114923-00&ServiceCd=110&Type=search" }, "geometry": { "type": "Point", "coordinates": [ 137.229326500000013, 36.688904500000014 ] } },
{ "type": "Feature", "properties": { "内容": "(有)千石ケアサービス【訪問介護】富山県富山市千石町5丁目-3-7", "url2": "https://www.kaigokensaku.mhlw.go.jp/16/index.php?action_kouhyou_detail_004_kani=true&JigyosyoCd=1670100328-00&ServiceCd=110&Type=search" }, "geometry": { "type": "Point", "coordinates": [ 137.211447099999987, 36.6850673 ] } },
{ "type": "Feature", "properties": { "内容": "訪問介護　ひとと樹【訪問介護】富山県富山市町村69-1", "url2": "https://www.kaigokensaku.mhlw.go.jp/16/index.php?action_kouhyou_detail_004_kani=true&JigyosyoCd=1670114790-00&ServiceCd=110&Type=search" }, "geometry": { "type": "Point", "coordinates": [ 137.2522105, 36.6836165 ] } },
{ "type": "Feature", "properties": { "内容": "訪問介護ステーション　福禄寿【訪問介護】富山市森１丁目９－６", "url2": "https://www.kaigokensaku.mhlw.go.jp/16/index.php?action_kouhyou_detail_004_kani=true&JigyosyoCd=1670115623-00&ServiceCd=110&Type=search" }, "geometry": { "type": "Point", "coordinates": [ 137.235264199999989, 36.7483454 ] } },
{ "type": "Feature", "properties": { "内容": "ヘルパーステーション鈴の音【訪問介護】富山県富山市飯野18番4有料老人ホーム鈴の音飯野", "url2": "https://www.kaigokensaku.mhlw.go.jp/16/index.php?action_kouhyou_detail_004_kani=true&JigyosyoCd=1670115672-00&ServiceCd=110&Type=search" }, "geometry": { "type": "Point", "coordinates": [ 137.253905, 36.7154319 ] } },
{ "type": "Feature", "properties": { "内容": "ヘルパーステーション笑美寿【訪問介護】富山県富山市田畑852-3", "url2": "https://www.kaigokensaku.mhlw.go.jp/16/index.php?action_kouhyou_detail_004_kani=true&JigyosyoCd=1670115730-00&ServiceCd=110&Type=search" }, "geometry": { "type": "Point", "coordinates": [ 137.254531, 36.7440856 ] } },
{ "type": "Feature", "properties": { "内容": "訪問介護リベル　富山1st【訪問介護】富山県富山市婦中町上轡田806番地1", "url2": "https://www.kaigokensaku.mhlw.go.jp/16/index.php?action_kouhyou_detail_004_kani=true&JigyosyoCd=1670115763-00&ServiceCd=110&Type=search" }, "geometry": { "type": "Point", "coordinates": [ 137.175608199999971, 36.6580745 ] } },
{ "type": "Feature", "properties": { "内容": "富山県富山市八木山56番地【訪問介護】富山県富山市八木山56番地", "url2": "https://www.kaigokensaku.mhlw.go.jp/16/index.php?action_kouhyou_detail_004_kani=true&JigyosyoCd=1670115797-00&ServiceCd=110&Type=search" }, "geometry": { "type": "Point", "coordinates": [ 137.2075795, 36.5791362 ] } },
{ "type": "Feature", "properties": { "内容": "アクア富山訪問介護【訪問介護】富山県富山市中冨居15-73", "url2": "https://www.kaigokensaku.mhlw.go.jp/16/index.php?action_kouhyou_detail_004_kani=true&JigyosyoCd=1670115458-00&ServiceCd=110&Type=search" }, "geometry": { "type": "Point", "coordinates": [ 137.2469221372356, 36.709914509284381 ] } },
{ "type": "Feature", "properties": { "内容": "訪問介護リベル　富山2nd【訪問介護】富山県富山市経田1231番地", "url2": "https://www.kaigokensaku.mhlw.go.jp/16/index.php?action_kouhyou_detail_004_kani=true&JigyosyoCd=1670115771-00&ServiceCd=110&Type=search" }, "geometry": { "type": "Point", "coordinates": [ 137.191873399999963, 36.6517826 ] } },
{ "type": "Feature", "properties": { "内容": "訪問介護リベル　富山3rd【訪問介護】富山県富山市町村69番地5", "url2": "https://www.kaigokensaku.mhlw.go.jp/16/index.php?action_kouhyou_detail_004_kani=true&JigyosyoCd=1670115789-00&ServiceCd=110&Type=search" }, "geometry": { "type": "Point", "coordinates": [ 137.193002300000018, 36.6188001 ] } },
{ "type": "Feature", "properties": { "内容": "しらいわ苑ホームヘルパーセンター【訪問介護】富山県富山市水橋新堀17-1", "url2": "https://www.kaigokensaku.mhlw.go.jp/16/index.php?action_kouhyou_detail_004_kani=true&JigyosyoCd=1670100302-00&ServiceCd=110&Type=search" }, "geometry": { "type": "Point", "coordinates": [ 137.30417680000005, 36.7148715 ] } },
{ "type": "Feature", "properties": { "内容": "富山医療生活協同組合　在宅福祉総合センターひまわり　ヘルパーステーション【訪問介護】富山市粟島２丁目２－１", "url2": "https://www.kaigokensaku.mhlw.go.jp/16/index.php?action_kouhyou_detail_004_kani=true&JigyosyoCd=1660190016-00&ServiceCd=110&Type=search" }, "geometry": { "type": "Point", "coordinates": [ 137.231179600000019, 36.724432 ] } },
{ "type": "Feature", "properties": { "内容": "訪問介護介護ステーション　悠ライフ富山【訪問介護】山室250-7", "url2": "https://www.kaigokensaku.mhlw.go.jp/16/index.php?action_kouhyou_detail_004_kani=true&JigyosyoCd=1670115466-00&ServiceCd=110&Type=search" }, "geometry": { "type": "Point", "coordinates": [ 137.239788, 36.6758438 ] } },
{ "type": "Feature", "properties": { "内容": "イフディケアとやま南【訪問介護】富山市黒崎291コンフォート黒崎", "url2": "https://www.kaigokensaku.mhlw.go.jp/16/index.php?action_kouhyou_detail_004_kani=true&JigyosyoCd=1670112323-00&ServiceCd=110&Type=search" }, "geometry": { "type": "Point", "coordinates": [ 137.207328927733556, 36.652535768738147 ] } },
{ "type": "Feature", "properties": { "内容": "アクア富山秋吉訪問介護【訪問介護】富山県富山市秋吉181番地4", "url2": "https://www.kaigokensaku.mhlw.go.jp/16/index.php?action_kouhyou_detail_004_kani=true&JigyosyoCd=1670115748-00&ServiceCd=110&Type=search" }, "geometry": { "type": "Point", "coordinates": [ 137.2476481, 36.6837379 ] } },
{ "type": "Feature", "properties": { "内容": "サンウェルズ秋吉ヘルパーステーション【訪問介護】富山県富山市秋吉130-4", "url2": "https://www.kaigokensaku.mhlw.go.jp/16/index.php?action_kouhyou_detail_004_kani=true&JigyosyoCd=1670115227-00&ServiceCd=110&Type=search" }, "geometry": { "type": "Point", "coordinates": [ 137.2450561, 36.6784383 ] } },
{ "type": "Feature", "properties": { "内容": "有限会社ヘルパーサービスセンター高岡【訪問介護】富山県　高岡市　中央町　７２番地", "url2": "https://www.kaigokensaku.mhlw.go.jp/16/index.php?action_kouhyou_detail_004_kani=true&JigyosyoCd=1670200417-00&ServiceCd=110&Type=search" }, "geometry": { "type": "Point", "coordinates": [ 137.014393599999948, 36.7467971 ] } },
{ "type": "Feature", "properties": { "内容": "メディカルケアステーション【訪問介護】中曽根2373番地セントラルパーク牧野", "url2": "https://www.kaigokensaku.mhlw.go.jp/16/index.php?action_kouhyou_detail_004_kani=true&JigyosyoCd=1670202546-00&ServiceCd=110&Type=search" }, "geometry": { "type": "Point", "coordinates": [ 137.07763460000001, 36.769973 ] } },
{ "type": "Feature", "properties": { "内容": "有限会社わか木訪問介護事業所【訪問介護】富山県高岡市波岡61番地1", "url2": "https://www.kaigokensaku.mhlw.go.jp/16/index.php?action_kouhyou_detail_004_kani=true&JigyosyoCd=1670202694-00&ServiceCd=110&Type=search" }, "geometry": { "type": "Point", "coordinates": [ 136.99162, 36.7545001 ] } },
{ "type": "Feature", "properties": { "内容": "志貴野長生寮訪問介護センター【訪問介護】高岡市滝新21-1", "url2": "https://www.kaigokensaku.mhlw.go.jp/16/index.php?action_kouhyou_detail_004_kani=true&JigyosyoCd=1670202785-00&ServiceCd=110&Type=search" }, "geometry": { "type": "Point", "coordinates": [ 137.0303327, 36.6778729 ] } },
{ "type": "Feature", "properties": { "内容": "ケアタクシー　りぼん【訪問介護】富山県高岡市二塚1170", "url2": "https://www.kaigokensaku.mhlw.go.jp/16/index.php?action_kouhyou_detail_004_kani=true&JigyosyoCd=1670202801-00&ServiceCd=110&Type=search" }, "geometry": { "type": "Point", "coordinates": [ 137.006153399999988, 36.7099998 ] } },
{ "type": "Feature", "properties": { "内容": "高岡交通株式会社【訪問介護】富山県高岡市二塚754-1", "url2": "https://www.kaigokensaku.mhlw.go.jp/16/index.php?action_kouhyou_detail_004_kani=true&JigyosyoCd=1670200649-00&ServiceCd=110&Type=search" }, "geometry": { "type": "Point", "coordinates": [ 137.0091325, 36.7176002 ] } },
{ "type": "Feature", "properties": { "内容": "香野苑ホームヘルプサービス【訪問介護】富山県高岡市上渡１６１番地", "url2": "https://www.kaigokensaku.mhlw.go.jp/16/index.php?action_kouhyou_detail_004_kani=true&JigyosyoCd=1670200375-00&ServiceCd=110&Type=search" }, "geometry": { "type": "Point", "coordinates": [ 136.957872700000053, 36.7296946 ] } },
{ "type": "Feature", "properties": { "内容": "訪問介護　えにし【訪問介護】富山県高岡市野村1029-1有料老人ホーム　縁高岡　1階", "url2": "https://www.kaigokensaku.mhlw.go.jp/16/index.php?action_kouhyou_detail_004_kani=true&JigyosyoCd=1670202843-00&ServiceCd=110&Type=search" }, "geometry": { "type": "Point", "coordinates": [ 137.033362984393335, 36.751555795835131 ] } },
{ "type": "Feature", "properties": { "内容": "ぽらりすかいごさーびす【訪問介護】中曽根１６０－３", "url2": "https://www.kaigokensaku.mhlw.go.jp/16/index.php?action_kouhyou_detail_004_kani=true&JigyosyoCd=1671100616-00&ServiceCd=110&Type=search" }, "geometry": { "type": "Point", "coordinates": [ 137.080383152636728, 36.771256880922586 ] } },
{ "type": "Feature", "properties": { "内容": "雨晴苑ホームヘルパー事業所【訪問介護】高岡市太田58番地", "url2": "https://www.kaigokensaku.mhlw.go.jp/16/index.php?action_kouhyou_detail_004_kani=true&JigyosyoCd=1670200227-00&ServiceCd=110&Type=search" }, "geometry": { "type": "Point", "coordinates": [ 137.014864799999941, 36.8154082 ] } },
{ "type": "Feature", "properties": { "内容": "きらめき介護サービス【訪問介護】富山県高岡市オフィスパーク５番地", "url2": "https://www.kaigokensaku.mhlw.go.jp/16/index.php?action_kouhyou_detail_004_kani=true&JigyosyoCd=1670201365-00&ServiceCd=110&Type=search" }, "geometry": { "type": "Point", "coordinates": [ 136.999521, 36.6695257 ] } },
{ "type": "Feature", "properties": { "内容": "ヘルパーステーションまもる【訪問介護】富山県高岡市大野１７２番地１サンヴィラ大野Ａ棟", "url2": "https://www.kaigokensaku.mhlw.go.jp/16/index.php?action_kouhyou_detail_004_kani=true&JigyosyoCd=1670202793-00&ServiceCd=110&Type=search" }, "geometry": { "type": "Point", "coordinates": [ 137.028004119049115, 36.738562592313137 ] } },
{ "type": "Feature", "properties": { "内容": "ヘルパーステーション一真戸出【訪問介護】高岡市戸出町３丁目１５－５４", "url2": "https://www.kaigokensaku.mhlw.go.jp/16/index.php?action_kouhyou_detail_004_kani=true&JigyosyoCd=1670202017-00&ServiceCd=110&Type=search" }, "geometry": { "type": "Point", "coordinates": [ 136.979217201496908, 36.680978657572993 ] } },
{ "type": "Feature", "properties": { "内容": "訪問介護　えにし【訪問介護】富山県高岡市野村1029-1有料老人ホーム　縁高岡　1階", "url2": "https://www.kaigokensaku.mhlw.go.jp/16/index.php?action_kouhyou_detail_004_kani=true&JigyosyoCd=1670202892-00&ServiceCd=110&Type=search" }, "geometry": { "type": "Point", "coordinates": [ 137.033162782109031, 36.751630954783614 ] } },
{ "type": "Feature", "properties": { "内容": "ヘルパーステーションいちごいちえ【訪問介護】富山県高岡市問屋町211", "url2": "https://www.kaigokensaku.mhlw.go.jp/16/index.php?action_kouhyou_detail_004_kani=true&JigyosyoCd=1670202967-00&ServiceCd=110&Type=search" }, "geometry": { "type": "Point", "coordinates": [ 137.027220699999987, 36.7307024 ] } },
{ "type": "Feature", "properties": { "内容": "いろはケア【訪問介護】石瀬６１５－１ケアコミュニティしんせい", "url2": "https://www.kaigokensaku.mhlw.go.jp/16/index.php?action_kouhyou_detail_004_kani=true&JigyosyoCd=1670202942-00&ServiceCd=110&Type=search" }, "geometry": { "type": "Point", "coordinates": [ 137.047285499999987, 36.7601377 ] } },
{ "type": "Feature", "properties": { "内容": "ヘルパーステーション紬【訪問介護】富山県高岡市野村1542-1シニアメゾン紬", "url2": "https://www.kaigokensaku.mhlw.go.jp/16/index.php?action_kouhyou_detail_004_kani=true&JigyosyoCd=1670202744-00&ServiceCd=110&Type=search" }, "geometry": { "type": "Point", "coordinates": [ 137.0409838, 36.7575723 ] } },
{ "type": "Feature", "properties": { "内容": "訪問介護ステーションあいの風【訪問介護】二上町１１４４－２", "url2": "https://www.kaigokensaku.mhlw.go.jp/16/index.php?action_kouhyou_detail_004_kani=true&JigyosyoCd=1670201951-00&ServiceCd=110&Type=search" }, "geometry": { "type": "Point", "coordinates": [ 137.005034199999955, 36.7761492 ] } },
{ "type": "Feature", "properties": { "内容": "紫蘭会　ヘルパーステーション【訪問介護】富山県高岡市京田490番地", "url2": "https://www.kaigokensaku.mhlw.go.jp/16/index.php?action_kouhyou_detail_004_kani=true&JigyosyoCd=1670202561-00&ServiceCd=110&Type=search" }, "geometry": { "type": "Point", "coordinates": [ 137.0172973, 36.728266 ] } },
{ "type": "Feature", "properties": { "内容": "援JOYヘルパーステーション【訪問介護】富山県高岡市開発本町6番14号", "url2": "https://www.kaigokensaku.mhlw.go.jp/16/index.php?action_kouhyou_detail_004_kani=true&JigyosyoCd=1670202587-00&ServiceCd=110&Type=search" }, "geometry": { "type": "Point", "coordinates": [ 137.015502500000025, 36.7648493 ] } },
{ "type": "Feature", "properties": { "内容": "ニチイケアセンター高岡【訪問介護】富山県高岡市中川栄町5番13号", "url2": "https://www.kaigokensaku.mhlw.go.jp/16/index.php?action_kouhyou_detail_004_kani=true&JigyosyoCd=1670201019-00&ServiceCd=110&Type=search" }, "geometry": { "type": "Point", "coordinates": [ 137.028106699999967, 36.7448889 ] } },
{ "type": "Feature", "properties": { "内容": "ニチイケアセンター能町【訪問介護】富山県高岡市能町南2-25", "url2": "https://www.kaigokensaku.mhlw.go.jp/16/index.php?action_kouhyou_detail_004_kani=true&JigyosyoCd=1670200318-00&ServiceCd=110&Type=search" }, "geometry": { "type": "Point", "coordinates": [ 137.043037599999934, 36.7647118 ] } },
{ "type": "Feature", "properties": { "内容": "ニチイケアセンター高岡佐野【訪問介護】富山県高岡市佐野580番地", "url2": "https://www.kaigokensaku.mhlw.go.jp/16/index.php?action_kouhyou_detail_004_kani=true&JigyosyoCd=1670202652-00&ServiceCd=110&Type=search" }, "geometry": { "type": "Point", "coordinates": [ 136.994411, 36.7225658 ] } },
{ "type": "Feature", "properties": { "内容": "ニチイケアセンター中田【訪問介護】富山県高岡市中田1427番地", "url2": "https://www.kaigokensaku.mhlw.go.jp/16/index.php?action_kouhyou_detail_004_kani=true&JigyosyoCd=1670202660-00&ServiceCd=110&Type=search" }, "geometry": { "type": "Point", "coordinates": [ 137.018421100000069, 36.6822446 ] } },
{ "type": "Feature", "properties": { "内容": "訪問介護ひまわり【訪問介護】富山県高岡市木津691-1", "url2": "https://www.kaigokensaku.mhlw.go.jp/16/index.php?action_kouhyou_detail_004_kani=true&JigyosyoCd=1670202108-00&ServiceCd=110&Type=search" }, "geometry": { "type": "Point", "coordinates": [ 136.997114793304263, 36.735474492412713 ] } },
{ "type": "Feature", "properties": { "内容": "あっかり介護サービス【訪問介護】富山県高岡市高陵町７番５４号", "url2": "https://www.kaigokensaku.mhlw.go.jp/16/index.php?action_kouhyou_detail_004_kani=true&JigyosyoCd=1670202207-00&ServiceCd=110&Type=search" }, "geometry": { "type": "Point", "coordinates": [ 137.025595599999974, 36.7415924 ] } },
{ "type": "Feature", "properties": { "内容": "ケアサービスあかり【訪問介護】富山県高岡市伏木国分２丁目７番16号", "url2": "https://www.kaigokensaku.mhlw.go.jp/16/index.php?action_kouhyou_detail_004_kani=true&JigyosyoCd=1670202868-00&ServiceCd=110&Type=search" }, "geometry": { "type": "Point", "coordinates": [ 137.050997195945456, 36.802191596842221 ] } },
{ "type": "Feature", "properties": { "内容": "ヘルパーステーションひふみ【訪問介護】富山県高岡市野村1844番地メゾン藤20B", "url2": "https://www.kaigokensaku.mhlw.go.jp/16/index.php?action_kouhyou_detail_004_kani=true&JigyosyoCd=1670202470-00&ServiceCd=110&Type=search" }, "geometry": { "type": "Point", "coordinates": [ 137.042579400000022, 36.7609123 ] } },
{ "type": "Feature", "properties": { "内容": "だいご苑ヘルパーステーション【訪問介護】富山県高岡市醍醐　1257番地", "url2": "https://www.kaigokensaku.mhlw.go.jp/16/index.php?action_kouhyou_detail_004_kani=true&JigyosyoCd=1670200284-00&ServiceCd=110&Type=search" }, "geometry": { "type": "Point", "coordinates": [ 136.961654400000043, 36.6961986 ] } },
{ "type": "Feature", "properties": { "内容": "鳳鳴苑デイサービスセンター【訪問介護】富山県高岡市蔵野町3番地", "url2": "https://www.kaigokensaku.mhlw.go.jp/16/index.php?action_kouhyou_detail_004_kani=true&JigyosyoCd=1670200243-00&ServiceCd=110&Type=search" }, "geometry": { "type": "Point", "coordinates": [ 136.978160399999979, 36.7229736 ] } },
{ "type": "Feature", "properties": { "内容": "あさひの里ヘルパーステーション【訪問介護】富山県高岡市鷲北新185", "url2": "https://www.kaigokensaku.mhlw.go.jp/16/index.php?action_kouhyou_detail_004_kani=true&JigyosyoCd=1670202421-00&ServiceCd=110&Type=search" }, "geometry": { "type": "Point", "coordinates": [ 137.03778429999997, 36.7662803 ] } },
{ "type": "Feature", "properties": { "内容": "よろこび高岡南ケアセンタ－【訪問介護】富山県高岡市佐野654-5中部ハイツ１階", "url2": "https://www.kaigokensaku.mhlw.go.jp/16/index.php?action_kouhyou_detail_004_kani=true&JigyosyoCd=1670201621-00&ServiceCd=110&Type=search" }, "geometry": { "type": "Point", "coordinates": [ 137.0017047, 36.7296764 ] } },
{ "type": "Feature", "properties": { "内容": "社会福祉法人　射水万葉会　よろこび高岡ケアセンター【訪問介護】富山県高岡市野村1817", "url2": "https://www.kaigokensaku.mhlw.go.jp/16/index.php?action_kouhyou_detail_004_kani=true&JigyosyoCd=1670201670-00&ServiceCd=110&Type=search" }, "geometry": { "type": "Point", "coordinates": [ 137.042216709064633, 36.762483059218205 ] } },
{ "type": "Feature", "properties": { "内容": "ヘルパーステーション藤園苑【訪問介護】高岡市早川390-1", "url2": "https://www.kaigokensaku.mhlw.go.jp/16/index.php?action_kouhyou_detail_004_kani=true&JigyosyoCd=1670200813-00&ServiceCd=110&Type=search" }, "geometry": { "type": "Point", "coordinates": [ 136.988288199999943, 36.7465688 ] } },
{ "type": "Feature", "properties": { "内容": "ヘルパーステーションのむら藤園苑【訪問介護】富山県高岡市野村923-4サンビューハイムのむら103号", "url2": "https://www.kaigokensaku.mhlw.go.jp/16/index.php?action_kouhyou_detail_004_kani=true&JigyosyoCd=1670202165-00&ServiceCd=110&Type=search" }, "geometry": { "type": "Point", "coordinates": [ 137.036259146032762, 36.750441545485472 ] } },
{ "type": "Feature", "properties": { "内容": "ふしき苑ヘルパーステーション【訪問介護】富山県高岡市伏木国分１丁目１０番１０号", "url2": "https://www.kaigokensaku.mhlw.go.jp/16/index.php?action_kouhyou_detail_004_kani=true&JigyosyoCd=1670200839-00&ServiceCd=110&Type=search" }, "geometry": { "type": "Point", "coordinates": [ 137.0539238, 36.8001945 ] } },
{ "type": "Feature", "properties": { "内容": "サンケア高岡【訪問介護】富山県高岡市赤祖父６３６番地", "url2": "https://www.kaigokensaku.mhlw.go.jp/16/index.php?action_kouhyou_detail_004_kani=true&JigyosyoCd=1670201944-00&ServiceCd=110&Type=search" }, "geometry": { "type": "Point", "coordinates": [ 137.0217384, 36.7284578 ] } },
{ "type": "Feature", "properties": { "内容": "富綜ヘルパーステーション【訪問介護】石瀬830-1", "url2": "https://www.kaigokensaku.mhlw.go.jp/16/index.php?action_kouhyou_detail_004_kani=true&JigyosyoCd=1670202066-00&ServiceCd=110&Type=search" }, "geometry": { "type": "Point", "coordinates": [ 137.046626300000071, 36.762526 ] } },
{ "type": "Feature", "properties": { "内容": "コミュニティケア【訪問介護】高岡市太田伊勢領1511-13リゾートビラ雨晴", "url2": "https://www.kaigokensaku.mhlw.go.jp/16/index.php?action_kouhyou_detail_004_kani=true&JigyosyoCd=1670500360-00&ServiceCd=110&Type=search" }, "geometry": { "type": "Point", "coordinates": [ 137.018617, 36.8225769 ] } },
{ "type": "Feature", "properties": { "内容": "訪問介護さくら【訪問介護】木津691-1", "url2": "https://www.kaigokensaku.mhlw.go.jp/16/index.php?action_kouhyou_detail_004_kani=true&JigyosyoCd=1670203049-00&ServiceCd=110&Type=search" }, "geometry": { "type": "Point", "coordinates": [ 136.99705573340222, 36.735643325416554 ] } },
{ "type": "Feature", "properties": { "内容": "医心館訪問介護ステーション高岡【訪問介護】富山県高岡市羽広一丁目９番５号", "url2": "https://www.kaigokensaku.mhlw.go.jp/16/index.php?action_kouhyou_detail_004_kani=true&JigyosyoCd=1670203023-00&ServiceCd=110&Type=search" }, "geometry": { "type": "Point", "coordinates": [ 136.98873660000001, 36.7392157 ] } },
{ "type": "Feature", "properties": { "内容": "社協ホームヘルパーステーション【訪問介護】富山県高岡市清水町1丁目7番30号", "url2": "https://www.kaigokensaku.mhlw.go.jp/16/index.php?action_kouhyou_detail_004_kani=true&JigyosyoCd=1670200177-00&ServiceCd=110&Type=search" }, "geometry": { "type": "Point", "coordinates": [ 137.002895399999943, 36.740908600000019 ] } },
{ "type": "Feature", "properties": { "内容": "ヘルパーステーションひだまり高岡【訪問介護】富山県高岡市佐野845-1", "url2": "https://www.kaigokensaku.mhlw.go.jp/16/index.php?action_kouhyou_detail_004_kani=true&JigyosyoCd=1670201241-00&ServiceCd=110&Type=search" }, "geometry": { "type": "Point", "coordinates": [ 136.990028121085629, 36.73113159349451 ] } },
{ "type": "Feature", "properties": { "内容": "イフディケア高岡四屋【訪問介護】富山県高岡市長江（四屋）1868コンチネンタルスカイハイツ101", "url2": "https://www.kaigokensaku.mhlw.go.jp/16/index.php?action_kouhyou_detail_004_kani=true&JigyosyoCd=1670202280-00&ServiceCd=110&Type=search" }, "geometry": { "type": "Point", "coordinates": [ 137.00525118256985, 36.760674086727533 ] } },
{ "type": "Feature", "properties": { "内容": "とわ合同会社【訪問介護】富山県魚津市相木４９７番地１", "url2": "https://www.kaigokensaku.mhlw.go.jp/16/index.php?action_kouhyou_detail_004_kani=true&JigyosyoCd=1670400694-00&ServiceCd=110&Type=search" }, "geometry": { "type": "Point", "coordinates": [ 137.422788700000012, 36.8222562 ] } },
{ "type": "Feature", "properties": { "内容": "支援猫の手【訪問介護】富山県魚津市上村木2丁目1番1号", "url2": "https://www.kaigokensaku.mhlw.go.jp/16/index.php?action_kouhyou_detail_004_kani=true&JigyosyoCd=1670411139-00&ServiceCd=110&Type=search" }, "geometry": { "type": "Point", "coordinates": [ 137.4095132, 36.8208901 ] } },
{ "type": "Feature", "properties": { "内容": "訪問介護ステーションちょうろく【訪問介護】富山県魚津市石垣389番地", "url2": "https://www.kaigokensaku.mhlw.go.jp/16/index.php?action_kouhyou_detail_004_kani=true&JigyosyoCd=1670400207-00&ServiceCd=110&Type=search" }, "geometry": { "type": "Point", "coordinates": [ 137.404090600000018, 36.8160211 ] } },
{ "type": "Feature", "properties": { "内容": "ぬくもり訪問介護事業所【訪問介護】富山県魚津市友道777番地", "url2": "https://www.kaigokensaku.mhlw.go.jp/16/index.php?action_kouhyou_detail_004_kani=true&JigyosyoCd=1670400520-00&ServiceCd=110&Type=search" }, "geometry": { "type": "Point", "coordinates": [ 137.411204199999929, 36.8145575 ] } },
{ "type": "Feature", "properties": { "内容": "ヘルパーステーション　あんどの里　ありそ館【訪問介護】魚津市北鬼江1177番地あんどの里ありそ館", "url2": "https://www.kaigokensaku.mhlw.go.jp/16/index.php?action_kouhyou_detail_004_kani=true&JigyosyoCd=1670400603-00&ServiceCd=110&Type=search" }, "geometry": { "type": "Point", "coordinates": [ 137.400753900000041, 36.8288365 ] } },
{ "type": "Feature", "properties": { "内容": "魚津市社協ヘルパーステーション【訪問介護】富山県魚津市新金屋二丁目13番26号", "url2": "https://www.kaigokensaku.mhlw.go.jp/16/index.php?action_kouhyou_detail_004_kani=true&JigyosyoCd=1670400140-00&ServiceCd=110&Type=search" }, "geometry": { "type": "Point", "coordinates": [ 137.409284399999933, 36.8211708 ] } },
{ "type": "Feature", "properties": { "内容": "新川ヴィーラ訪問介護事業所【訪問介護】富山県魚津市本江２２３６番地２", "url2": "https://www.kaigokensaku.mhlw.go.jp/16/index.php?action_kouhyou_detail_004_kani=true&JigyosyoCd=1670400447-00&ServiceCd=110&Type=search" }, "geometry": { "type": "Point", "coordinates": [ 137.40571670024724, 36.817814070661605 ] } },
{ "type": "Feature", "properties": { "内容": "ヘルパーセンタータイアップ【訪問介護】富山県魚津市北山７１４番地", "url2": "https://www.kaigokensaku.mhlw.go.jp/16/index.php?action_kouhyou_detail_004_kani=true&JigyosyoCd=1670400645-00&ServiceCd=110&Type=search" }, "geometry": { "type": "Point", "coordinates": [ 137.4454528, 36.77544 ] } },
{ "type": "Feature", "properties": { "内容": "訪問介護事業所かがやき魚津【訪問介護】魚津市新金屋1-12-38ｲﾝﾃﾘｼﾞｪﾝﾄｾﾝﾀｰﾋﾞﾙ2F", "url2": "https://www.kaigokensaku.mhlw.go.jp/16/index.php?action_kouhyou_detail_004_kani=true&JigyosyoCd=1670400496-00&ServiceCd=110&Type=search" }, "geometry": { "type": "Point", "coordinates": [ 137.40670410000007, 36.8203541 ] } },
{ "type": "Feature", "properties": { "内容": "在宅介護サービスセンターすずらん【訪問介護】朝日丘8-88", "url2": "https://www.kaigokensaku.mhlw.go.jp/16/index.php?action_kouhyou_detail_004_kani=true&JigyosyoCd=1670500212-00&ServiceCd=110&Type=search" }, "geometry": { "type": "Point", "coordinates": [ 136.980529446171573, 36.848159670390316 ] } },
{ "type": "Feature", "properties": { "内容": "ありがとうホーム柳田【訪問介護】柳田1134ありがとうホーム　やないだの郷", "url2": "https://www.kaigokensaku.mhlw.go.jp/16/index.php?action_kouhyou_detail_004_kani=true&JigyosyoCd=1670500790-00&ServiceCd=110&Type=search" }, "geometry": { "type": "Point", "coordinates": [ 137.008227944472424, 36.833712286914754 ] } },
{ "type": "Feature", "properties": { "内容": "氷見ケアサービス【訪問介護】富山県氷見市窪552-1", "url2": "https://www.kaigokensaku.mhlw.go.jp/16/index.php?action_kouhyou_detail_004_kani=true&JigyosyoCd=1670500063-00&ServiceCd=110&Type=search" }, "geometry": { "type": "Point", "coordinates": [ 136.99055050000004, 36.836262499999989 ] } },
{ "type": "Feature", "properties": { "内容": "氷見苑訪問介護事業所【訪問介護】富山県氷見市薮田2058番地", "url2": "https://www.kaigokensaku.mhlw.go.jp/16/index.php?action_kouhyou_detail_004_kani=true&JigyosyoCd=1670500394-00&ServiceCd=110&Type=search" }, "geometry": { "type": "Point", "coordinates": [ 136.997758699999963, 36.892973499999982 ] } },
{ "type": "Feature", "properties": { "内容": "はまなす苑氷見指定居宅訪問介護事業所【訪問介護】富山県氷見市島尾837番地有料老人ホームいちえ内", "url2": "https://www.kaigokensaku.mhlw.go.jp/16/index.php?action_kouhyou_detail_004_kani=true&JigyosyoCd=1670500113-00&ServiceCd=110&Type=search" }, "geometry": { "type": "Point", "coordinates": [ 137.01081689021305, 36.823249162158717 ] } },
{ "type": "Feature", "properties": { "内容": "社会福祉法人　氷見市社会福祉協議会【訪問介護】富山県氷見市鞍川９７５", "url2": "https://www.kaigokensaku.mhlw.go.jp/16/index.php?action_kouhyou_detail_004_kani=true&JigyosyoCd=1670500147-00&ServiceCd=110&Type=search" }, "geometry": { "type": "Point", "coordinates": [ 136.974448700000039, 36.8554979 ] } },
{ "type": "Feature", "properties": { "内容": "氷見市農業協同組合【訪問介護】富山県氷見市朝日丘２番３２号", "url2": "https://www.kaigokensaku.mhlw.go.jp/16/index.php?action_kouhyou_detail_004_kani=true&JigyosyoCd=1670500048-00&ServiceCd=110&Type=search" }, "geometry": { "type": "Point", "coordinates": [ 136.984220199999982, 36.8494935 ] } },
{ "type": "Feature", "properties": { "内容": "リハ・ハウス来夢訪問介護事業所【訪問介護】富山県氷見市伊勢大町二丁目14番20号", "url2": "https://www.kaigokensaku.mhlw.go.jp/16/index.php?action_kouhyou_detail_004_kani=true&JigyosyoCd=1670500717-00&ServiceCd=110&Type=search" }, "geometry": { "type": "Point", "coordinates": [ 136.989704249737571, 36.848133595659469 ] } },
{ "type": "Feature", "properties": { "内容": "ファミリーハンズ　米沢【訪問介護】富山県滑川市沖田新85", "url2": "https://www.kaigokensaku.mhlw.go.jp/16/index.php?action_kouhyou_detail_004_kani=true&JigyosyoCd=1671600623-00&ServiceCd=110&Type=search" }, "geometry": { "type": "Point", "coordinates": [ 137.348995611005506, 36.752595044390354 ] } },
{ "type": "Feature", "properties": { "内容": "ヘルパーステーション想心【訪問介護】富山県滑川市沖田新212番地3スプリング・グローブテナント２", "url2": "https://www.kaigokensaku.mhlw.go.jp/16/index.php?action_kouhyou_detail_004_kani=true&JigyosyoCd=1670600525-00&ServiceCd=110&Type=search" }, "geometry": { "type": "Point", "coordinates": [ 137.343513, 36.753382 ] } },
{ "type": "Feature", "properties": { "内容": "滑川市社会福祉協議会【訪問介護】富山県滑川市寺家町104滑川市庁舎東別館２階", "url2": "https://www.kaigokensaku.mhlw.go.jp/16/index.php?action_kouhyou_detail_004_kani=true&JigyosyoCd=1670600087-00&ServiceCd=110&Type=search" }, "geometry": { "type": "Point", "coordinates": [ 137.341871644709272, 36.764546073096625 ] } },
{ "type": "Feature", "properties": { "内容": "よろこび滑川ケアセンタ－【訪問介護】富山県滑川市瀬羽町1874-5１階", "url2": "https://www.kaigokensaku.mhlw.go.jp/16/index.php?action_kouhyou_detail_004_kani=true&JigyosyoCd=1670600293-00&ServiceCd=110&Type=search" }, "geometry": { "type": "Point", "coordinates": [ 137.335554495106521, 36.763620530050169 ] } },
{ "type": "Feature", "properties": { "内容": "訪問介護ステーション　一会【訪問介護】富山県滑川市田中町154番地サービス付き高齢者向け住宅　早月の郷", "url2": "https://www.kaigokensaku.mhlw.go.jp/16/index.php?action_kouhyou_detail_004_kani=true&JigyosyoCd=1670600475-00&ServiceCd=110&Type=search" }, "geometry": { "type": "Point", "coordinates": [ 137.3372501, 36.7610931 ] } },
{ "type": "Feature", "properties": { "内容": "ヘルパーステーションむゆうじゅ【訪問介護】上小泉278-1", "url2": "https://www.kaigokensaku.mhlw.go.jp/16/index.php?action_kouhyou_detail_004_kani=true&JigyosyoCd=1670600392-00&ServiceCd=110&Type=search" }, "geometry": { "type": "Point", "coordinates": [ 137.3515036, 36.7629338 ] } },
{ "type": "Feature", "properties": { "内容": "富山県黒部市宇奈月町浦山４０７－２０【訪問介護】富山県黒部市宇奈月町浦山４０７－２０", "url2": "https://www.kaigokensaku.mhlw.go.jp/16/index.php?action_kouhyou_detail_004_kani=true&JigyosyoCd=1670700549-00&ServiceCd=110&Type=search" }, "geometry": { "type": "Point", "coordinates": [ 137.519064800000024, 36.8679828 ] } },
{ "type": "Feature", "properties": { "内容": "ニチイケアセンター黒部【訪問介護】富山県黒部市荻生2897-1", "url2": "https://www.kaigokensaku.mhlw.go.jp/16/index.php?action_kouhyou_detail_004_kani=true&JigyosyoCd=1670700481-00&ServiceCd=110&Type=search" }, "geometry": { "type": "Point", "coordinates": [ 137.461734, 36.8787378 ] } },
{ "type": "Feature", "properties": { "内容": "黒部市社会福祉協議会　ホームヘルプセンター【訪問介護】富山県黒部市金屋４６４－１", "url2": "https://www.kaigokensaku.mhlw.go.jp/16/index.php?action_kouhyou_detail_004_kani=true&JigyosyoCd=1670700044-00&ServiceCd=110&Type=search" }, "geometry": { "type": "Point", "coordinates": [ 137.443505, 36.8867031 ] } },
{ "type": "Feature", "properties": { "内容": "宇奈月ホームヘルプサービスセンター【訪問介護】富山県黒部市宇奈月町下立３８番地", "url2": "https://www.kaigokensaku.mhlw.go.jp/16/index.php?action_kouhyou_detail_004_kani=true&JigyosyoCd=1671700134-00&ServiceCd=110&Type=search" }, "geometry": { "type": "Point", "coordinates": [ 137.526713800000039, 36.8642892 ] } },
{ "type": "Feature", "properties": { "内容": "訪問介護ステーション　ファミリーハンズ【訪問介護】黒部市新牧野３４９　ユアーズビル黒部B棟", "url2": "https://www.kaigokensaku.mhlw.go.jp/16/index.php?action_kouhyou_detail_004_kani=true&JigyosyoCd=1671700357-00&ServiceCd=110&Type=search" }, "geometry": { "type": "Point", "coordinates": [ 137.446485323803699, 36.869977696257521 ] } },
{ "type": "Feature", "properties": { "内容": "アイテラスケアセンター【訪問介護】富山県砺波市秋元２００番地１５", "url2": "https://www.kaigokensaku.mhlw.go.jp/16/index.php?action_kouhyou_detail_004_kani=true&JigyosyoCd=1670800794-00&ServiceCd=110&Type=search" }, "geometry": { "type": "Point", "coordinates": [ 136.9929601, 36.6487775 ] } },
{ "type": "Feature", "properties": { "内容": "ものがたりホームヘルパーステーション【訪問介護】富山県砺波市太田1382", "url2": "https://www.kaigokensaku.mhlw.go.jp/16/index.php?action_kouhyou_detail_004_kani=true&JigyosyoCd=1670800554-00&ServiceCd=110&Type=search" }, "geometry": { "type": "Point", "coordinates": [ 136.99322458674834, 36.627139642914365 ] } },
{ "type": "Feature", "properties": { "内容": "ニチイケアセンター石丸【訪問介護】富山県砺波市石丸401番地", "url2": "https://www.kaigokensaku.mhlw.go.jp/16/index.php?action_kouhyou_detail_004_kani=true&JigyosyoCd=1670800596-00&ServiceCd=110&Type=search" }, "geometry": { "type": "Point", "coordinates": [ 136.979701258301105, 36.664713115212912 ] } },
{ "type": "Feature", "properties": { "内容": "ニチイケアセンター砺波【訪問介護】富山県砺波市太郎丸1-8-12", "url2": "https://www.kaigokensaku.mhlw.go.jp/16/index.php?action_kouhyou_detail_004_kani=true&JigyosyoCd=1670800224-00&ServiceCd=110&Type=search" }, "geometry": { "type": "Point", "coordinates": [ 136.959967300000017, 36.6320722 ] } },
{ "type": "Feature", "properties": { "内容": "ニチイケアセンター庄川【訪問介護】富山県砺波市庄川町示野121", "url2": "https://www.kaigokensaku.mhlw.go.jp/16/index.php?action_kouhyou_detail_004_kani=true&JigyosyoCd=1670800778-00&ServiceCd=110&Type=search" }, "geometry": { "type": "Point", "coordinates": [ 136.981365399999959, 36.5741217 ] } },
{ "type": "Feature", "properties": { "内容": "コスモスヘルパーステーション【訪問介護】富山県砺波市太朗丸１丁目4－26NTCとなみビル５階A", "url2": "https://www.kaigokensaku.mhlw.go.jp/16/index.php?action_kouhyou_detail_004_kani=true&JigyosyoCd=1670800703-00&ServiceCd=110&Type=search" }, "geometry": { "type": "Point", "coordinates": [ 136.957148055542007, 36.632642935697454 ] } },
{ "type": "Feature", "properties": { "内容": "訪問介護ステーション　ひばり【訪問介護】富山県砺波市高波1171番地シニアホームいなほの里", "url2": "https://www.kaigokensaku.mhlw.go.jp/16/index.php?action_kouhyou_detail_004_kani=true&JigyosyoCd=1660890391-00&ServiceCd=110&Type=search" }, "geometry": { "type": "Point", "coordinates": [ 136.935943918925318, 36.678693937477632 ] } },
{ "type": "Feature", "properties": { "内容": "砺波ふれあいの杜　ヘルパーステーション【訪問介護】富山県砺波市神島756-1", "url2": "https://www.kaigokensaku.mhlw.go.jp/16/index.php?action_kouhyou_detail_004_kani=true&JigyosyoCd=1670800307-00&ServiceCd=110&Type=search" }, "geometry": { "type": "Point", "coordinates": [ 136.939355400000068, 36.6358074 ] } },
{ "type": "Feature", "properties": { "内容": "砺波市ヘルパーステーション【訪問介護】富山県砺波市栄町７番３号", "url2": "https://www.kaigokensaku.mhlw.go.jp/16/index.php?action_kouhyou_detail_004_kani=true&JigyosyoCd=1670800166-00&ServiceCd=110&Type=search" }, "geometry": { "type": "Point", "coordinates": [ 136.9621224, 36.6474864 ] } },
{ "type": "Feature", "properties": { "内容": "北陸メディカルサービス株式会社となみ営業所【訪問介護】砺波市中央町4番1号", "url2": "https://www.kaigokensaku.mhlw.go.jp/16/index.php?action_kouhyou_detail_004_kani=true&JigyosyoCd=1670800018-00&ServiceCd=110&Type=search" }, "geometry": { "type": "Point", "coordinates": [ 136.954429307934561, 36.63825960171237 ] } },
{ "type": "Feature", "properties": { "内容": "訪問介護ステーションことほぎ【訪問介護】富山県砺波市杉木５丁目５番地サンライズマンション101", "url2": "https://www.kaigokensaku.mhlw.go.jp/16/index.php?action_kouhyou_detail_004_kani=true&JigyosyoCd=1670800638-00&ServiceCd=110&Type=search" }, "geometry": { "type": "Point", "coordinates": [ 136.956906099999969, 36.6437009 ] } },
{ "type": "Feature", "properties": { "内容": "ケアサポートたんぽぽ【訪問介護】富山県砺波市太郎丸1丁目4-26NTCとなみビル５階A", "url2": "https://www.kaigokensaku.mhlw.go.jp/16/index.php?action_kouhyou_detail_004_kani=true&JigyosyoCd=1670800802-00&ServiceCd=110&Type=search" }, "geometry": { "type": "Point", "coordinates": [ 136.9571199, 36.6326445 ] } },
{ "type": "Feature", "properties": { "内容": "JAいなば福祉支援センター【訪問介護】富山県小矢部市水島６８０番地", "url2": "https://www.kaigokensaku.mhlw.go.jp/16/index.php?action_kouhyou_detail_004_kani=true&JigyosyoCd=1670900032-00&ServiceCd=110&Type=search" }, "geometry": { "type": "Point", "coordinates": [ 136.90268130000004, 36.6382031 ] } },
{ "type": "Feature", "properties": { "内容": "小矢部市社協ホームヘルプセンター【訪問介護】富山県小矢部市鷲島１５番地小矢部市総合保健福祉センター", "url2": "https://www.kaigokensaku.mhlw.go.jp/16/index.php?action_kouhyou_detail_004_kani=true&JigyosyoCd=1670900131-00&ServiceCd=110&Type=search" }, "geometry": { "type": "Point", "coordinates": [ 136.876644199999987, 36.6594855 ] } },
{ "type": "Feature", "properties": { "内容": "ゆうゆうヘルパーステーション【訪問介護】島３８３－７", "url2": "https://www.kaigokensaku.mhlw.go.jp/16/index.php?action_kouhyou_detail_004_kani=true&JigyosyoCd=1670900669-00&ServiceCd=110&Type=search" }, "geometry": { "type": "Point", "coordinates": [ 136.876772, 36.664467 ] } },
{ "type": "Feature", "properties": { "内容": "JAなんと指定訪問介護事業所【訪問介護】富山県南砺市理休190番地の1", "url2": "https://www.kaigokensaku.mhlw.go.jp/16/index.php?action_kouhyou_detail_004_kani=true&JigyosyoCd=1672000047-00&ServiceCd=110&Type=search" }, "geometry": { "type": "Point", "coordinates": [ 136.910330899999963, 36.5148607 ] } },
{ "type": "Feature", "properties": { "内容": "訪問介護ステーション　愛ケア【訪問介護】富山県南砺市遊部653白寿の里ふくみつ", "url2": "https://www.kaigokensaku.mhlw.go.jp/16/index.php?action_kouhyou_detail_004_kani=true&JigyosyoCd=1670800687-00&ServiceCd=110&Type=search" }, "geometry": { "type": "Point", "coordinates": [ 136.886480335241714, 36.569708205364726 ] } },
{ "type": "Feature", "properties": { "内容": "ヘルパーステーションやどりぎ【訪問介護】富山県南砺市本江238番地8サービス付き高齢者向け住宅やどりぎ", "url2": "https://www.kaigokensaku.mhlw.go.jp/16/index.php?action_kouhyou_detail_004_kani=true&JigyosyoCd=1671000352-00&ServiceCd=110&Type=search" }, "geometry": { "type": "Point", "coordinates": [ 136.915711297254688, 36.612751182562569 ] } },
{ "type": "Feature", "properties": { "内容": "ニチイケアセンター福野【訪問介護】富山県南砺市やかた105", "url2": "https://www.kaigokensaku.mhlw.go.jp/16/index.php?action_kouhyou_detail_004_kani=true&JigyosyoCd=1672000443-00&ServiceCd=110&Type=search" }, "geometry": { "type": "Point", "coordinates": [ 136.9191068, 36.5904907 ] } },
{ "type": "Feature", "properties": { "内容": "ニチイケアセンター南砺【訪問介護】富山県南砺市八幡13-1", "url2": "https://www.kaigokensaku.mhlw.go.jp/16/index.php?action_kouhyou_detail_004_kani=true&JigyosyoCd=1672100243-00&ServiceCd=110&Type=search" }, "geometry": { "type": "Point", "coordinates": [ 136.872258481765584, 36.568736009924606 ] } },
{ "type": "Feature", "properties": { "内容": "旅川ホームヘルプサービス事業所【訪問介護】富山県南砺市院林92番地1", "url2": "https://www.kaigokensaku.mhlw.go.jp/16/index.php?action_kouhyou_detail_004_kani=true&JigyosyoCd=1672000138-00&ServiceCd=110&Type=search" }, "geometry": { "type": "Point", "coordinates": [ 136.908992500000068, 36.5909874 ] } },
{ "type": "Feature", "properties": { "内容": "ふく満ホームヘルプサービス事業所【訪問介護】富山県南砺市福光１０４５番地", "url2": "https://www.kaigokensaku.mhlw.go.jp/16/index.php?action_kouhyou_detail_004_kani=true&JigyosyoCd=1672100185-00&ServiceCd=110&Type=search" }, "geometry": { "type": "Point", "coordinates": [ 136.867542, 36.5548104 ] } },
{ "type": "Feature", "properties": { "内容": "南砺市井波ホームヘルプステーション【訪問介護】富山県南砺市井波９３８", "url2": "https://www.kaigokensaku.mhlw.go.jp/16/index.php?action_kouhyou_detail_004_kani=true&JigyosyoCd=1672000245-00&ServiceCd=110&Type=search" }, "geometry": { "type": "Point", "coordinates": [ 136.973431600000026, 36.5703135 ] } },
{ "type": "Feature", "properties": { "内容": "ＪＡ福光ふれあいセンタ－【訪問介護】富山県南砺市福光1192デイサービス日向ぼっこ", "url2": "https://www.kaigokensaku.mhlw.go.jp/16/index.php?action_kouhyou_detail_004_kani=true&JigyosyoCd=1672100086-00&ServiceCd=110&Type=search" }, "geometry": { "type": "Point", "coordinates": [ 136.87046533331295, 36.554247666801835 ] } },
{ "type": "Feature", "properties": { "内容": "となみケアサービス【訪問介護】富山県南砺市野口191-１", "url2": "https://www.kaigokensaku.mhlw.go.jp/16/index.php?action_kouhyou_detail_004_kani=true&JigyosyoCd=1672000039-00&ServiceCd=110&Type=search" }, "geometry": { "type": "Point", "coordinates": [ 136.8914167, 36.510151800000017 ] } },
{ "type": "Feature", "properties": { "内容": "訪問介護ステーションあいの風　新湊事業所【訪問介護】海王町21-61", "url2": "https://www.kaigokensaku.mhlw.go.jp/16/index.php?action_kouhyou_detail_004_kani=true&JigyosyoCd=1671100434-00&ServiceCd=110&Type=search" }, "geometry": { "type": "Point", "coordinates": [ 137.103419444566384, 36.779242579098302 ] } },
{ "type": "Feature", "properties": { "内容": "富山民間救急サービス【訪問介護】富山県射水市太閤山8-54", "url2": "https://www.kaigokensaku.mhlw.go.jp/16/index.php?action_kouhyou_detail_004_kani=true&JigyosyoCd=1671100855-00&ServiceCd=110&Type=search" }, "geometry": { "type": "Point", "coordinates": [ 137.092056899999989, 36.7074213 ] } },
{ "type": "Feature", "properties": { "内容": "射水市社協ヘルパーステーション【訪問介護】射水市三日曽根９-18", "url2": "https://www.kaigokensaku.mhlw.go.jp/16/index.php?action_kouhyou_detail_004_kani=true&JigyosyoCd=1670300233-00&ServiceCd=110&Type=search" }, "geometry": { "type": "Point", "coordinates": [ 137.079434099999958, 36.7791278 ] } },
{ "type": "Feature", "properties": { "内容": "オーロラ介護サービス【訪問介護】富山県射水市鷲塚197-2", "url2": "https://www.kaigokensaku.mhlw.go.jp/16/index.php?action_kouhyou_detail_004_kani=true&JigyosyoCd=1671100269-00&ServiceCd=110&Type=search" }, "geometry": { "type": "Point", "coordinates": [ 137.125097500000038, 36.7202664 ] } },
{ "type": "Feature", "properties": { "内容": "ヘルパーステーションやまぶき【訪問介護】富山県射水市大門６番地１５", "url2": "https://www.kaigokensaku.mhlw.go.jp/16/index.php?action_kouhyou_detail_004_kani=true&JigyosyoCd=1671100756-00&ServiceCd=110&Type=search" }, "geometry": { "type": "Point", "coordinates": [ 137.051065900000026, 36.73386 ] } },
{ "type": "Feature", "properties": { "内容": "訪問介護センターかどや【訪問介護】富山県射水市新片町５丁目２５番地", "url2": "https://www.kaigokensaku.mhlw.go.jp/16/index.php?action_kouhyou_detail_004_kani=true&JigyosyoCd=1671100426-00&ServiceCd=110&Type=search" }, "geometry": { "type": "Point", "coordinates": [ 137.116640822090147, 36.758764882162843 ] } },
{ "type": "Feature", "properties": { "内容": "ヘルパーセンター　こすか【訪問介護】富山県射水市戸破688", "url2": "https://www.kaigokensaku.mhlw.go.jp/16/index.php?action_kouhyou_detail_004_kani=true&JigyosyoCd=1671100541-00&ServiceCd=110&Type=search" }, "geometry": { "type": "Point", "coordinates": [ 137.1143571, 36.718933 ] } },
{ "type": "Feature", "properties": { "内容": "ニチイケアセンターいみず【訪問介護】富山県射水市二口３１５９番地２", "url2": "https://www.kaigokensaku.mhlw.go.jp/16/index.php?action_kouhyou_detail_004_kani=true&JigyosyoCd=1670300035-00&ServiceCd=110&Type=search" }, "geometry": { "type": "Point", "coordinates": [ 137.053057599999988, 36.7283831 ] } },
{ "type": "Feature", "properties": { "内容": "訪問ケアステーション　なでしこ【訪問介護】富山県射水市草岡町２丁目１０－４", "url2": "https://www.kaigokensaku.mhlw.go.jp/16/index.php?action_kouhyou_detail_004_kani=true&JigyosyoCd=1671100509-00&ServiceCd=110&Type=search" }, "geometry": { "type": "Point", "coordinates": [ 137.134756399999986, 36.7673074 ] } },
{ "type": "Feature", "properties": { "内容": "訪問介護事業所　白寿【訪問介護】富山県射水市橋下条５０８－４", "url2": "https://www.kaigokensaku.mhlw.go.jp/16/index.php?action_kouhyou_detail_004_kani=true&JigyosyoCd=1671100822-00&ServiceCd=110&Type=search" }, "geometry": { "type": "Point", "coordinates": [ 137.079846, 36.706552 ] } },
{ "type": "Feature", "properties": { "内容": "こかげ訪問介護ステーション【訪問介護】富山県射水市作道302ケアサークル作道", "url2": "https://www.kaigokensaku.mhlw.go.jp/16/index.php?action_kouhyou_detail_004_kani=true&JigyosyoCd=1671100400-00&ServiceCd=110&Type=search" }, "geometry": { "type": "Point", "coordinates": [ 137.086192399999959, 36.7633546 ] } },
{ "type": "Feature", "properties": { "内容": "ニチイケアセンター新湊【訪問介護】富山県射水市朴木2-2アーミデール新湊　1階　105号室", "url2": "https://www.kaigokensaku.mhlw.go.jp/16/index.php?action_kouhyou_detail_004_kani=true&JigyosyoCd=1671100798-00&ServiceCd=110&Type=search" }, "geometry": { "type": "Point", "coordinates": [ 137.0809794, 36.7612086 ] } },
{ "type": "Feature", "properties": { "内容": "よろこび射水緑ケアセンター【訪問介護】富山県射水市緑町4番12号", "url2": "https://www.kaigokensaku.mhlw.go.jp/16/index.php?action_kouhyou_detail_004_kani=true&JigyosyoCd=1671100202-00&ServiceCd=110&Type=search" }, "geometry": { "type": "Point", "coordinates": [ 137.082661799999983, 36.7757282 ] } },
{ "type": "Feature", "properties": { "内容": "大江苑ヘルパーステーション【訪問介護】富山県射水市大江333番地の1", "url2": "https://www.kaigokensaku.mhlw.go.jp/16/index.php?action_kouhyou_detail_004_kani=true&JigyosyoCd=1671900189-00&ServiceCd=110&Type=search" }, "geometry": { "type": "Point", "coordinates": [ 137.1151734, 36.7283541 ] } },
{ "type": "Feature", "properties": { "内容": "射水市大門在宅介護支援センター【訪問介護】富山県射水市中村20番地", "url2": "https://www.kaigokensaku.mhlw.go.jp/16/index.php?action_kouhyou_detail_004_kani=true&JigyosyoCd=1671900015-00&ServiceCd=110&Type=search" }, "geometry": { "type": "Point", "coordinates": [ 137.056160200000022, 36.7229811 ] } },
{ "type": "Feature", "properties": { "内容": "ヘルパーステーションほのぼの小杉【訪問介護】富山県射水市三ヶ４０３３", "url2": "https://www.kaigokensaku.mhlw.go.jp/16/index.php?action_kouhyou_detail_004_kani=true&JigyosyoCd=1671900270-00&ServiceCd=110&Type=search" }, "geometry": { "type": "Point", "coordinates": [ 137.0922263, 36.7219014 ] } },
{ "type": "Feature", "properties": { "内容": "ヘルパーステーション　愛のて【訪問介護】富山県射水市かもめ台80", "url2": "https://www.kaigokensaku.mhlw.go.jp/16/index.php?action_kouhyou_detail_004_kani=true&JigyosyoCd=1671100640-00&ServiceCd=110&Type=search" }, "geometry": { "type": "Point", "coordinates": [ 137.175210800000059, 36.7576629 ] } },
{ "type": "Feature", "properties": { "内容": "舟橋村ホームヘルパーステーション【訪問介護】富山県中新川郡舟橋村仏生寺５５番地舟橋村役場庁舎２階", "url2": "https://www.kaigokensaku.mhlw.go.jp/16/index.php?action_kouhyou_detail_004_kani=true&JigyosyoCd=1671600920-00&ServiceCd=110&Type=search" }, "geometry": { "type": "Point", "coordinates": [ 137.307368600000018, 36.7035781 ] } },
{ "type": "Feature", "properties": { "内容": "JAアルプス生活福祉センター【訪問介護】富山県中新川郡上市町若杉3-3", "url2": "https://www.kaigokensaku.mhlw.go.jp/16/index.php?action_kouhyou_detail_004_kani=true&JigyosyoCd=1671600086-00&ServiceCd=110&Type=search" }, "geometry": { "type": "Point", "coordinates": [ 137.3577639, 36.7043993 ] } },
{ "type": "Feature", "properties": { "内容": "訪問介護ステーションつるぎ【訪問介護】富山県中新川郡上市町森尻７４６番地", "url2": "https://www.kaigokensaku.mhlw.go.jp/16/index.php?action_kouhyou_detail_004_kani=true&JigyosyoCd=1671600839-00&ServiceCd=110&Type=search" }, "geometry": { "type": "Point", "coordinates": [ 137.353882760018905, 36.717906799715642 ] } },
{ "type": "Feature", "properties": { "内容": "ハッピーとやま上市ヘルパーセンター【訪問介護】富山県中新川郡上市町稗田33-1", "url2": "https://www.kaigokensaku.mhlw.go.jp/16/index.php?action_kouhyou_detail_004_kani=true&JigyosyoCd=1671600383-00&ServiceCd=110&Type=search" }, "geometry": { "type": "Point", "coordinates": [ 137.360191799999939, 36.695192 ] } },
{ "type": "Feature", "properties": { "内容": "ニチイケアセンター上市【訪問介護】富山県中新川郡上市町神田20-5", "url2": "https://www.kaigokensaku.mhlw.go.jp/16/index.php?action_kouhyou_detail_004_kani=true&JigyosyoCd=1671600177-00&ServiceCd=110&Type=search" }, "geometry": { "type": "Point", "coordinates": [ 137.340799, 36.6984134 ] } },
{ "type": "Feature", "properties": { "内容": "上市町ホームヘルパーステーション【訪問介護】富山県中新川郡上市町湯上野１１７６番", "url2": "https://www.kaigokensaku.mhlw.go.jp/16/index.php?action_kouhyou_detail_004_kani=true&JigyosyoCd=1671600128-00&ServiceCd=110&Type=search" }, "geometry": { "type": "Point", "coordinates": [ 137.3615, 36.6964474 ] } },
{ "type": "Feature", "properties": { "内容": "訪問介護ステーション　アンサンブルたてやま【訪問介護】富山県中新川郡立山町大石原226番地", "url2": "https://www.kaigokensaku.mhlw.go.jp/16/index.php?action_kouhyou_detail_004_kani=true&JigyosyoCd=1671600896-00&ServiceCd=110&Type=search" }, "geometry": { "type": "Point", "coordinates": [ 137.2954595, 36.6676018 ] } },
{ "type": "Feature", "properties": { "内容": "ヘルパーステーションまんてん【訪問介護】中新川郡立山町米沢21", "url2": "https://www.kaigokensaku.mhlw.go.jp/16/index.php?action_kouhyou_detail_004_kani=true&JigyosyoCd=1671600664-00&ServiceCd=110&Type=search" }, "geometry": { "type": "Point", "coordinates": [ 137.317316821427028, 36.671402956896401 ] } },
{ "type": "Feature", "properties": { "内容": "やまの湯ヘルパーステーション【訪問介護】富山県中新川郡立山町横江7-1サービス付き高齢者向け住宅「グリーンライフとんがりやま」内", "url2": "https://www.kaigokensaku.mhlw.go.jp/16/index.php?action_kouhyou_detail_004_kani=true&JigyosyoCd=1671600805-00&ServiceCd=110&Type=search" }, "geometry": { "type": "Point", "coordinates": [ 137.329624400000057, 36.5911323 ] } },
{ "type": "Feature", "properties": { "内容": "ニチイケアセンター立山【訪問介護】富山県中新川郡立山町五百石5-1　松林ビル1階", "url2": "https://www.kaigokensaku.mhlw.go.jp/16/index.php?action_kouhyou_detail_004_kani=true&JigyosyoCd=1671600938-00&ServiceCd=110&Type=search" }, "geometry": { "type": "Point", "coordinates": [ 137.3165488, 36.6641305 ] } },
{ "type": "Feature", "properties": { "内容": "ヘルパーステーション花のいえ【訪問介護】富山県中新川郡上市町正印684", "url2": "https://www.kaigokensaku.mhlw.go.jp/16/index.php?action_kouhyou_detail_004_kani=true&JigyosyoCd=1671600904-00&ServiceCd=110&Type=search" }, "geometry": { "type": "Point", "coordinates": [ 137.340710100000024, 36.6990605 ] } },
{ "type": "Feature", "properties": { "内容": "立山町社協ホームヘルパーステーション【訪問介護】富山県中新川郡立山町前沢1169番地元気交流ステーション3階", "url2": "https://www.kaigokensaku.mhlw.go.jp/16/index.php?action_kouhyou_detail_004_kani=true&JigyosyoCd=1671600151-00&ServiceCd=110&Type=search" }, "geometry": { "type": "Point", "coordinates": [ 137.314558447650569, 36.66535647836244 ] } },
{ "type": "Feature", "properties": { "内容": "ララ地域ケアサービス【訪問介護】富山県中新川郡立山町五郎丸157-1", "url2": "https://www.kaigokensaku.mhlw.go.jp/16/index.php?action_kouhyou_detail_004_kani=true&JigyosyoCd=1671601043-00&ServiceCd=110&Type=search" }, "geometry": { "type": "Point", "coordinates": [ 137.3016547, 36.6846393 ] } },
{ "type": "Feature", "properties": { "内容": "訪問介護ステーションささや木【訪問介護】富山県下新川郡入善町青島401番地1サービス付き高齢者向け住宅　ささや木", "url2": "https://www.kaigokensaku.mhlw.go.jp/16/index.php?action_kouhyou_detail_004_kani=true&JigyosyoCd=1671700597-00&ServiceCd=110&Type=search" }, "geometry": { "type": "Point", "coordinates": [ 137.509751627508535, 36.927289341544174 ] } },
{ "type": "Feature", "properties": { "内容": "特定非営利活動法人パートナー【訪問介護】富山県下新川郡入善町上野1672", "url2": "https://www.kaigokensaku.mhlw.go.jp/16/index.php?action_kouhyou_detail_004_kani=true&JigyosyoCd=1671700274-00&ServiceCd=110&Type=search" }, "geometry": { "type": "Point", "coordinates": [ 137.495868299999984, 36.9253452 ] } },
{ "type": "Feature", "properties": { "内容": "訪問介護サービス　笑楽【訪問介護】富山県下新川郡入善町中沢110番地", "url2": "https://www.kaigokensaku.mhlw.go.jp/16/index.php?action_kouhyou_detail_004_kani=true&JigyosyoCd=1671700613-00&ServiceCd=110&Type=search" }, "geometry": { "type": "Point", "coordinates": [ 137.541106384933528, 36.904566206387202 ] } },
{ "type": "Feature", "properties": { "内容": "入善町社会福祉協議会　訪問介護　ほほえみ【訪問介護】富山県下新川郡入善町上野2793-1入善町健康交流プラザ　サンウェル　２F", "url2": "https://www.kaigokensaku.mhlw.go.jp/16/index.php?action_kouhyou_detail_004_kani=true&JigyosyoCd=1671700084-00&ServiceCd=110&Type=search" }, "geometry": { "type": "Point", "coordinates": [ 137.501811800000041, 36.9235153 ] } },
{ "type": "Feature", "properties": { "内容": "ヘルパーステーションにゅうぜんの里【訪問介護】富山県下新川郡入善町入膳343番地にゅぜんの里", "url2": "https://www.kaigokensaku.mhlw.go.jp/16/index.php?action_kouhyou_detail_004_kani=true&JigyosyoCd=1671700621-00&ServiceCd=110&Type=search" }, "geometry": { "type": "Point", "coordinates": [ 137.507950688522328, 36.923796655249291 ] } },
{ "type": "Feature", "properties": { "内容": "JAみな穂ケアセンターはぴねす【訪問介護】富山県下新川郡入善町上野７９８の１", "url2": "https://www.kaigokensaku.mhlw.go.jp/16/index.php?action_kouhyou_detail_004_kani=true&JigyosyoCd=1671700019-00&ServiceCd=110&Type=search" }, "geometry": { "type": "Point", "coordinates": [ 137.49285169999996, 36.9332659 ] } },
{ "type": "Feature", "properties": { "内容": "朝日町在宅介護支援センター【訪問介護】富山県下新川郡朝日町泊477番地あさひ総合病院６階", "url2": "https://www.kaigokensaku.mhlw.go.jp/16/index.php?action_kouhyou_detail_004_kani=true&JigyosyoCd=1671700209-00&ServiceCd=110&Type=search" }, "geometry": { "type": "Point", "coordinates": [ 137.562130324206208, 36.961056434437431 ] } },
{ "type": "Feature", "properties": { "内容": "ニチイケアセンターとまり【訪問介護】富山県下新川郡朝日町平柳字上折戸301-4セブンホーム2-2", "url2": "https://www.kaigokensaku.mhlw.go.jp/16/index.php?action_kouhyou_detail_004_kani=true&JigyosyoCd=1671700654-00&ServiceCd=110&Type=search" }, "geometry": { "type": "Point", "coordinates": [ 137.557735391609981, 36.947023500287344 ] } }
]
}
