{
"type": "FeatureCollection",
"name": "geo_16_1",
"crs": { "type": "name", "properties": { "name": "urn:ogc:def:crs:OGC:1.3:CRS84" } },
"features": [
{ "type": "Feature", "properties": { "ID": 1611160110023, "正式名称": "富山県立中央病院", "機関区分": 1, "都道府県コード": 16, "市区町村コード": 201, "所在地": "富山県富山市西長江２－２－７８", "緯度": 36.692238, "経度": 137.237593, "url": "https://www.iryou.teikyouseido.mhlw.go.jp/znk-web/juminkanja/S2430/initialize?prefCd=16&kikanCd=1160110023&kikanKbn=1", "url2": "http://www.tch.pref.toyama.jp/", "内容": "富山県立中央病院【1:病院】【診療科目:内科_感染症内科_血液内科_代謝内科_内分泌内科_代謝・内分泌内科_脳神経内科_呼吸器内科_循環器内科_消化器内科_腎臓内科_腫瘍内科_緩和ケア内科_外科_脳神経外科_呼吸器外科_心臓血管外科_乳腺外科_整形外科_形成外科_小児科】【一般病床数:645療養病床数:0精神病床数:50感染症病床数:3合計病床数:706】富山県富山市西長江２－２－７８" }, "geometry": { "type": "Point", "coordinates": [ 137.237593, 36.692238 ] } },
{ "type": "Feature", "properties": { "ID": 1611160112607, "正式名称": "富山医療生活協同組合富山協立病院", "機関区分": 1, "都道府県コード": 16, "市区町村コード": 201, "所在地": "富山県富山市豊田町１－１－８", "緯度": 36.724206, "経度": 137.232953, "url": "https://www.iryou.teikyouseido.mhlw.go.jp/znk-web/juminkanja/S2430/initialize?prefCd=16&kikanCd=1160112607&kikanKbn=1", "url2": "https://kyouri2.toyama-hcoop.com/", "内容": "富山医療生活協同組合富山協立病院【1:病院】【診療科目:0】【一般病床数:106療養病床数:58精神病床数:0感染症病床数:0合計病床数:164】富山県富山市豊田町１－１－８" }, "geometry": { "type": "Point", "coordinates": [ 137.232953, 36.724206 ] } },
{ "type": "Feature", "properties": { "ID": 1611160112938, "正式名称": "医療法人社団　佐伯メディカルグループ　佐伯病院", "機関区分": 1, "都道府県コード": 16, "市区町村コード": 201, "所在地": "富山県富山市中川原４３－１", "緯度": 36.676156, "経度": 137.244482, "url": "https://www.iryou.teikyouseido.mhlw.go.jp/znk-web/juminkanja/S2430/initialize?prefCd=16&kikanCd=1160112938&kikanKbn=1", "url2": "https://saeki.hospital.com", "内容": "医療法人社団　佐伯メディカルグループ　佐伯病院【1:病院】【診療科目:0】【一般病床数:0療養病床数:41精神病床数:0感染症病床数:0合計病床数:41】富山県富山市中川原４３－１" }, "geometry": { "type": "Point", "coordinates": [ 137.244482, 36.676156 ] } },
{ "type": "Feature", "properties": { "ID": 1611160113365, "正式名称": "横田記念病院", "機関区分": 1, "都道府県コード": 16, "市区町村コード": 201, "所在地": "富山県富山市中野新町１丁目１番１１号", "緯度": 36.683849, "経度": 137.21504, "url": "https://www.iryou.teikyouseido.mhlw.go.jp/znk-web/juminkanja/S2430/initialize?prefCd=16&kikanCd=1160113365&kikanKbn=1", "url2": "https://www.yokotahp.or.jp/", "内容": "横田記念病院【1:病院】【診療科目:0】【一般病床数:34療養病床数:34精神病床数:0感染症病床数:0合計病床数:68】富山県富山市中野新町１丁目１番１１号" }, "geometry": { "type": "Point", "coordinates": [ 137.21504, 36.683849 ] } },
{ "type": "Feature", "properties": { "ID": 1611160113514, "正式名称": "医療法人社団城南会　富山城南病院", "機関区分": 1, "都道府県コード": 16, "市区町村コード": 201, "所在地": "富山県富山市太郎丸本町１丁目８番１", "緯度": 36.677951, "経度": 137.212206, "url": "https://www.iryou.teikyouseido.mhlw.go.jp/znk-web/juminkanja/S2430/initialize?prefCd=16&kikanCd=1160113514&kikanKbn=1", "url2": "https://jonankai.or.jp/tjhp/", "内容": "医療法人社団城南会　富山城南病院【1:病院】【診療科目:0】【一般病床数:0療養病床数:166精神病床数:0感染症病床数:0合計病床数:166】富山県富山市太郎丸本町１丁目８番１" }, "geometry": { "type": "Point", "coordinates": [ 137.212206, 36.677951 ] } },
{ "type": "Feature", "properties": { "ID": 1611160113647, "正式名称": "富山市立富山市民病院", "機関区分": 1, "都道府県コード": 16, "市区町村コード": 201, "所在地": "富山県富山市今泉北部町２－１", "緯度": 36.672628, "経度": 137.212485, "url": "https://www.iryou.teikyouseido.mhlw.go.jp/znk-web/juminkanja/S2430/initialize?prefCd=16&kikanCd=1160113647&kikanKbn=1", "url2": "https://www.tch.toyama.toyama.jp", "内容": "富山市立富山市民病院【1:病院】【診療科目:0】【一般病床数:452療養病床数:0精神病床数:50感染症病床数:6合計病床数:508】富山県富山市今泉北部町２－１" }, "geometry": { "type": "Point", "coordinates": [ 137.212485, 36.672628 ] } },
{ "type": "Feature", "properties": { "ID": 1611160113738, "正式名称": "医療法人　北聖病院", "機関区分": 1, "都道府県コード": 16, "市区町村コード": 201, "所在地": "富山県富山市下冨居２－１－５", "緯度": 36.719289, "経度": 137.235066, "url": "https://www.iryou.teikyouseido.mhlw.go.jp/znk-web/juminkanja/S2430/initialize?prefCd=16&kikanCd=1160113738&kikanKbn=1", "url2": "https://www.hokusei-hospi.jp/", "内容": "医療法人　北聖病院【1:病院】【診療科目:0】【一般病床数:0療養病床数:88精神病床数:0感染症病床数:0合計病床数:88】富山県富山市下冨居２－１－５" }, "geometry": { "type": "Point", "coordinates": [ 137.235066, 36.719289 ] } },
{ "type": "Feature", "properties": { "ID": 1611160113811, "正式名称": "富山県リハビリテーション病院・こども支援センター", "機関区分": 1, "都道府県コード": 16, "市区町村コード": 201, "所在地": "富山県富山市下飯野３６番", "緯度": 36.74426, "経度": 137.26606, "url": "https://www.iryou.teikyouseido.mhlw.go.jp/znk-web/juminkanja/S2430/initialize?prefCd=16&kikanCd=1160113811&kikanKbn=1", "url2": "https://www.toyama-reha.or.jp/", "内容": "富山県リハビリテーション病院・こども支援センター【1:病院】【診療科目:0】【一般病床数:232療養病床数:0精神病床数:0感染症病床数:0合計病床数:232】富山県富山市下飯野３６番" }, "geometry": { "type": "Point", "coordinates": [ 137.26606, 36.74426 ] } },
{ "type": "Feature", "properties": { "ID": 1611160114033, "正式名称": "誠友病院", "機関区分": 1, "都道府県コード": 16, "市区町村コード": 201, "所在地": "富山県富山市上千俵町１０３番地", "緯度": 36.626578, "経度": 137.243984, "url": "https://www.iryou.teikyouseido.mhlw.go.jp/znk-web/juminkanja/S2430/initialize?prefCd=16&kikanCd=1160114033&kikanKbn=1", "url2": null, "内容": "誠友病院【1:病院】【診療科目:0】【一般病床数:0療養病床数:52精神病床数:0感染症病床数:0合計病床数:52】富山県富山市上千俵町１０３番地" }, "geometry": { "type": "Point", "coordinates": [ 137.243984, 36.626578 ] } },
{ "type": "Feature", "properties": { "ID": 1611160114132, "正式名称": "医療法人社団長谷川病院", "機関区分": 1, "都道府県コード": 16, "市区町村コード": 201, "所在地": "富山県富山市星井町２－７－４０", "緯度": 36.684182, "経度": 137.212179, "url": "https://www.iryou.teikyouseido.mhlw.go.jp/znk-web/juminkanja/S2430/initialize?prefCd=16&kikanCd=1160114132&kikanKbn=1", "url2": "http://www.h-uro.com", "内容": "医療法人社団長谷川病院【1:病院】【診療科目:0】【一般病床数:36療養病床数:0精神病床数:0感染症病床数:0合計病床数:36】富山県富山市星井町２－７－４０" }, "geometry": { "type": "Point", "coordinates": [ 137.212179, 36.684182 ] } },
{ "type": "Feature", "properties": { "ID": 1611160114314, "正式名称": "いま泉病院", "機関区分": 1, "都道府県コード": 16, "市区町村コード": 201, "所在地": "富山県富山市今泉２２０", "緯度": 36.668906, "経度": 137.212541, "url": "https://www.iryou.teikyouseido.mhlw.go.jp/znk-web/juminkanja/S2430/initialize?prefCd=16&kikanCd=1160114314&kikanKbn=1", "url2": "https://izumikai.mutsumi-gr.jp/", "内容": "いま泉病院【1:病院】【診療科目:0】【一般病床数:0療養病床数:109精神病床数:0感染症病床数:0合計病床数:109】富山県富山市今泉２２０" }, "geometry": { "type": "Point", "coordinates": [ 137.212541, 36.668906 ] } },
{ "type": "Feature", "properties": { "ID": 1611160114447, "正式名称": "不二越病院", "機関区分": 1, "都道府県コード": 16, "市区町村コード": 201, "所在地": "富山県富山市東石金町１１－６５", "緯度": 36.684377, "経度": 137.237121, "url": "https://www.iryou.teikyouseido.mhlw.go.jp/znk-web/juminkanja/S2430/initialize?prefCd=16&kikanCd=1160114447&kikanKbn=1", "url2": "https://www.nachi-fujikoshi-hospital.jp/", "内容": "不二越病院【1:病院】【診療科目:0】【一般病床数:56療養病床数:0精神病床数:0感染症病床数:0合計病床数:56】富山県富山市東石金町１１－６５" }, "geometry": { "type": "Point", "coordinates": [ 137.237121, 36.684377 ] } },
{ "type": "Feature", "properties": { "ID": 1611160114637, "正式名称": "成和病院", "機関区分": 1, "都道府県コード": 16, "市区町村コード": 201, "所在地": "富山県富山市針原中町３３６", "緯度": 36.724485, "経度": 137.265117, "url": "https://www.iryou.teikyouseido.mhlw.go.jp/znk-web/juminkanja/S2430/initialize?prefCd=16&kikanCd=1160114637&kikanKbn=1", "url2": "http://seikeikaitoyama.com/", "内容": "成和病院【1:病院】【診療科目:0】【一般病床数:0療養病床数:40精神病床数:0感染症病床数:0合計病床数:40】富山県富山市針原中町３３６" }, "geometry": { "type": "Point", "coordinates": [ 137.265117, 36.724485 ] } },
{ "type": "Feature", "properties": { "ID": 1611160114678, "正式名称": "呉陽病院", "機関区分": 1, "都道府県コード": 16, "市区町村コード": 201, "所在地": "富山県富山市野口南部１２６", "緯度": 36.712928, "経度": 137.151766, "url": "https://www.iryou.teikyouseido.mhlw.go.jp/znk-web/juminkanja/S2430/initialize?prefCd=16&kikanCd=1160114678&kikanKbn=1", "url2": "http://www.goyo-hospital.jp/", "内容": "呉陽病院【1:病院】【診療科目:0】【一般病床数:0療養病床数:0精神病床数:118感染症病床数:0合計病床数:118】富山県富山市野口南部１２６" }, "geometry": { "type": "Point", "coordinates": [ 137.151766, 36.712928 ] } },
{ "type": "Feature", "properties": { "ID": 1611160114686, "正式名称": "三輪病院", "機関区分": 1, "都道府県コード": 16, "市区町村コード": 201, "所在地": "富山県富山市小中２９１", "緯度": 36.639132, "経度": 137.21257, "url": "https://www.iryou.teikyouseido.mhlw.go.jp/znk-web/juminkanja/S2430/initialize?prefCd=16&kikanCd=1160114686&kikanKbn=1", "url2": "http://www.sanikai.or.jp", "内容": "三輪病院【1:病院】【診療科目:0】【一般病床数:0療養病床数:91精神病床数:90感染症病床数:0合計病床数:181】富山県富山市小中２９１" }, "geometry": { "type": "Point", "coordinates": [ 137.21257, 36.639132 ] } },
{ "type": "Feature", "properties": { "ID": 1611160114942, "正式名称": "アルペンリハビリテーション病院", "機関区分": 1, "都道府県コード": 16, "市区町村コード": 201, "所在地": "富山県富山市楠木３００番地", "緯度": 36.734706, "経度": 137.258423, "url": "https://www.iryou.teikyouseido.mhlw.go.jp/znk-web/juminkanja/S2430/initialize?prefCd=16&kikanCd=1160114942&kikanKbn=1", "url2": "http://www.alpen-reha.jp", "内容": "アルペンリハビリテーション病院【1:病院】【診療科目:0】【一般病床数:0療養病床数:60精神病床数:0感染症病床数:0合計病床数:60】富山県富山市楠木３００番地" }, "geometry": { "type": "Point", "coordinates": [ 137.258423, 36.734706 ] } },
{ "type": "Feature", "properties": { "ID": 1611160115311, "正式名称": "藤の木病院", "機関区分": 1, "都道府県コード": 16, "市区町村コード": 201, "所在地": "富山県富山市開２６１", "緯度": 36.679851, "経度": 137.26373, "url": "https://www.iryou.teikyouseido.mhlw.go.jp/znk-web/juminkanja/S2430/initialize?prefCd=16&kikanCd=1160115311&kikanKbn=1", "url2": null, "内容": "藤の木病院【1:病院】【診療科目:0】【一般病床数:0療養病床数:0精神病床数:99感染症病床数:0合計病床数:99】富山県富山市開２６１" }, "geometry": { "type": "Point", "coordinates": [ 137.26373, 36.679851 ] } },
{ "type": "Feature", "properties": { "ID": 1611160115410, "正式名称": "流杉病院", "機関区分": 1, "都道府県コード": 16, "市区町村コード": 201, "所在地": "富山県富山市流杉１２０", "緯度": 36.658214, "経度": 137.275508, "url": "https://www.iryou.teikyouseido.mhlw.go.jp/znk-web/juminkanja/S2430/initialize?prefCd=16&kikanCd=1160115410&kikanKbn=1", "url2": "http://www.nagaresugi.com/", "内容": "流杉病院【1:病院】【診療科目:0】【一般病床数:0療養病床数:131精神病床数:0感染症病床数:0合計病床数:131】富山県富山市流杉１２０" }, "geometry": { "type": "Point", "coordinates": [ 137.275508, 36.658214 ] } },
{ "type": "Feature", "properties": { "ID": 1611160115568, "正式名称": "政岡内科病院", "機関区分": 1, "都道府県コード": 16, "市区町村コード": 201, "所在地": "富山県富山市下新町３１－１", "緯度": 36.70968, "経度": 137.216344, "url": "https://www.iryou.teikyouseido.mhlw.go.jp/znk-web/juminkanja/S2430/initialize?prefCd=16&kikanCd=1160115568&kikanKbn=1", "url2": "https://masaoka-hp.jp/", "内容": "政岡内科病院【1:病院】【診療科目:0】【一般病床数:0療養病床数:50精神病床数:0感染症病床数:0合計病床数:50】富山県富山市下新町３１－１" }, "geometry": { "type": "Point", "coordinates": [ 137.216344, 36.70968 ] } },
{ "type": "Feature", "properties": { "ID": 1611160115600, "正式名称": "富山赤十字病院", "機関区分": 1, "都道府県コード": 16, "市区町村コード": 201, "所在地": "富山県富山市牛島本町２－１－５８", "緯度": 36.708374, "経度": 137.208956, "url": "https://www.iryou.teikyouseido.mhlw.go.jp/znk-web/juminkanja/S2430/initialize?prefCd=16&kikanCd=1160115600&kikanKbn=1", "url2": "http://www.toyama-med.jrc.or.jp", "内容": "富山赤十字病院【1:病院】【診療科目:0】【一般病床数:401療養病床数:0精神病床数:0感染症病床数:0合計病床数:401】富山県富山市牛島本町２－１－５８" }, "geometry": { "type": "Point", "coordinates": [ 137.208956, 36.708374 ] } },
{ "type": "Feature", "properties": { "ID": 1611160115667, "正式名称": "富山県済生会富山病院", "機関区分": 1, "都道府県コード": 16, "市区町村コード": 201, "所在地": "富山県富山市楠木３３番地１", "緯度": 36.7379, "経度": 137.2552, "url": "https://www.iryou.teikyouseido.mhlw.go.jp/znk-web/juminkanja/S2430/initialize?prefCd=16&kikanCd=1160115667&kikanKbn=1", "url2": "http://www.saiseikai-toyama.jp/", "内容": "富山県済生会富山病院【1:病院】【診療科目:0】【一般病床数:250療養病床数:0精神病床数:0感染症病床数:0合計病床数:250】富山県富山市楠木３３番地１" }, "geometry": { "type": "Point", "coordinates": [ 137.2552, 36.7379 ] } },
{ "type": "Feature", "properties": { "ID": 1611160115683, "正式名称": "常願寺病院", "機関区分": 1, "都道府県コード": 16, "市区町村コード": 201, "所在地": "富山県富山市水橋肘崎４３８番地", "緯度": 36.729512, "経度": 137.293864, "url": "https://www.iryou.teikyouseido.mhlw.go.jp/znk-web/juminkanja/S2430/initialize?prefCd=16&kikanCd=1160115683&kikanKbn=1", "url2": "http://www.tokiwa-toyama.jp", "内容": "常願寺病院【1:病院】【診療科目:0】【一般病床数:0療養病床数:0精神病床数:120感染症病床数:0合計病床数:120】富山県富山市水橋肘崎４３８番地" }, "geometry": { "type": "Point", "coordinates": [ 137.293864, 36.729512 ] } },
{ "type": "Feature", "properties": { "ID": 1611160115790, "正式名称": "医療法人社団　和敬会　谷野呉山病院", "機関区分": 1, "都道府県コード": 16, "市区町村コード": 201, "所在地": "富山県富山市北代５２００", "緯度": 36.714012, "経度": 137.184152, "url": "https://www.iryou.teikyouseido.mhlw.go.jp/znk-web/juminkanja/S2430/initialize?prefCd=16&kikanCd=1160115790&kikanKbn=1", "url2": "https://wakeikai.com/gozan/", "内容": "医療法人社団　和敬会　谷野呉山病院【1:病院】【診療科目:0】【一般病床数:0療養病床数:0精神病床数:292感染症病床数:0合計病床数:292】富山県富山市北代５２００" }, "geometry": { "type": "Point", "coordinates": [ 137.184152, 36.714012 ] } },
{ "type": "Feature", "properties": { "ID": 1611160116020, "正式名称": "医療法人社団基伸会栗山病院", "機関区分": 1, "都道府県コード": 16, "市区町村コード": 201, "所在地": "富山県富山市開発１３３番地", "緯度": 36.631439, "経度": 137.246234, "url": "https://www.iryou.teikyouseido.mhlw.go.jp/znk-web/juminkanja/S2430/initialize?prefCd=16&kikanCd=1160116020&kikanKbn=1", "url2": "http://www.kishin-kai.com", "内容": "医療法人社団基伸会栗山病院【1:病院】【診療科目:0】【一般病床数:0療養病床数:43精神病床数:0感染症病床数:0合計病床数:43】富山県富山市開発１３３番地" }, "geometry": { "type": "Point", "coordinates": [ 137.246234, 36.631439 ] } },
{ "type": "Feature", "properties": { "ID": 1611160116137, "正式名称": "南富山　中川病院", "機関区分": 1, "都道府県コード": 16, "市区町村コード": 201, "所在地": "富山県富山市大町１４６", "緯度": 36.663296, "経度": 137.228456, "url": "https://www.iryou.teikyouseido.mhlw.go.jp/znk-web/juminkanja/S2430/initialize?prefCd=16&kikanCd=1160116137&kikanKbn=1", "url2": "http://www.byouinnet.ne.jp/m-nakagawa/", "内容": "南富山　中川病院【1:病院】【診療科目:0】【一般病床数:0療養病床数:0精神病床数:162感染症病床数:0合計病床数:162】富山県富山市大町１４６" }, "geometry": { "type": "Point", "coordinates": [ 137.228456, 36.663296 ] } },
{ "type": "Feature", "properties": { "ID": 1611160116210, "正式名称": "清幸会　島田病院", "機関区分": 1, "都道府県コード": 16, "市区町村コード": 201, "所在地": "富山県富山市下新北町６－５２", "緯度": 36.716679, "経度": 137.219566, "url": "https://www.iryou.teikyouseido.mhlw.go.jp/znk-web/juminkanja/S2430/initialize?prefCd=16&kikanCd=1160116210&kikanKbn=1", "url2": "http://www.seikoukai-shimada.jp/", "内容": "清幸会　島田病院【1:病院】【診療科目:0】【一般病床数:0療養病床数:90精神病床数:0感染症病床数:0合計病床数:90】富山県富山市下新北町６－５２" }, "geometry": { "type": "Point", "coordinates": [ 137.219566, 36.716679 ] } },
{ "type": "Feature", "properties": { "ID": 1611160116244, "正式名称": "医療法人社団　重仁会　メンタルケアホスピタルみらい", "機関区分": 1, "都道府県コード": 16, "市区町村コード": 201, "所在地": "富山県富山市大町３－４", "緯度": 36.66389, "経度": 137.225758, "url": "https://www.iryou.teikyouseido.mhlw.go.jp/znk-web/juminkanja/S2430/initialize?prefCd=16&kikanCd=1160116244&kikanKbn=1", "url2": "https://www.jyujin.jp", "内容": "医療法人社団　重仁会　メンタルケアホスピタルみらい【1:病院】【診療科目:0】【一般病床数:0療養病床数:0精神病床数:139感染症病床数:0合計病床数:139】富山県富山市大町３－４" }, "geometry": { "type": "Point", "coordinates": [ 137.225758, 36.66389 ] } },
{ "type": "Feature", "properties": { "ID": 1611160210377, "正式名称": "富山県厚生農業協同組合連合会高岡病院", "機関区分": 1, "都道府県コード": 16, "市区町村コード": 202, "所在地": "富山県高岡市永楽町５番１０号", "緯度": 36.743617, "経度": 136.995611, "url": "https://www.iryou.teikyouseido.mhlw.go.jp/znk-web/juminkanja/S2430/initialize?prefCd=16&kikanCd=1160210377&kikanKbn=1", "url2": "http://www.kouseiren-ta.or.jp/", "内容": "富山県厚生農業協同組合連合会高岡病院【1:病院】【診療科目:0】【一般病床数:483療養病床数:0精神病床数:0感染症病床数:0合計病床数:497】富山県高岡市永楽町５番１０号" }, "geometry": { "type": "Point", "coordinates": [ 136.995611, 36.743617 ] } },
{ "type": "Feature", "properties": { "ID": 1611160210914, "正式名称": "高岡市民病院", "機関区分": 1, "都道府県コード": 16, "市区町村コード": 202, "所在地": "富山県高岡市宝町４番１号", "緯度": 36.756172, "経度": 137.028635, "url": "https://www.iryou.teikyouseido.mhlw.go.jp/znk-web/juminkanja/S2430/initialize?prefCd=16&kikanCd=1160210914&kikanKbn=1", "url2": "https://www.med-takaoka.jp/", "内容": "高岡市民病院【1:病院】【診療科目:0】【一般病床数:283療養病床数:0精神病床数:42感染症病床数:6合計病床数:343】富山県高岡市宝町４番１号" }, "geometry": { "type": "Point", "coordinates": [ 137.028635, 36.756172 ] } },
{ "type": "Feature", "properties": { "ID": 1611160211888, "正式名称": "医療法人　万葉病院", "機関区分": 1, "都道府県コード": 16, "市区町村コード": 202, "所在地": "富山県高岡市西海老坂字大坪３６２", "緯度": 36.777613, "経度": 136.998942, "url": "https://www.iryou.teikyouseido.mhlw.go.jp/znk-web/juminkanja/S2430/initialize?prefCd=16&kikanCd=1160211888&kikanKbn=1", "url2": "https://www.kawagisikai-manyo.com", "内容": "医療法人　万葉病院【1:病院】【診療科目:0】【一般病床数:0療養病床数:40精神病床数:0感染症病床数:0合計病床数:40】富山県高岡市西海老坂字大坪３６２" }, "geometry": { "type": "Point", "coordinates": [ 136.998942, 36.777613 ] } },
{ "type": "Feature", "properties": { "ID": 1611160211987, "正式名称": "独立行政法人地域医療機能推進機構高岡ふしき病院", "機関区分": 1, "都道府県コード": 16, "市区町村コード": 202, "所在地": "富山県高岡市伏木古府元町８－５", "緯度": 36.790307, "経度": 137.045743, "url": "https://www.iryou.teikyouseido.mhlw.go.jp/znk-web/juminkanja/S2430/initialize?prefCd=16&kikanCd=1160211987&kikanKbn=1", "url2": "https://takaoka.jcho.go.jp", "内容": "独立行政法人地域医療機能推進機構高岡ふしき病院【1:病院】【診療科目:0】【一般病床数:161療養病床数:0精神病床数:0感染症病床数:0合計病床数:161】富山県高岡市伏木古府元町８－５" }, "geometry": { "type": "Point", "coordinates": [ 137.045743, 36.790307 ] } },
{ "type": "Feature", "properties": { "ID": 1611160211995, "正式名称": "医療法人　光ヶ丘病院", "機関区分": 1, "都道府県コード": 16, "市区町村コード": 202, "所在地": "富山県高岡市西藤平蔵３１３", "緯度": 36.706454, "経度": 136.985697, "url": "https://www.iryou.teikyouseido.mhlw.go.jp/znk-web/juminkanja/S2430/initialize?prefCd=16&kikanCd=1160211995&kikanKbn=1", "url2": "http://www.shirankai.net", "内容": "医療法人　光ヶ丘病院【1:病院】【診療科目:0】【一般病床数:67療養病床数:110精神病床数:0感染症病床数:0合計病床数:177】富山県高岡市西藤平蔵３１３" }, "geometry": { "type": "Point", "coordinates": [ 136.985697, 36.706454 ] } },
{ "type": "Feature", "properties": { "ID": 1611160212241, "正式名称": "医療法人社団桑山会　丹保病院", "機関区分": 1, "都道府県コード": 16, "市区町村コード": 202, "所在地": "富山県高岡市大坪町１丁目１番３号", "緯度": 36.75456, "経度": 137.017969, "url": "https://www.iryou.teikyouseido.mhlw.go.jp/znk-web/juminkanja/S2430/initialize?prefCd=16&kikanCd=1160212241&kikanKbn=1", "url2": "http://kuwayamakai.jp/", "内容": "医療法人社団桑山会　丹保病院【1:病院】【診療科目:0】【一般病床数:0療養病床数:34精神病床数:0感染症病床数:0合計病床数:34】富山県高岡市大坪町１丁目１番３号" }, "geometry": { "type": "Point", "coordinates": [ 137.017969, 36.75456 ] } },
{ "type": "Feature", "properties": { "ID": 1611160212308, "正式名称": "医療法人社団整志会沢田記念高岡整志会病院", "機関区分": 1, "都道府県コード": 16, "市区町村コード": 202, "所在地": "富山県高岡市大手町８－３１", "緯度": 36.745061, "経度": 137.01847, "url": "https://www.iryou.teikyouseido.mhlw.go.jp/znk-web/juminkanja/S2430/initialize?prefCd=16&kikanCd=1160212308&kikanKbn=1", "url2": "https://www.takaoka-seishikai.jp/", "内容": "医療法人社団整志会沢田記念高岡整志会病院【1:病院】【診療科目:0】【一般病床数:70療養病床数:0精神病床数:0感染症病床数:0合計病床数:70】富山県高岡市大手町８－３１" }, "geometry": { "type": "Point", "coordinates": [ 137.01847, 36.745061 ] } },
{ "type": "Feature", "properties": { "ID": 1611160212415, "正式名称": "医療法人高岡みなみハートセンター　みなみの杜病院", "機関区分": 1, "都道府県コード": 16, "市区町村コード": 202, "所在地": "富山県高岡市戸出町３－１４－２４", "緯度": 36.681262, "経度": 136.977726, "url": "https://www.iryou.teikyouseido.mhlw.go.jp/znk-web/juminkanja/S2430/initialize?prefCd=16&kikanCd=1160212415&kikanKbn=1", "url2": "http://takaoka-minami.nss-h.com/", "内容": "医療法人高岡みなみハートセンター　みなみの杜病院【1:病院】【診療科目:0】【一般病床数:53療養病床数:42精神病床数:0感染症病床数:0合計病床数:95】富山県高岡市戸出町３－１４－２４" }, "geometry": { "type": "Point", "coordinates": [ 136.977726, 36.681262 ] } },
{ "type": "Feature", "properties": { "ID": 1611160212605, "正式名称": "富山県済生会高岡病院", "機関区分": 1, "都道府県コード": 16, "市区町村コード": 202, "所在地": "富山県高岡市二塚３８７－１", "緯度": 36.721342, "経度": 137.01536, "url": "https://www.iryou.teikyouseido.mhlw.go.jp/znk-web/juminkanja/S2430/initialize?prefCd=16&kikanCd=1160212605&kikanKbn=1", "url2": "http://www.takaoka-saiseikai.jp/", "内容": "富山県済生会高岡病院【1:病院】【診療科目:0】【一般病床数:251療養病床数:0精神病床数:0感染症病床数:0合計病床数:251】富山県高岡市二塚３８７－１" }, "geometry": { "type": "Point", "coordinates": [ 137.01536, 36.721342 ] } },
{ "type": "Feature", "properties": { "ID": 1611160212670, "正式名称": "あさなぎ病院", "機関区分": 1, "都道府県コード": 16, "市区町村コード": 202, "所在地": "富山県高岡市五福町１番８号", "緯度": 36.756866, "経度": 137.014858, "url": "https://www.iryou.teikyouseido.mhlw.go.jp/znk-web/juminkanja/S2430/initialize?prefCd=16&kikanCd=1160212670&kikanKbn=1", "url2": "https://www.asanagi-hp.or.jp/", "内容": "あさなぎ病院【1:病院】【診療科目:0】【一般病床数:53療養病床数:0精神病床数:0感染症病床数:0合計病床数:53】富山県高岡市五福町１番８号" }, "geometry": { "type": "Point", "coordinates": [ 137.014858, 36.756866 ] } },
{ "type": "Feature", "properties": { "ID": 1611160212993, "正式名称": "サンバリー高岡病院", "機関区分": 1, "都道府県コード": 16, "市区町村コード": 202, "所在地": "富山県高岡市鷲北新４７７", "緯度": 36.767754, "経度": 137.037884, "url": "https://www.iryou.teikyouseido.mhlw.go.jp/znk-web/juminkanja/S2430/initialize?prefCd=16&kikanCd=1160212993&kikanKbn=1", "url2": "http://www.sunvery-group.com/", "内容": "サンバリー高岡病院【1:病院】【診療科目:0】【一般病床数:0療養病床数:100精神病床数:0感染症病床数:0合計病床数:100】富山県高岡市鷲北新４７７" }, "geometry": { "type": "Point", "coordinates": [ 137.037884, 36.767754 ] } },
{ "type": "Feature", "properties": { "ID": 1611160213157, "正式名称": "柴田病院", "機関区分": 1, "都道府県コード": 16, "市区町村コード": 202, "所在地": "富山県高岡市永楽町５－１", "緯度": 36.7432, "経度": 136.996805, "url": "https://www.iryou.teikyouseido.mhlw.go.jp/znk-web/juminkanja/S2430/initialize?prefCd=16&kikanCd=1160213157&kikanKbn=1", "url2": "https://www.shibata-hp.or.jp", "内容": "柴田病院【1:病院】【診療科目:0】【一般病床数:0療養病床数:0精神病床数:121感染症病床数:0合計病床数:121】富山県高岡市永楽町５－１" }, "geometry": { "type": "Point", "coordinates": [ 136.996805, 36.7432 ] } },
{ "type": "Feature", "properties": { "ID": 1611160213173, "正式名称": "川田病院", "機関区分": 1, "都道府県コード": 16, "市区町村コード": 202, "所在地": "富山県高岡市京町８－１", "緯度": 36.752755, "経度": 137.013637, "url": "https://www.iryou.teikyouseido.mhlw.go.jp/znk-web/juminkanja/S2430/initialize?prefCd=16&kikanCd=1160213173&kikanKbn=1", "url2": "https://www.kawada-byouin.com", "内容": "川田病院【1:病院】【診療科目:0】【一般病床数:0療養病床数:0精神病床数:140感染症病床数:0合計病床数:140】富山県高岡市京町８－１" }, "geometry": { "type": "Point", "coordinates": [ 137.013637, 36.752755 ] } },
{ "type": "Feature", "properties": { "ID": 1611160213215, "正式名称": "矢後病院", "機関区分": 1, "都道府県コード": 16, "市区町村コード": 202, "所在地": "富山県高岡市佐野１５３５", "緯度": 36.721091, "経度": 136.995112, "url": "https://www.iryou.teikyouseido.mhlw.go.jp/znk-web/juminkanja/S2430/initialize?prefCd=16&kikanCd=1160213215&kikanKbn=1", "url2": "http://www1.coralnet.or.jp/yago-hp/", "内容": "矢後病院【1:病院】【診療科目:0】【一般病床数:0療養病床数:0精神病床数:95感染症病床数:0合計病床数:95】富山県高岡市佐野１５３５" }, "geometry": { "type": "Point", "coordinates": [ 136.995112, 36.721091 ] } },
{ "type": "Feature", "properties": { "ID": 1611160213397, "正式名称": "駅南あずさ病院", "機関区分": 1, "都道府県コード": 16, "市区町村コード": 202, "所在地": "富山県高岡市二塚３７１－１", "緯度": 36.717981, "経度": 137.01411, "url": "https://www.iryou.teikyouseido.mhlw.go.jp/znk-web/juminkanja/S2430/initialize?prefCd=16&kikanCd=1160213397&kikanKbn=1", "url2": "https://www.azusakai.com", "内容": "駅南あずさ病院【1:病院】【診療科目:0】【一般病床数:0療養病床数:0精神病床数:120感染症病床数:0合計病床数:120】富山県高岡市二塚３７１－１" }, "geometry": { "type": "Point", "coordinates": [ 137.01411, 36.717981 ] } },
{ "type": "Feature", "properties": { "ID": 1611160213629, "正式名称": "サンバリー福岡病院", "機関区分": 1, "都道府県コード": 16, "市区町村コード": 202, "所在地": "富山県高岡市福岡町大野１５０", "緯度": 36.719424, "経度": 136.935311, "url": "https://www.iryou.teikyouseido.mhlw.go.jp/znk-web/juminkanja/S2430/initialize?prefCd=16&kikanCd=1160213629&kikanKbn=1", "url2": "http://sunvery-group.com/", "内容": "サンバリー福岡病院【1:病院】【診療科目:0】【一般病床数:0療養病床数:118精神病床数:0感染症病床数:0合計病床数:118】富山県高岡市福岡町大野１５０" }, "geometry": { "type": "Point", "coordinates": [ 136.935311, 36.719424 ] } },
{ "type": "Feature", "properties": { "ID": 1611160310433, "正式名称": "姫野病院", "機関区分": 1, "都道府県コード": 16, "市区町村コード": 211, "所在地": "富山県射水市放生津町１５－４", "緯度": 36.781503, "経度": 137.087879, "url": "https://www.iryou.teikyouseido.mhlw.go.jp/znk-web/juminkanja/S2430/initialize?prefCd=16&kikanCd=1160310433&kikanKbn=1", "url2": "http://himenobyouin.jp/", "内容": "姫野病院【1:病院】【診療科目:0】【一般病床数:0療養病床数:40精神病床数:0感染症病床数:0合計病床数:40】富山県射水市放生津町１５－４" }, "geometry": { "type": "Point", "coordinates": [ 137.087879, 36.781503 ] } },
{ "type": "Feature", "properties": { "ID": 1611160410019, "正式名称": "独立行政法人労働者健康安全機構　富山労災病院", "機関区分": 1, "都道府県コード": 16, "市区町村コード": 204, "所在地": "富山県魚津市六郎丸９９２", "緯度": 36.821533, "経度": 137.424599, "url": "https://www.iryou.teikyouseido.mhlw.go.jp/znk-web/juminkanja/S2430/initialize?prefCd=16&kikanCd=1160410019&kikanKbn=1", "url2": "https://www.toyamah.johas.go.jp", "内容": "独立行政法人労働者健康安全機構　富山労災病院【1:病院】【診療科目:0】【一般病床数:247療養病床数:0精神病床数:0感染症病床数:0合計病床数:247】富山県魚津市六郎丸９９２" }, "geometry": { "type": "Point", "coordinates": [ 137.424599, 36.821533 ] } },
{ "type": "Feature", "properties": { "ID": 1611160410522, "正式名称": "医療法人　新川病院", "機関区分": 1, "都道府県コード": 16, "市区町村コード": 204, "所在地": "富山県魚津市住吉２３６", "緯度": 36.800242, "経度": 137.399328, "url": "https://www.iryou.teikyouseido.mhlw.go.jp/znk-web/juminkanja/S2430/initialize?prefCd=16&kikanCd=1160410522&kikanKbn=1", "url2": "http://www.fukujukai.com/", "内容": "医療法人　新川病院【1:病院】【診療科目:0】【一般病床数:0療養病床数:60精神病床数:0感染症病床数:0合計病床数:60】富山県魚津市住吉２３６" }, "geometry": { "type": "Point", "coordinates": [ 137.399328, 36.800242 ] } },
{ "type": "Feature", "properties": { "ID": 1611160410555, "正式名称": "魚津病院", "機関区分": 1, "都道府県コード": 16, "市区町村コード": 204, "所在地": "富山県魚津市友道７８９", "緯度": 36.814755, "経度": 137.411267, "url": "https://www.iryou.teikyouseido.mhlw.go.jp/znk-web/juminkanja/S2430/initialize?prefCd=16&kikanCd=1160410555&kikanKbn=1", "url2": "http://www.uozubyouin.jp", "内容": "魚津病院【1:病院】【診療科目:0】【一般病床数:0療養病床数:58精神病床数:0感染症病床数:0合計病床数:58】富山県魚津市友道７８９" }, "geometry": { "type": "Point", "coordinates": [ 137.411267, 36.814755 ] } },
{ "type": "Feature", "properties": { "ID": 1611160410597, "正式名称": "魚津神経サナトリウム", "機関区分": 1, "都道府県コード": 16, "市区町村コード": 204, "所在地": "富山県魚津市江口１７８４－１", "緯度": 36.831309, "経度": 137.42521, "url": "https://www.iryou.teikyouseido.mhlw.go.jp/znk-web/juminkanja/S2430/initialize?prefCd=16&kikanCd=1160410597&kikanKbn=1", "url2": "https://www.uoz-sanatorium.or.jp/", "内容": "魚津神経サナトリウム【1:病院】【診療科目:0】【一般病床数:0療養病床数:0精神病床数:150感染症病床数:0合計病床数:150】富山県魚津市江口１７８４－１" }, "geometry": { "type": "Point", "coordinates": [ 137.42521, 36.831309 ] } },
{ "type": "Feature", "properties": { "ID": 1611160410639, "正式名称": "魚津緑ヶ丘病院", "機関区分": 1, "都道府県コード": 16, "市区町村コード": 204, "所在地": "富山県魚津市大光寺２８７", "緯度": 36.811506, "経度": 137.410934, "url": "https://www.iryou.teikyouseido.mhlw.go.jp/znk-web/juminkanja/S2430/initialize?prefCd=16&kikanCd=1160410639&kikanKbn=1", "url2": "http://www.umh.jp/", "内容": "魚津緑ヶ丘病院【1:病院】【診療科目:0】【一般病床数:0療養病床数:0精神病床数:140感染症病床数:0合計病床数:140】富山県魚津市大光寺２８７" }, "geometry": { "type": "Point", "coordinates": [ 137.410934, 36.811506 ] } },
{ "type": "Feature", "properties": { "ID": 1611160410837, "正式名称": "深川病院", "機関区分": 1, "都道府県コード": 16, "市区町村コード": 204, "所在地": "富山県魚津市東尾崎３４８４－１", "緯度": 36.842197, "経度": 137.437903, "url": "https://www.iryou.teikyouseido.mhlw.go.jp/znk-web/juminkanja/S2430/initialize?prefCd=16&kikanCd=1160410837&kikanKbn=1", "url2": "http://www.fukagawa-hp.or.jp", "内容": "深川病院【1:病院】【診療科目:0】【一般病床数:0療養病床数:154精神病床数:0感染症病床数:0合計病床数:154】富山県魚津市東尾崎３４８４－１" }, "geometry": { "type": "Point", "coordinates": [ 137.437903, 36.842197 ] } },
{ "type": "Feature", "properties": { "ID": 1611160510032, "正式名称": "金沢医科大学氷見市民病院", "機関区分": 1, "都道府県コード": 16, "市区町村コード": 205, "所在地": "富山県氷見市鞍川１１３０番地", "緯度": 36.855418, "経度": 136.968065, "url": "https://www.iryou.teikyouseido.mhlw.go.jp/znk-web/juminkanja/S2430/initialize?prefCd=16&kikanCd=1160510032&kikanKbn=1", "url2": "http://www.kanazawa-med.ac.jp/~himi/index.html", "内容": "金沢医科大学氷見市民病院【1:病院】【診療科目:0】【一般病床数:245療養病床数:0精神病床数:0感染症病床数:0合計病床数:250】富山県氷見市鞍川１１３０番地" }, "geometry": { "type": "Point", "coordinates": [ 136.968065, 36.855418 ] } },
{ "type": "Feature", "properties": { "ID": 1611160510503, "正式名称": "陽和温泉病院", "機関区分": 1, "都道府県コード": 16, "市区町村コード": 205, "所在地": "富山県氷見市堀田４－１", "緯度": 36.812359, "経度": 136.972998, "url": "https://www.iryou.teikyouseido.mhlw.go.jp/znk-web/juminkanja/S2430/initialize?prefCd=16&kikanCd=1160510503&kikanKbn=1", "url2": "http://www.yuuai-byouinkai.or.jp", "内容": "陽和温泉病院【1:病院】【診療科目:0】【一般病床数:0療養病床数:60精神病床数:0感染症病床数:0合計病床数:60】富山県氷見市堀田４－１" }, "geometry": { "type": "Point", "coordinates": [ 136.972998, 36.812359 ] } },
{ "type": "Feature", "properties": { "ID": 1611160510586, "正式名称": "医療法人財団正友会　中村記念病院", "機関区分": 1, "都道府県コード": 16, "市区町村コード": 205, "所在地": "富山県氷見市島尾８２５", "緯度": 36.823858, "経度": 137.011106, "url": "https://www.iryou.teikyouseido.mhlw.go.jp/znk-web/juminkanja/S2430/initialize?prefCd=16&kikanCd=1160510586&kikanKbn=1", "url2": "http://nakamurahp.or.jp/", "内容": "医療法人財団正友会　中村記念病院【1:病院】【診療科目:0】【一般病床数:52療養病床数:0精神病床数:0感染症病床数:0合計病床数:52】富山県氷見市島尾８２５" }, "geometry": { "type": "Point", "coordinates": [ 137.011106, 36.823858 ] } },
{ "type": "Feature", "properties": { "ID": 1611160510768, "正式名称": "ふるさと病院", "機関区分": 1, "都道府県コード": 16, "市区町村コード": 205, "所在地": "富山県氷見市鞍川１８７８－１", "緯度": 36.850438, "経度": 136.958859, "url": "https://www.iryou.teikyouseido.mhlw.go.jp/znk-web/juminkanja/S2430/initialize?prefCd=16&kikanCd=1160510768&kikanKbn=1", "url2": "http://www.meijukai.com", "内容": "ふるさと病院【1:病院】【診療科目:0】【一般病床数:0療養病床数:0精神病床数:45感染症病床数:0合計病床数:45】富山県氷見市鞍川１８７８－１" }, "geometry": { "type": "Point", "coordinates": [ 136.958859, 36.850438 ] } },
{ "type": "Feature", "properties": { "ID": 1611160610014, "正式名称": "富山県厚生農業協同組合連合会滑川病院", "機関区分": 1, "都道府県コード": 16, "市区町村コード": 206, "所在地": "富山県滑川市常盤町１１９", "緯度": 36.770176, "経度": 137.345247, "url": "https://www.iryou.teikyouseido.mhlw.go.jp/znk-web/juminkanja/S2430/initialize?prefCd=16&kikanCd=1160610014&kikanKbn=1", "url2": "http://www.kouseiren-namerikawa.jp", "内容": "富山県厚生農業協同組合連合会滑川病院【1:病院】【診療科目:0】【一般病床数:199療養病床数:0精神病床数:0感染症病床数:0合計病床数:199】富山県滑川市常盤町１１９" }, "geometry": { "type": "Point", "coordinates": [ 137.345247, 36.770176 ] } },
{ "type": "Feature", "properties": { "ID": 1611160610469, "正式名称": "医療法人社団　秀林会　吉見病院", "機関区分": 1, "都道府県コード": 16, "市区町村コード": 206, "所在地": "富山県滑川市清水町３－２５", "緯度": 36.763426, "経度": 137.343775, "url": "https://www.iryou.teikyouseido.mhlw.go.jp/znk-web/juminkanja/S2430/initialize?prefCd=16&kikanCd=1160610469&kikanKbn=1", "url2": "https://yoshimi-hospital.jp/", "内容": "医療法人社団　秀林会　吉見病院【1:病院】【診療科目:0】【一般病床数:0療養病床数:50精神病床数:0感染症病床数:0合計病床数:50】富山県滑川市清水町３－２５" }, "geometry": { "type": "Point", "coordinates": [ 137.343775, 36.763426 ] } },
{ "type": "Feature", "properties": { "ID": 1611160710012, "正式名称": "黒部市民病院", "機関区分": 1, "都道府県コード": 16, "市区町村コード": 207, "所在地": "富山県黒部市三日市１１０８番地１", "緯度": 36.871528, "経度": 137.441123, "url": "https://www.iryou.teikyouseido.mhlw.go.jp/znk-web/juminkanja/S2430/initialize?prefCd=16&kikanCd=1160710012&kikanKbn=1", "url2": "https://med-kurobe.jp/", "内容": "黒部市民病院【1:病院】【診療科目:0】【一般病床数:363療養病床数:0精神病床数:0感染症病床数:4合計病床数:372】富山県黒部市三日市１１０８番地１" }, "geometry": { "type": "Point", "coordinates": [ 137.441123, 36.871528 ] } },
{ "type": "Feature", "properties": { "ID": 1611160710319, "正式名称": "黒部温泉病院", "機関区分": 1, "都道府県コード": 16, "市区町村コード": 207, "所在地": "富山県黒部市窪野９２９番地", "緯度": 36.851389, "経度": 137.444626, "url": "https://www.iryou.teikyouseido.mhlw.go.jp/znk-web/juminkanja/S2430/initialize?prefCd=16&kikanCd=1160710319&kikanKbn=1", "url2": "http://www.yuuai-byouinkai.or.jp", "内容": "黒部温泉病院【1:病院】【診療科目:0】【一般病床数:0療養病床数:80精神病床数:0感染症病床数:0合計病床数:80】富山県黒部市窪野９２９番地" }, "geometry": { "type": "Point", "coordinates": [ 137.444626, 36.851389 ] } },
{ "type": "Feature", "properties": { "ID": 1611160710350, "正式名称": "医療法人社団　平成会　桜井病院", "機関区分": 1, "都道府県コード": 16, "市区町村コード": 207, "所在地": "富山県黒部市荻生６６７５番地の５", "緯度": 36.873278, "経度": 137.455483, "url": "https://www.iryou.teikyouseido.mhlw.go.jp/znk-web/juminkanja/S2430/initialize?prefCd=16&kikanCd=1160710350&kikanKbn=1", "url2": "http://www.med-sakurai.jp/", "内容": "医療法人社団　平成会　桜井病院【1:病院】【診療科目:0】【一般病床数:0療養病床数:120精神病床数:0感染症病床数:0合計病床数:120】富山県黒部市荻生６６７５番地の５" }, "geometry": { "type": "Point", "coordinates": [ 137.455483, 36.873278 ] } },
{ "type": "Feature", "properties": { "ID": 1611160710558, "正式名称": "池田リハビリテーション病院", "機関区分": 1, "都道府県コード": 16, "市区町村コード": 207, "所在地": "富山県黒部市荻生８２１", "緯度": 36.888249, "経度": 137.469898, "url": "https://www.iryou.teikyouseido.mhlw.go.jp/znk-web/juminkanja/S2430/initialize?prefCd=16&kikanCd=1160710558&kikanKbn=1", "url2": "http://www.ikeda-reha.or.jp/", "内容": "池田リハビリテーション病院【1:病院】【診療科目:0】【一般病床数:0療養病床数:41精神病床数:0感染症病床数:0合計病床数:41】富山県黒部市荻生８２１" }, "geometry": { "type": "Point", "coordinates": [ 137.469898, 36.888249 ] } },
{ "type": "Feature", "properties": { "ID": 1611160810010, "正式名称": "市立砺波総合病院", "機関区分": 1, "都道府県コード": 16, "市区町村コード": 208, "所在地": "富山県砺波市新富町１番６１号", "緯度": 36.640294, "経度": 136.950591, "url": "https://www.iryou.teikyouseido.mhlw.go.jp/znk-web/juminkanja/S2430/initialize?prefCd=16&kikanCd=1160810010&kikanKbn=1", "url2": "https://www.med.tonami.toyama.jp/", "内容": "市立砺波総合病院【1:病院】【診療科目:0】【一般病床数:343療養病床数:0精神病床数:44感染症病床数:4合計病床数:396】富山県砺波市新富町１番６１号" }, "geometry": { "type": "Point", "coordinates": [ 136.950591, 36.640294 ] } },
{ "type": "Feature", "properties": { "ID": 1611160810283, "正式名称": "砺波サナトリウム福井病院", "機関区分": 1, "都道府県コード": 16, "市区町村コード": 208, "所在地": "富山県砺波市太田５７０", "緯度": 36.630295, "経度": 136.980145, "url": "https://www.iryou.teikyouseido.mhlw.go.jp/znk-web/juminkanja/S2430/initialize?prefCd=16&kikanCd=1160810283&kikanKbn=1", "url2": "https://itp.ne.jp/info/160780556130781210/", "内容": "砺波サナトリウム福井病院【1:病院】【診療科目:0】【一般病床数:0療養病床数:0精神病床数:53感染症病床数:0合計病床数:53】富山県砺波市太田５７０" }, "geometry": { "type": "Point", "coordinates": [ 136.980145, 36.630295 ] } },
{ "type": "Feature", "properties": { "ID": 1611160810507, "正式名称": "砺波誠友病院", "機関区分": 1, "都道府県コード": 16, "市区町村コード": 208, "所在地": "富山県砺波市大窪１７ー１", "緯度": 36.654654, "経度": 136.980422, "url": "https://www.iryou.teikyouseido.mhlw.go.jp/znk-web/juminkanja/S2430/initialize?prefCd=16&kikanCd=1160810507&kikanKbn=1", "url2": null, "内容": "砺波誠友病院【1:病院】【診療科目:0】【一般病床数:0療養病床数:49精神病床数:0感染症病床数:0合計病床数:49】富山県砺波市大窪１７ー１" }, "geometry": { "type": "Point", "coordinates": [ 136.980422, 36.654654 ] } },
{ "type": "Feature", "properties": { "ID": 1611160810515, "正式名称": "あおい病院", "機関区分": 1, "都道府県コード": 16, "市区町村コード": 208, "所在地": "富山県砺波市堀内１８番１", "緯度": 36.649376, "経度": 136.970867, "url": "https://www.iryou.teikyouseido.mhlw.go.jp/znk-web/juminkanja/S2430/initialize?prefCd=16&kikanCd=1160810515&kikanKbn=1", "url2": "http://www.juzankai.jp", "内容": "あおい病院【1:病院】【診療科目:0】【一般病床数:0療養病床数:96精神病床数:0感染症病床数:0合計病床数:96】富山県砺波市堀内１８番１" }, "geometry": { "type": "Point", "coordinates": [ 136.970867, 36.649376 ] } },
{ "type": "Feature", "properties": { "ID": 1611160810523, "正式名称": "となみ三輪病院", "機関区分": 1, "都道府県コード": 16, "市区町村コード": 208, "所在地": "富山県砺波市頼成６０５", "緯度": 36.636573, "経度": 137.00842, "url": "https://www.iryou.teikyouseido.mhlw.go.jp/znk-web/juminkanja/S2430/initialize?prefCd=16&kikanCd=1160810523&kikanKbn=1", "url2": "http://www.sanikai.or.jp", "内容": "となみ三輪病院【1:病院】【診療科目:0】【一般病床数:0療養病床数:50精神病床数:0感染症病床数:0合計病床数:50】富山県砺波市頼成６０５" }, "geometry": { "type": "Point", "coordinates": [ 137.00842, 36.636573 ] } },
{ "type": "Feature", "properties": { "ID": 1611160810556, "正式名称": "砺波サンシャイン病院", "機関区分": 1, "都道府県コード": 16, "市区町村コード": 208, "所在地": "富山県砺波市鷹栖５７５番地", "緯度": 36.635627, "経度": 136.939537, "url": "https://www.iryou.teikyouseido.mhlw.go.jp/znk-web/juminkanja/S2430/initialize?prefCd=16&kikanCd=1160810556&kikanKbn=1", "url2": "http://www.tonami-shp.com/", "内容": "砺波サンシャイン病院【1:病院】【診療科目:0】【一般病床数:0療養病床数:50精神病床数:0感染症病床数:0合計病床数:50】富山県砺波市鷹栖５７５番地" }, "geometry": { "type": "Point", "coordinates": [ 136.939537, 36.635627 ] } },
{ "type": "Feature", "properties": { "ID": 1611160910158, "正式名称": "公立学校共済組合北陸中央病院", "機関区分": 1, "都道府県コード": 16, "市区町村コード": 209, "所在地": "富山県小矢部市野寺１２３", "緯度": 36.666068, "経度": 136.890901, "url": "https://www.iryou.teikyouseido.mhlw.go.jp/znk-web/juminkanja/S2430/initialize?prefCd=16&kikanCd=1160910158&kikanKbn=1", "url2": "http://hokuriku-ctr-hsp.jp", "内容": "公立学校共済組合北陸中央病院【1:病院】【診療科目:0】【一般病床数:128療養病床数:53精神病床数:0感染症病床数:0合計病床数:181】富山県小矢部市野寺１２３" }, "geometry": { "type": "Point", "coordinates": [ 136.890901, 36.666068 ] } },
{ "type": "Feature", "properties": { "ID": 1611160910166, "正式名称": "小矢部大家病院", "機関区分": 1, "都道府県コード": 16, "市区町村コード": 209, "所在地": "富山県小矢部市島３２１", "緯度": 36.665317, "経度": 136.876124, "url": "https://www.iryou.teikyouseido.mhlw.go.jp/znk-web/juminkanja/S2430/initialize?prefCd=16&kikanCd=1160910166&kikanKbn=1", "url2": "http://www1.tst.ne.jp/ohkahp", "内容": "小矢部大家病院【1:病院】【診療科目:0】【一般病床数:0療養病床数:0精神病床数:136感染症病床数:0合計病床数:136】富山県小矢部市島３２１" }, "geometry": { "type": "Point", "coordinates": [ 136.876124, 36.665317 ] } },
{ "type": "Feature", "properties": { "ID": 1611160910356, "正式名称": "西野内科病院", "機関区分": 1, "都道府県コード": 16, "市区町村コード": 209, "所在地": "富山県小矢部市本町３ー３３", "緯度": 36.67414, "経度": 136.866338, "url": "https://www.iryou.teikyouseido.mhlw.go.jp/znk-web/juminkanja/S2430/initialize?prefCd=16&kikanCd=1160910356&kikanKbn=1", "url2": "https://www.nishinokai.jp", "内容": "西野内科病院【1:病院】【診療科目:0】【一般病床数:0療養病床数:36精神病床数:0感染症病床数:0合計病床数:36】富山県小矢部市本町３ー３３" }, "geometry": { "type": "Point", "coordinates": [ 136.866338, 36.67414 ] } },
{ "type": "Feature", "properties": { "ID": 1611160910497, "正式名称": "松岡病院", "機関区分": 1, "都道府県コード": 16, "市区町村コード": 209, "所在地": "富山県小矢部市畠中町４－１８", "緯度": 36.678372, "経度": 136.872152, "url": "https://www.iryou.teikyouseido.mhlw.go.jp/znk-web/juminkanja/S2430/initialize?prefCd=16&kikanCd=1160910497&kikanKbn=1", "url2": "http://matsuoka-hp.byoinnavi.jp/pc/clinic.html", "内容": "松岡病院【1:病院】【診療科目:0】【一般病床数:0療養病床数:0精神病床数:113感染症病床数:0合計病床数:113】富山県小矢部市畠中町４－１８" }, "geometry": { "type": "Point", "coordinates": [ 136.872152, 36.678372 ] } },
{ "type": "Feature", "properties": { "ID": 1611160910505, "正式名称": "つざわ津田病院", "機関区分": 1, "都道府県コード": 16, "市区町村コード": 209, "所在地": "富山県小矢部市新西１１７－１", "緯度": 36.629599, "経度": 136.895819, "url": "https://www.iryou.teikyouseido.mhlw.go.jp/znk-web/juminkanja/S2430/initialize?prefCd=16&kikanCd=1160910505&kikanKbn=1", "url2": "http://tsudahp.html.xdomain.jp/", "内容": "つざわ津田病院【1:病院】【診療科目:0】【一般病床数:0療養病床数:36精神病床数:0感染症病床数:0合計病床数:36】富山県小矢部市新西１１７－１" }, "geometry": { "type": "Point", "coordinates": [ 136.895819, 36.629599 ] } },
{ "type": "Feature", "properties": { "ID": 1611160910521, "正式名称": "太田病院", "機関区分": 1, "都道府県コード": 16, "市区町村コード": 209, "所在地": "富山県小矢部市新富町３－１１", "緯度": 36.677705, "経度": 136.869596, "url": "https://www.iryou.teikyouseido.mhlw.go.jp/znk-web/juminkanja/S2430/initialize?prefCd=16&kikanCd=1160910521&kikanKbn=1", "url2": "https://www.otahospital.com", "内容": "太田病院【1:病院】【診療科目:0】【一般病床数:0療養病床数:20精神病床数:0感染症病床数:0合計病床数:20】富山県小矢部市新富町３－１１" }, "geometry": { "type": "Point", "coordinates": [ 136.869596, 36.677705 ] } },
{ "type": "Feature", "properties": { "ID": 1611161510387, "正式名称": "あゆみの郷", "機関区分": 1, "都道府県コード": 16, "市区町村コード": 201, "所在地": "富山県富山市稲代１０２３", "緯度": 36.569917, "経度": 137.198435, "url": "https://www.iryou.teikyouseido.mhlw.go.jp/znk-web/juminkanja/S2430/initialize?prefCd=16&kikanCd=1161510387&kikanKbn=1", "url2": "https://syuaikai.com", "内容": "あゆみの郷【1:病院】【診療科目:0】【一般病床数:59療養病床数:0精神病床数:0感染症病床数:0合計病床数:59】富山県富山市稲代１０２３" }, "geometry": { "type": "Point", "coordinates": [ 137.198435, 36.569917 ] } },
{ "type": "Feature", "properties": { "ID": 1611161510437, "正式名称": "おおやま病院", "機関区分": 1, "都道府県コード": 16, "市区町村コード": 201, "所在地": "富山県富山市花崎８５番地", "緯度": 36.609608, "経度": 137.286593, "url": "https://www.iryou.teikyouseido.mhlw.go.jp/znk-web/juminkanja/S2430/initialize?prefCd=16&kikanCd=1161510437&kikanKbn=1", "url2": "https://www.ooyamahp.or.jp", "内容": "おおやま病院【1:病院】【診療科目:0】【一般病床数:0療養病床数:48精神病床数:0感染症病床数:0合計病床数:48】富山県富山市花崎８５番地" }, "geometry": { "type": "Point", "coordinates": [ 137.286593, 36.609608 ] } },
{ "type": "Feature", "properties": { "ID": 1611161610211, "正式名称": "かみいち総合病院", "機関区分": 1, "都道府県コード": 16, "市区町村コード": 322, "所在地": "富山県中新川郡上市町法音寺５１", "緯度": 36.703183, "経度": 137.360721, "url": "https://www.iryou.teikyouseido.mhlw.go.jp/znk-web/juminkanja/S2430/initialize?prefCd=16&kikanCd=1161610211&kikanKbn=1", "url2": "https://www.kamiichi-hosp.jp/", "内容": "かみいち総合病院【1:病院】【診療科目:0】【一般病床数:148療養病床数:0精神病床数:51感染症病床数:0合計病床数:199】富山県中新川郡上市町法音寺５１" }, "geometry": { "type": "Point", "coordinates": [ 137.360721, 36.703183 ] } },
{ "type": "Feature", "properties": { "ID": 1611161610419, "正式名称": "医療法人財団恵仁会　藤木病院", "機関区分": 1, "都道府県コード": 16, "市区町村コード": 323, "所在地": "富山県中新川郡立山町大石原２２５", "緯度": 36.66538, "経度": 137.297811, "url": "https://www.iryou.teikyouseido.mhlw.go.jp/znk-web/juminkanja/S2430/initialize?prefCd=16&kikanCd=1161610419&kikanKbn=1", "url2": "http://www.keijinkai-f.or.jp", "内容": "医療法人財団恵仁会　藤木病院【1:病院】【診療科目:0】【一般病床数:60療養病床数:0精神病床数:0感染症病床数:0合計病床数:60】富山県中新川郡立山町大石原２２５" }, "geometry": { "type": "Point", "coordinates": [ 137.297811, 36.66538 ] } },
{ "type": "Feature", "properties": { "ID": 1611161710078, "正式名称": "あさひ総合病院", "機関区分": 1, "都道府県コード": 16, "市区町村コード": 343, "所在地": "富山県下新川郡朝日町泊４７７番地", "緯度": 36.960048, "経度": 137.561415, "url": "https://www.iryou.teikyouseido.mhlw.go.jp/znk-web/juminkanja/S2430/initialize?prefCd=16&kikanCd=1161710078&kikanKbn=1", "url2": "https://asahi-ghp.com/", "内容": "あさひ総合病院【1:病院】【診療科目:0】【一般病床数:109療養病床数:0精神病床数:0感染症病床数:0合計病床数:109】富山県下新川郡朝日町泊４７７番地" }, "geometry": { "type": "Point", "coordinates": [ 137.561415, 36.960048 ] } },
{ "type": "Feature", "properties": { "ID": 1611161710623, "正式名称": "坂東病院", "機関区分": 1, "都道府県コード": 16, "市区町村コード": 343, "所在地": "富山県下新川郡朝日町道下９００", "緯度": 36.948327, "経度": 137.562332, "url": "https://www.iryou.teikyouseido.mhlw.go.jp/znk-web/juminkanja/S2430/initialize?prefCd=16&kikanCd=1161710623&kikanKbn=1", "url2": "http://www.bandou-hp.com/pc/", "内容": "坂東病院【1:病院】【診療科目:0】【一般病床数:48療養病床数:0精神病床数:0感染症病床数:0合計病床数:48】富山県下新川郡朝日町道下９００" }, "geometry": { "type": "Point", "coordinates": [ 137.562332, 36.948327 ] } },
{ "type": "Feature", "properties": { "ID": 1611161710847, "正式名称": "丸川病院", "機関区分": 1, "都道府県コード": 16, "市区町村コード": 342, "所在地": "富山県下新川郡入善町青島３６９－１", "緯度": 36.94916, "経度": 137.562332, "url": "https://www.iryou.teikyouseido.mhlw.go.jp/znk-web/juminkanja/S2430/initialize?prefCd=16&kikanCd=1161710847&kikanKbn=1", "url2": "http://www.marukawa-hp.com/", "内容": "丸川病院【1:病院】【診療科目:0】【一般病床数:38療養病床数:0精神病床数:0感染症病床数:0合計病床数:38】富山県下新川郡入善町青島３６９－１" }, "geometry": { "type": "Point", "coordinates": [ 137.562332, 36.94916 ] } },
{ "type": "Feature", "properties": { "ID": 1611161810340, "正式名称": "医療法人社団　友愛病院会　友愛温泉病院", "機関区分": 1, "都道府県コード": 16, "市区町村コード": 201, "所在地": "富山県富山市婦中町新町２１３１", "緯度": 36.663311, "経度": 137.123365, "url": "https://www.iryou.teikyouseido.mhlw.go.jp/znk-web/juminkanja/S2430/initialize?prefCd=16&kikanCd=1161810340&kikanKbn=1", "url2": "http://www.yuuai-byouinkai.or.jp", "内容": "医療法人社団　友愛病院会　友愛温泉病院【1:病院】【診療科目:0】【一般病床数:0療養病床数:160精神病床数:0感染症病床数:0合計病床数:160】富山県富山市婦中町新町２１３１" }, "geometry": { "type": "Point", "coordinates": [ 137.123365, 36.663311 ] } },
{ "type": "Feature", "properties": { "ID": 1611161810399, "正式名称": "富山西リハビリテーション病院", "機関区分": 1, "都道府県コード": 16, "市区町村コード": 201, "所在地": "富山県富山市婦中町下轡田１０１０", "緯度": 36.659311, "経度": 137.17347, "url": "https://www.iryou.teikyouseido.mhlw.go.jp/znk-web/juminkanja/S2430/initialize?prefCd=16&kikanCd=1161810399&kikanKbn=1", "url2": "http://toyama-nishireha.jp/", "内容": "富山西リハビリテーション病院【1:病院】【診療科目:0】【一般病床数:0療養病床数:120精神病床数:0感染症病床数:0合計病床数:120】富山県富山市婦中町下轡田１０１０" }, "geometry": { "type": "Point", "coordinates": [ 137.17347, 36.659311 ] } },
{ "type": "Feature", "properties": { "ID": 1611161810555, "正式名称": "有沢橋病院", "機関区分": 1, "都道府県コード": 16, "市区町村コード": 201, "所在地": "富山県富山市婦中町羽根新５", "緯度": 36.674739, "経度": 137.184681, "url": "https://www.iryou.teikyouseido.mhlw.go.jp/znk-web/juminkanja/S2430/initialize?prefCd=16&kikanCd=1161810555&kikanKbn=1", "url2": "https://www.arisawabashi.jp", "内容": "有沢橋病院【1:病院】【診療科目:0】【一般病床数:0療養病床数:0精神病床数:62感染症病床数:0合計病床数:62】富山県富山市婦中町羽根新５" }, "geometry": { "type": "Point", "coordinates": [ 137.184681, 36.674739 ] } },
{ "type": "Feature", "properties": { "ID": 1611161810621, "正式名称": "萩野病院", "機関区分": 1, "都道府県コード": 16, "市区町村コード": 201, "所在地": "富山県富山市婦中町萩島３１５－１", "緯度": 36.628299, "経度": 137.179323, "url": "https://www.iryou.teikyouseido.mhlw.go.jp/znk-web/juminkanja/S2430/initialize?prefCd=16&kikanCd=1161810621&kikanKbn=1", "url2": null, "内容": "萩野病院【1:病院】【診療科目:0】【一般病床数:0療養病床数:80精神病床数:0感染症病床数:0合計病床数:80】富山県富山市婦中町萩島３１５－１" }, "geometry": { "type": "Point", "coordinates": [ 137.179323, 36.628299 ] } },
{ "type": "Feature", "properties": { "ID": 1611161910413, "正式名称": "医療法人　太閤山病院", "機関区分": 1, "都道府県コード": 16, "市区町村コード": 211, "所在地": "富山県射水市橋下条１９５", "緯度": 36.700484, "経度": 137.079995, "url": "https://www.iryou.teikyouseido.mhlw.go.jp/znk-web/juminkanja/S2430/initialize?prefCd=16&kikanCd=1161910413&kikanKbn=1", "url2": null, "内容": "医療法人　太閤山病院【1:病院】【診療科目:0】【一般病床数:0療養病床数:0精神病床数:116感染症病床数:0合計病床数:116】富山県射水市橋下条１９５" }, "geometry": { "type": "Point", "coordinates": [ 137.079995, 36.700484 ] } },
{ "type": "Feature", "properties": { "ID": 1611161910702, "正式名称": "大島くるみ病院", "機関区分": 1, "都道府県コード": 16, "市区町村コード": 211, "所在地": "富山県射水市大島北野４８", "緯度": 36.745034, "経度": 137.052384, "url": "https://www.iryou.teikyouseido.mhlw.go.jp/znk-web/juminkanja/S2430/initialize?prefCd=16&kikanCd=1161910702&kikanKbn=1", "url2": "http://www.kurumi.or.jp", "内容": "大島くるみ病院【1:病院】【診療科目:0】【一般病床数:0療養病床数:99精神病床数:0感染症病床数:0合計病床数:99】富山県射水市大島北野４８" }, "geometry": { "type": "Point", "coordinates": [ 137.052384, 36.745034 ] } },
{ "type": "Feature", "properties": { "ID": 1611161910769, "正式名称": "真生会富山病院", "機関区分": 1, "都道府県コード": 16, "市区町村コード": 211, "所在地": "富山県射水市下若８９－１０", "緯度": 36.717038, "経度": 137.076661, "url": "https://www.iryou.teikyouseido.mhlw.go.jp/znk-web/juminkanja/S2430/initialize?prefCd=16&kikanCd=1161910769&kikanKbn=1", "url2": "https://www.shinseikai.jp/", "内容": "真生会富山病院【1:病院】【診療科目:0】【一般病床数:99療養病床数:0精神病床数:0感染症病床数:0合計病床数:99】富山県射水市下若８９－１０" }, "geometry": { "type": "Point", "coordinates": [ 137.076661, 36.717038 ] } },
{ "type": "Feature", "properties": { "ID": 1611161910777, "正式名称": "グリーンヒルズ若草病院", "機関区分": 1, "都道府県コード": 16, "市区町村コード": 211, "所在地": "富山県射水市藤巻５１－２", "緯度": 36.708066, "経度": 137.052052, "url": "https://www.iryou.teikyouseido.mhlw.go.jp/znk-web/juminkanja/S2430/initialize?prefCd=16&kikanCd=1161910777&kikanKbn=1", "url2": "http://www.wakakusa-hp.or.jp", "内容": "グリーンヒルズ若草病院【1:病院】【診療科目:0】【一般病床数:0療養病床数:0精神病床数:172感染症病床数:0合計病床数:172】富山県射水市藤巻５１－２" }, "geometry": { "type": "Point", "coordinates": [ 137.052052, 36.708066 ] } },
{ "type": "Feature", "properties": { "ID": 1611161911049, "正式名称": "射水市民病院", "機関区分": 1, "都道府県コード": 16, "市区町村コード": 211, "所在地": "富山県射水市朴木２０", "緯度": 36.759311, "経度": 137.081408, "url": "https://www.iryou.teikyouseido.mhlw.go.jp/znk-web/juminkanja/S2430/initialize?prefCd=16&kikanCd=1161911049&kikanKbn=1", "url2": "http://hosp.city.imizu.toyama.jp", "内容": "射水市民病院【1:病院】【診療科目:0】【一般病床数:195療養病床数:0精神病床数:0感染症病床数:0合計病床数:199】富山県射水市朴木２０" }, "geometry": { "type": "Point", "coordinates": [ 137.081408, 36.759311 ] } },
{ "type": "Feature", "properties": { "ID": 1611162010395, "正式名称": "南砺市民病院", "機関区分": 1, "都道府県コード": 16, "市区町村コード": 210, "所在地": "富山県南砺市井波９３８番地", "緯度": 36.570246, "経度": 136.973315, "url": "https://www.iryou.teikyouseido.mhlw.go.jp/znk-web/juminkanja/S2430/initialize?prefCd=16&kikanCd=1162010395&kikanKbn=1", "url2": "https://shiminhp.city.nanto.toyama.jp", "内容": "南砺市民病院【1:病院】【診療科目:0】【一般病床数:175療養病床数:0精神病床数:0感染症病床数:0合計病床数:175】富山県南砺市井波９３８番地" }, "geometry": { "type": "Point", "coordinates": [ 136.973315, 36.570246 ] } },
{ "type": "Feature", "properties": { "ID": 1611162010635, "正式名称": "ふくの若葉病院", "機関区分": 1, "都道府県コード": 16, "市区町村コード": 210, "所在地": "富山県南砺市苗島３６７", "緯度": 36.586327, "経度": 136.931595, "url": "https://www.iryou.teikyouseido.mhlw.go.jp/znk-web/juminkanja/S2430/initialize?prefCd=16&kikanCd=1162010635&kikanKbn=1", "url2": "http://www1.tst.ne.jp/wakaba/", "内容": "ふくの若葉病院【1:病院】【診療科目:0】【一般病床数:0療養病床数:100精神病床数:0感染症病床数:0合計病床数:100】富山県南砺市苗島３６７" }, "geometry": { "type": "Point", "coordinates": [ 136.931595, 36.586327 ] } },
{ "type": "Feature", "properties": { "ID": 1611162110443, "正式名称": "公立南砺中央病院", "機関区分": 1, "都道府県コード": 16, "市区町村コード": 210, "所在地": "富山県南砺市梅野２００７番地５", "緯度": 36.541831, "経度": 136.904961, "url": "https://www.iryou.teikyouseido.mhlw.go.jp/znk-web/juminkanja/S2430/initialize?prefCd=16&kikanCd=1162110443&kikanKbn=1", "url2": "http://nantohp.city.nanto.toyama.jp", "内容": "公立南砺中央病院【1:病院】【診療科目:0】【一般病床数:104療養病床数:0精神病床数:0感染症病床数:0合計病床数:104】富山県南砺市梅野２００７番地５" }, "geometry": { "type": "Point", "coordinates": [ 136.904961, 36.541831 ] } },
{ "type": "Feature", "properties": { "ID": 1611163000001, "正式名称": "西能みなみ病院", "機関区分": 1, "都道府県コード": 16, "市区町村コード": 201, "所在地": "富山県富山市秋ヶ島１４５－１", "緯度": 36.645131, "経度": 137.193238, "url": "https://www.iryou.teikyouseido.mhlw.go.jp/znk-web/juminkanja/S2430/initialize?prefCd=16&kikanCd=1163000001&kikanKbn=1", "url2": "http://www.sainouhp.or.jp/~minami/", "内容": "西能みなみ病院【1:病院】【診療科目:0】【一般病床数:0療養病床数:88精神病床数:0感染症病床数:0合計病床数:88】富山県富山市秋ヶ島１４５－１" }, "geometry": { "type": "Point", "coordinates": [ 137.193238, 36.645131 ] } },
{ "type": "Feature", "properties": { "ID": 1611163000011, "正式名称": "うおざきファミリー病院", "機関区分": 1, "都道府県コード": 16, "市区町村コード": 201, "所在地": "富山県富山市千石町六丁目３－７", "緯度": 36.683488, "経度": 137.210234, "url": "https://www.iryou.teikyouseido.mhlw.go.jp/znk-web/juminkanja/S2430/initialize?prefCd=16&kikanCd=1163000011&kikanKbn=1", "url2": "https://uozaki-family.com/", "内容": "うおざきファミリー病院【1:病院】【診療科目:0】【一般病床数:51療養病床数:0精神病床数:0感染症病床数:0合計病床数:51】富山県富山市千石町六丁目３－７" }, "geometry": { "type": "Point", "coordinates": [ 137.210234, 36.683488 ] } },
{ "type": "Feature", "properties": { "ID": 1611163000013, "正式名称": "西能病院", "機関区分": 1, "都道府県コード": 16, "市区町村コード": 201, "所在地": "富山県富山市高田７０", "緯度": 36.684829, "経度": 137.185071, "url": "https://www.iryou.teikyouseido.mhlw.go.jp/znk-web/juminkanja/S2430/initialize?prefCd=16&kikanCd=1163000013&kikanKbn=1", "url2": "http://www.sainouhp.or.jp/", "内容": "西能病院【1:病院】【診療科目:0】【一般病床数:97療養病床数:0精神病床数:0感染症病床数:0合計病床数:97】富山県富山市高田７０" }, "geometry": { "type": "Point", "coordinates": [ 137.185071, 36.684829 ] } },
{ "type": "Feature", "properties": { "ID": 1611163000014, "正式名称": "医療法人社団　尽誠会　野村病院", "機関区分": 1, "都道府県コード": 16, "市区町村コード": 201, "所在地": "富山県富山市水橋辻ケ堂４６６－１", "緯度": 36.745622, "経度": 137.296974, "url": "https://www.iryou.teikyouseido.mhlw.go.jp/znk-web/juminkanja/S2430/initialize?prefCd=16&kikanCd=1163000014&kikanKbn=1", "url2": "https://nomura-hospital.jp/", "内容": "医療法人社団　尽誠会　野村病院【1:病院】【診療科目:0】【一般病床数:0療養病床数:200精神病床数:0感染症病床数:0合計病床数:200】富山県富山市水橋辻ケ堂４６６－１" }, "geometry": { "type": "Point", "coordinates": [ 137.296974, 36.745622 ] } },
{ "type": "Feature", "properties": { "ID": 1611168010019, "正式名称": "独立行政法人国立病院機構富山病院", "機関区分": 1, "都道府県コード": 16, "市区町村コード": 201, "所在地": "富山県富山市婦中町新町３１４５番地", "緯度": 36.655156, "経度": 137.118632, "url": "https://www.iryou.teikyouseido.mhlw.go.jp/znk-web/juminkanja/S2430/initialize?prefCd=16&kikanCd=1168010019&kikanKbn=1", "url2": "https://toyama.hosp.go.jp/", "内容": "独立行政法人国立病院機構富山病院【1:病院】【診療科目:0】【一般病床数:270療養病床数:0精神病床数:0感染症病床数:0合計病床数:275】富山県富山市婦中町新町３１４５番地" }, "geometry": { "type": "Point", "coordinates": [ 137.118632, 36.655156 ] } },
{ "type": "Feature", "properties": { "ID": 1611168010027, "正式名称": "独立行政法人国立病院機構北陸病院", "機関区分": 1, "都道府県コード": 16, "市区町村コード": 210, "所在地": "富山県南砺市信末５９６３", "緯度": 36.539609, "経度": 136.904239, "url": "https://www.iryou.teikyouseido.mhlw.go.jp/znk-web/juminkanja/S2430/initialize?prefCd=16&kikanCd=1168010027&kikanKbn=1", "url2": "https://hokuriku.hosp.go.jp/index.html", "内容": "独立行政法人国立病院機構北陸病院【1:病院】【診療科目:0】【一般病床数:100療養病床数:0精神病床数:172感染症病床数:0合計病床数:272】富山県南砺市信末５９６３" }, "geometry": { "type": "Point", "coordinates": [ 136.904239, 36.539609 ] } },
{ "type": "Feature", "properties": { "ID": 1611168010035, "正式名称": "国立大学法人　富山大学附属病院", "機関区分": 1, "都道府県コード": 16, "市区町村コード": 201, "所在地": "富山県富山市杉谷２６３０番地", "緯度": 36.679904, "経度": 137.140824, "url": "https://www.iryou.teikyouseido.mhlw.go.jp/znk-web/juminkanja/S2430/initialize?prefCd=16&kikanCd=1168010035&kikanKbn=1", "url2": "https://www.hosp.u-toyama.ac.jp/", "内容": "国立大学法人　富山大学附属病院【1:病院】【診療科目:0】【一般病床数:566療養病床数:0精神病床数:39感染症病床数:3合計病床数:608】富山県富山市杉谷２６３０番地" }, "geometry": { "type": "Point", "coordinates": [ 137.140824, 36.679904 ] } },
{ "type": "Feature", "properties": { "ID": 1611168010043, "正式名称": "富山市立富山まちなか病院", "機関区分": 1, "都道府県コード": 16, "市区町村コード": 201, "所在地": "富山県富山市鹿島町二丁目２番２９号", "緯度": 36.690071, "経度": 137.204096, "url": "https://www.iryou.teikyouseido.mhlw.go.jp/znk-web/juminkanja/S2430/initialize?prefCd=16&kikanCd=1168010043&kikanKbn=1", "url2": "https://www.tch.toyama.toyama.jp/tmh/", "内容": "富山市立富山まちなか病院【1:病院】【診療科目:0】【一般病床数:50療養病床数:0精神病床数:0感染症病床数:0合計病床数:50】富山県富山市鹿島町二丁目２番２９号" }, "geometry": { "type": "Point", "coordinates": [ 137.204096, 36.690071 ] } },
{ "type": "Feature", "properties": { "ID": 1611168010045, "正式名称": "医療法人社団　親和会　チューリップ長江病院", "機関区分": 1, "都道府県コード": 16, "市区町村コード": 201, "所在地": "富山県富山市長江５－４－３３", "緯度": 36.687726, "経度": 137.245241, "url": "https://www.iryou.teikyouseido.mhlw.go.jp/znk-web/juminkanja/S2430/initialize?prefCd=16&kikanCd=1168010045&kikanKbn=1", "url2": "http://www.tulipen.jp", "内容": "医療法人社団　親和会　チューリップ長江病院【1:病院】【診療科目:0】【一般病床数:0療養病床数:45精神病床数:0感染症病床数:0合計病床数:45】富山県富山市長江５－４－３３" }, "geometry": { "type": "Point", "coordinates": [ 137.245241, 36.687726 ] } },
{ "type": "Feature", "properties": { "ID": 1611168010048, "正式名称": "富山西総合病院", "機関区分": 1, "都道府県コード": 16, "市区町村コード": 201, "所在地": "富山県富山市婦中町下轡田１０１９番地", "緯度": 36.66731, "経度": 137.174796, "url": "https://www.iryou.teikyouseido.mhlw.go.jp/znk-web/juminkanja/S2430/initialize?prefCd=16&kikanCd=1168010048&kikanKbn=1", "url2": "https://toyama-nishi.jp/", "内容": "富山西総合病院【1:病院】【診療科目:0】【一般病床数:158療養病床数:41精神病床数:0感染症病床数:0合計病床数:199】富山県富山市婦中町下轡田１０１９番地" }, "geometry": { "type": "Point", "coordinates": [ 137.174796, 36.66731 ] } },
{ "type": "Feature", "properties": { "ID": 1611168010049, "正式名称": "みなみの星病院", "機関区分": 1, "都道府県コード": 16, "市区町村コード": 201, "所在地": "富山県富山市二俣３８２", "緯度": 36.647317, "経度": 137.218832, "url": "https://www.iryou.teikyouseido.mhlw.go.jp/znk-web/juminkanja/S2430/initialize?prefCd=16&kikanCd=1168010049&kikanKbn=1", "url2": "https://toyama-souseikai.or.jp/minami/", "内容": "みなみの星病院【1:病院】【診療科目:0】【一般病床数:40療養病床数:0精神病床数:0感染症病床数:0合計病床数:40】富山県富山市二俣３８２" }, "geometry": { "type": "Point", "coordinates": [ 137.218832, 36.647317 ] } }
]
}
